station,valid,tmpf,dwpf,relh,drct,sknt,p01i,alti,mslp,vsby,gust,skyc1,skyc2,skyc3,skyc4,skyl1,skyl2,skyl3,skyl4,wxcodes,ice_accretion_1hr,ice_accretion_3hr,ice_accretion_6hr,peak_wind_gust,peak_wind_drct,peak_wind_time,feel,metar,snowdepth
EFHK,2025-01-22 00:20,26.60,24.80,92.80,120.00,11.00,0.00,29.94,,6.21,,OVC,,,,700.00,,,,-SN,,,,,,,15.64,EFHK 220020Z 12011KT 9999 -SN OVC007 M03/M04 Q1014 TEMPO 7000,
EFHK,2025-01-22 00:50,28.40,24.80,86.18,120.00,9.00,0.00,29.94,,6.21,,OVC,,,,700.00,,,,-SN,,,,,,,19.04,EFHK 220050Z 12009KT 9999 -SN OVC007 M02/M04 Q1014 TEMPO 7000,
EFHK,2025-01-22 01:20,28.40,26.60,92.86,130.00,10.00,0.00,29.94,,6.21,,OVC,,,,700.00,,,,-SN,,,,,,,18.45,EFHK 220120Z 13010KT 9999 -SN OVC007 M02/M03 Q1014 TEMPO 7000,
EFHK,2025-01-22 01:50,28.40,26.60,92.86,120.00,8.00,0.00,29.91,,2.49,,OVC,,,,700.00,,,,-SN,,,,,,,19.68,EFHK 220150Z 12008KT 090V150 4000 -SN OVC007 M02/M03 Q1013 TEMPO 2500,
EFHK,2025-01-22 02:20,28.40,26.60,92.86,120.00,6.00,0.00,29.91,,1.55,,FEW,OVC,,,500.00,600.00,,,-SN,,,,,,,21.19,EFHK 220220Z 12006KT 2500 -SN FEW005 OVC006 M02/M03 Q1013 TEMPO 4000,
EFHK,2025-01-22 02:50,28.40,26.60,92.86,120.00,8.00,0.00,29.91,,2.49,,OVC,,,,600.00,,,,-SN,,,,,,,19.68,EFHK 220250Z 12008KT 4000 -SN OVC006 M02/M03 Q1013 TEMPO 2500,
EFHK,2025-01-22 03:20,28.40,28.40,100.00,120.00,7.00,0.00,29.88,,4.97,,OVC,,,,600.00,,,,-SN,,,,,,,20.39,EFHK 220320Z 12007KT 8000 -SN OVC006 M02/M02 Q1012 TEMPO 6000,
EFHK,2025-01-22 03:50,28.40,28.40,100.00,120.00,5.00,0.00,29.88,,4.35,,OVC,,,,500.00,,,,-FZDZ,,,,,,,22.12,EFHK 220350Z 12005KT 7000 -FZDZ OVC005 M02/M02 Q1012 TEMPO BKN004,
EFHK,2025-01-22 04:20,30.20,28.40,92.92,130.00,6.00,0.00,29.88,,1.74,,OVC,,,,300.00,,,,-FZDZ,,,,,,,23.36,EFHK 220420Z 13006KT 2800 -FZDZ OVC003 M01/M02 Q1012 TEMPO 4000,
EFHK,2025-01-22 04:50,30.20,28.40,92.92,150.00,8.00,0.00,29.85,,4.35,,OVC,,,,300.00,,,,-SN,,,,,,,21.90,EFHK 220450Z 15008KT 7000 -SN OVC003 M01/M02 Q1011 REFZDZ TEMPO 4000 -FZDZ,
EFHK,2025-01-22 05:20,30.20,28.40,92.92,150.00,8.00,0.00,29.85,,2.49,,OVC,,,,400.00,,,,-SN,,,,,,,21.90,EFHK 220520Z 15008KT 4000 -SN OVC004 M01/M02 Q1011 TEMPO -FZDZ,
EFHK,2025-01-22 05:50,30.20,30.20,100.00,140.00,8.00,0.00,29.83,,2.49,,OVC,,,,400.00,,,,-SN,,,,,,,21.90,EFHK 220550Z 14008KT 4000 -SN OVC004 M01/M01 Q1010 TEMPO 2500 -FZDZ,
EFHK,2025-01-22 06:20,30.20,30.20,100.00,150.00,9.00,0.00,29.83,,2.49,,OVC,,,,400.00,,,,-SN,,,,,,,21.28,EFHK 220620Z 15009KT 4000 -SN OVC004 M01/M01 Q1010 TEMPO 5000 -FZDZ,
EFHK,2025-01-22 06:50,32.00,30.20,92.97,160.00,8.00,0.00,29.83,,3.73,,OVC,,,,300.00,,,,-FZDZSN,,,,,,,24.11,EFHK 220650Z 16008KT 6000 -FZDZSN OVC003 M00/M01 Q1010 TEMPO 4000,
EFHK,2025-01-22 07:20,32.00,30.20,92.97,150.00,7.00,0.00,29.83,,2.49,,OVC,,,,400.00,,,,-SN,,,,,,,24.78,EFHK 220720Z 15007KT 4000 -SN OVC004 M00/M01 Q1010 TEMPO 5000 FZDZSN,
EFHK,2025-01-22 07:50,32.00,32.00,100.00,180.00,8.00,0.00,29.83,,3.11,,OVC,,,,300.00,,,,-SNRA,,,,,,,24.11,EFHK 220750Z 18008KT 5000 -SNRA OVC003 00/M00 Q1010 TEMPO 3000 -FZDZSN,
EFHK,2025-01-22 08:20,32.00,32.00,100.00,180.00,7.00,0.00,29.83,,4.97,,OVC,,,,400.00,,,,,,,,,,,24.78,EFHK 220820Z 18007KT 8000 OVC004 00/M00 Q1010 TEMPO 4000 -DZRA,
EFHK,2025-01-22 08:50,33.80,32.00,93.03,190.00,8.00,0.00,29.83,,4.97,,OVC,,,,300.00,,,,,,,,,,,26.33,EFHK 220850Z 19008KT 8000 OVC003 01/00 Q1010 TEMPO 2500 -SNRA,
EFHK,2025-01-22 09:20,33.80,32.00,93.03,180.00,8.00,0.00,29.83,,4.35,,OVC,,,,300.00,,,,-SNRA,,,,,,,26.33,EFHK 220920Z 18008KT 7000 -SNRA OVC003 01/00 Q1010 TEMPO 2500,
EFHK,2025-01-22 09:50,33.80,33.80,100.00,180.00,9.00,0.00,29.80,,5.59,,OVC,,,,400.00,,,,-SNRA,,,,,,,25.75,EFHK 220950Z 18009KT 9000 -SNRA OVC004 01/01 Q1009 TEMPO 7000,
EFHK,2025-01-22 10:20,33.80,32.00,93.03,190.00,11.00,0.00,29.80,,5.59,,OVC,,,,400.00,,,,-SNRA,,,,,,,24.74,EFHK 221020Z 19011KT 9000 -SNRA OVC004 01/00 Q1009 NOSIG,
EFHK,2025-01-22 10:50,33.80,33.80,100.00,190.00,9.00,0.00,29.80,,5.59,,OVC,,,,400.00,,,,,,,,,,,25.75,EFHK 221050Z 19009KT 9000 OVC004 01/01 Q1009 TEMPO 6000 -RASN,
EFHK,2025-01-22 11:20,35.60,33.80,93.08,200.00,9.00,0.00,29.80,,5.59,,OVC,,,,400.00,,,,,,,,,,,27.99,EFHK 221120Z 20009KT 9000 OVC004 02/01 Q1009 TEMPO 6000 -RASN OVC005,
EFHK,2025-01-22 11:50,35.60,33.80,93.08,200.00,8.00,0.00,29.80,,3.11,,OVC,,,,400.00,,,,-RADZ,,,,,,,28.55,EFHK 221150Z 20008KT 5000 -RADZ OVC004 02/01 Q1009 TEMPO 4000 OVC005,
EFHK,2025-01-22 12:20,33.80,33.80,100.00,210.00,6.00,0.00,29.80,,3.11,,OVC,,,,500.00,,,,-DZ,,,,,,,27.70,EFHK 221220Z 21006KT 5000 -DZ OVC005 01/01 Q1009 TEMPO 4000 OVC004,
EFHK,2025-01-22 12:50,35.60,33.80,93.08,210.00,4.00,0.00,29.80,,4.97,,OVC,,,,400.00,,,,-DZ,,,,,,,31.62,EFHK 221250Z 21004KT 8000 -DZ OVC004 02/01 Q1009 TEMPO 4000 OVC005,
EFHK,2025-01-22 13:20,35.60,33.80,93.08,210.00,6.00,0.00,29.77,,6.21,,BKN,,,,600.00,,,,,,,,,,,29.87,EFHK 221320Z 21006KT 9999 BKN006 02/01 Q1008 NOSIG,
EFHK,2025-01-22 13:50,35.60,33.80,93.08,190.00,6.00,0.00,29.77,,6.21,,BKN,,,,600.00,,,,,,,,,,,29.87,EFHK 221350Z 19006KT 9999 BKN006 02/01 Q1008 NOSIG,
EFHK,2025-01-22 14:20,35.60,33.80,93.08,200.00,7.00,0.00,29.77,,6.21,,BKN,,,,600.00,,,,,,,,,,,29.17,EFHK 221420Z 20007KT 9999 BKN006 02/01 Q1008 TEMPO 5000 -DZ BKN004,
EFHK,2025-01-22 14:50,35.60,33.80,93.08,190.00,9.00,0.00,29.77,,5.59,,BKN,,,,400.00,,,,,,,,,,,27.99,EFHK 221450Z 19009KT 9000 BKN004 02/01 Q1008 TEMPO 5000 -DZ BKN005,
EFHK,2025-01-22 15:20,35.60,33.80,93.08,200.00,8.00,0.00,29.77,,4.97,,BKN,,,,600.00,,,,-DZ,,,,,,,28.55,EFHK 221520Z 20008KT 8000 -DZ BKN006 02/01 Q1008 TEMPO BKN004,
EFHK,2025-01-22 15:50,35.60,33.80,93.08,210.00,7.00,0.00,29.77,,6.21,,BKN,,,,600.00,,,,,,,,,,,29.17,EFHK 221550Z 21007KT 9999 BKN006 02/01 Q1008 NOSIG,
EFHK,2025-01-22 16:20,35.60,33.80,93.08,210.00,6.00,0.00,29.77,,6.21,,BKN,,,,600.00,,,,,,,,,,,29.87,EFHK 221620Z 21006KT 9999 BKN006 02/01 Q1008 TEMPO SCT006,
EFHK,2025-01-22 16:50,35.60,33.80,93.08,210.00,7.00,0.00,29.77,,6.21,,BKN,BKN,,,700.00,4000.00,,,,,,,,,,29.17,EFHK 221650Z 21007KT 9999 BKN007 BKN040 02/01 Q1008 TEMPO SCT007,
EFHK,2025-01-22 17:20,35.60,33.80,93.08,220.00,6.00,0.00,29.77,,6.21,,SCT,BKN,,,700.00,1100.00,,,,,,,,,,29.87,EFHK 221720Z 22006KT 9999 SCT007 BKN011 02/01 Q1008 TEMPO BKN007,
EFHK,2025-01-22 17:50,35.60,33.80,93.08,220.00,7.00,0.00,29.77,,6.21,,FEW,BKN,,,500.00,800.00,,,,,,,,,,29.17,EFHK 221750Z 22007KT 9999 FEW005 BKN008 02/01 Q1008 NOSIG,
EFHK,2025-01-22 18:20,35.60,33.80,93.08,220.00,6.00,0.00,29.77,,3.73,,FEW,BKN,,,500.00,600.00,,,-DZ,,,,,,,29.87,EFHK 221820Z 22006KT 6000 -DZ FEW005 BKN006 02/01 Q1008 TEMPO 4000 BKN004,
EFHK,2025-01-22 18:50,35.60,33.80,93.08,210.00,7.00,0.00,29.77,,3.73,,FEW,BKN,,,300.00,400.00,,,-DZ,,,,,,,29.17,EFHK 221850Z 21007KT 6000 -DZ FEW003 BKN004 02/01 Q1008 TEMPO 4000 BKN005,
EFHK,2025-01-22 19:20,35.60,33.80,93.08,220.00,8.00,0.00,29.77,,4.97,,FEW,BKN,,,400.00,500.00,,,-RADZ,,,,,,,28.55,EFHK 221920Z 22008KT 8000 -RADZ FEW004 BKN005 02/01 Q1008 TEMPO 7000 BKN004,
EFHK,2025-01-22 19:50,33.80,33.80,100.00,220.00,6.00,0.00,29.77,,5.59,,FEW,BKN,,,400.00,500.00,,,-DZRA,,,,,,,27.70,EFHK 221950Z 22006KT 9000 -DZRA FEW004 BKN005 01/01 Q1008 TEMPO 7000 BKN004,
EFHK,2025-01-22 20:20,33.80,33.80,100.00,220.00,6.00,0.00,29.77,,4.97,,FEW,SCT,BKN,,400.00,600.00,1800.00,,-DZ,,,,,,,27.70,EFHK 222020Z 22006KT 8000 -DZ FEW004 SCT006 BKN018 01/01 Q1008 TEMPO 7000 BKN004,
EFHK,2025-01-22 20:50,33.80,33.80,100.00,220.00,5.00,0.00,29.77,,4.35,,FEW,SCT,BKN,,300.00,700.00,1500.00,,-DZRA,,,,,,,28.53,EFHK 222050Z 22005KT 7000 -DZRA FEW003 SCT007 BKN015 01/01 Q1008 BECMG BKN007,
EFHK,2025-01-22 21:20,35.60,33.80,93.08,220.00,4.00,0.00,29.77,,4.97,,FEW,BKN,,,400.00,500.00,,,,,,,,,,31.62,EFHK 222120Z 22004KT 8000 FEW004 BKN005 02/01 Q1008 NOSIG,
EFHK,2025-01-22 21:50,33.80,33.80,100.00,210.00,4.00,0.00,29.77,,2.80,,FEW,BKN,,,200.00,300.00,,,-DZ BR,,,,,,,29.52,EFHK 222150Z 21004KT 4500 -DZ BR FEW002 BKN003 01/01 Q1008 TEMPO 5000,
EFHK,2025-01-22 22:20,35.60,33.80,93.08,200.00,3.00,0.00,29.77,,1.55,,OVC,,,,200.00,,,,-DZ BR,,,,,,,32.80,EFHK 222220Z 20003KT 2500 -DZ BR OVC002 02/01 Q1008 TEMPO 3000,
EFHK,2025-01-22 22:50,35.60,35.60,100.00,210.00,3.00,0.00,29.77,,0.47,,OVC,,,,200.00,,,,-DZ FG,,,,,,,32.80,EFHK 222250Z 21003KT 0750 R04L/P2000N R15/2000D R22L/P2000N R22R/2000U -DZ FG OVC002 02/02 Q1008 TEMPO 1000 BR,
EFHK,2025-01-22 23:20,33.80,33.80,100.00,250.00,2.00,0.00,29.77,,0.43,,VV ,,,,200.00,,,,-DZ FG,,,,,,,33.80,EFHK 222320Z 25002KT 0700 R04L/1400D R15/1100D R22L/1100D R22R/1100U -DZ FG VV002 01/01 Q1008 TEMPO 1200 DZ,
EFHK,2025-01-22 23:50,33.80,33.80,100.00,240.00,2.00,0.00,29.77,,0.28,,VV ,,,,200.00,,,,-DZ FG,,,,,,,33.80,EFHK 222350Z 24002KT 0450 R04L/1200D R15/0900D R22L/0900D R22R/1100U -DZ FG VV002 01/01 Q1008 TEMPO 1200 DZ,
EFHK,2025-01-23 00:20,35.60,33.80,93.08,210.00,4.00,0.00,29.77,,1.55,,FEW,BKN,,,200.00,300.00,,,-DZRA BR,,,,,,,31.62,EFHK 230020Z 21004KT 2500 R04L/P2000N R15/1500U R22L/1300U R22R/1100N -DZRA BR FEW002 BKN003 02/01 Q1008 BECMG 1200,
EFHK,2025-01-23 00:50,35.60,33.80,93.08,220.00,8.00,0.00,29.77,,4.97,,FEW,BKN,,,500.00,600.00,,,-DZRA,,,,,,,28.55,EFHK 230050Z 22008KT 8000 -DZRA FEW005 BKN006 02/01 Q1008 TEMPO 4000 BR BKN004,
EFHK,2025-01-23 01:20,33.80,33.80,100.00,220.00,4.00,0.00,29.77,,2.17,,BKN,,,,300.00,,,,-DZ BR,,,,,,,29.52,EFHK 230120Z 22004KT 3500 -DZ BR BKN003 01/01 Q1008 TEMPO 2000,
EFHK,2025-01-23 01:50,35.60,33.80,93.08,210.00,5.00,0.00,29.77,,3.11,,FEW,BKN,,,300.00,400.00,,,-DZ BR,,,,,,,30.67,EFHK 230150Z 21005KT 5000 -DZ BR FEW003 BKN004 02/01 Q1008 TEMPO 2000,
EFHK,2025-01-23 02:20,35.60,33.80,93.08,210.00,6.00,0.00,29.77,,2.80,,FEW,BKN,,,300.00,400.00,,,-DZ BR,,,,,,,29.87,EFHK 230220Z 21006KT 4500 -DZ BR FEW003 BKN004 02/01 Q1008 TEMPO 2000,
EFHK,2025-01-23 02:50,35.60,33.80,93.08,200.00,6.00,0.00,29.77,,2.80,,FEW,BKN,,,200.00,400.00,,,-DZ BR,,,,,,,29.87,EFHK 230250Z 20006KT 4500 -DZ BR FEW002 BKN004 02/01 Q1008 TEMPO 2000,
EFHK,2025-01-23 03:20,35.60,33.80,93.08,210.00,6.00,0.00,29.77,,2.80,,BKN,,,,300.00,,,,-DZ BR,,,,,,,29.87,EFHK 230320Z 21006KT 4500 -DZ BR BKN003 02/01 Q1008 TEMPO 2500,
EFHK,2025-01-23 03:50,35.60,33.80,93.08,210.00,6.00,0.00,29.77,,1.93,,FEW,BKN,,,300.00,400.00,,,-DZ BR,,,,,,,29.87,EFHK 230350Z 21006KT 3100 -DZ BR FEW003 BKN004 02/01 Q1008 TEMPO 2500,
EFHK,2025-01-23 04:20,35.60,33.80,93.08,210.00,5.00,0.00,29.77,,1.55,,FEW,BKN,,,200.00,300.00,,,-DZ BR,,,,,,,30.67,EFHK 230420Z 21005KT 2500 -DZ BR FEW002 BKN003 02/01 Q1008 TEMPO 3000,
EFHK,2025-01-23 04:50,35.60,33.80,93.08,210.00,5.00,0.00,29.77,,1.74,,BKN,,,,200.00,,,,-DZ BR,,,,,,,30.67,EFHK 230450Z 21005KT 2800 -DZ BR BKN002 02/01 Q1008 TEMPO 3000,
EFHK,2025-01-23 05:20,35.60,33.80,93.08,200.00,4.00,0.00,29.77,,1.86,,FEW,BKN,,,200.00,300.00,,,-DZ BR,,,,,,,31.62,EFHK 230520Z 20004KT 3000 -DZ BR FEW002 BKN003 02/01 Q1008 TEMPO 2500,
EFHK,2025-01-23 05:50,35.60,35.60,100.00,200.00,6.00,0.00,29.77,,2.49,,BKN,,,,300.00,,,,-DZ BR,,,,,,,29.87,EFHK 230550Z 20006KT 190V250 4000 -DZ BR BKN003 02/02 Q1008 TEMPO 5000,
EFHK,2025-01-23 06:20,35.60,35.60,100.00,210.00,6.00,0.00,29.77,,2.49,,BKN,,,,400.00,,,,-DZ BR,,,,,,,29.87,EFHK 230620Z 21006KT 4000 -DZ BR BKN004 02/02 Q1008 TEMPO 5000,
EFHK,2025-01-23 06:50,35.60,35.60,100.00,210.00,6.00,0.00,29.77,,1.55,,BKN,,,,400.00,,,,-DZ BR,,,,,,,29.87,EFHK 230650Z 21006KT 2500 -DZ BR BKN004 02/02 Q1008 TEMPO 4000,
EFHK,2025-01-23 07:20,35.60,35.60,100.00,210.00,6.00,0.00,29.77,,2.49,,BKN,,,,400.00,,,,-DZ BR,,,,,,,29.87,EFHK 230720Z 21006KT 4000 -DZ BR BKN004 02/02 Q1008 TEMPO 5000,
EFHK,2025-01-23 07:50,35.60,35.60,100.00,200.00,7.00,0.00,29.77,,2.49,,BKN,,,,300.00,,,,-DZ BR,,,,,,,29.17,EFHK 230750Z 20007KT 4000 -DZ BR BKN003 02/02 Q1008 NOSIG,
EFHK,2025-01-23 08:20,35.60,35.60,100.00,210.00,9.00,0.00,29.77,,2.49,,BKN,,,,300.00,,,,-DZ BR,,,,,,,27.99,EFHK 230820Z 21009KT 4000 -DZ BR BKN003 02/02 Q1008 NOSIG,
EFHK,2025-01-23 08:50,35.60,33.80,93.08,210.00,7.00,0.00,29.80,,3.73,,BKN,,,,300.00,,,,-DZ,,,,,,,29.17,EFHK 230850Z 21007KT 6000 -DZ BKN003 02/01 Q1009 TEMPO 4000,
EFHK,2025-01-23 09:20,35.60,35.60,100.00,210.00,8.00,0.00,29.77,,4.97,,BKN,,,,300.00,,,,-DZ,,,,,,,28.55,EFHK 230920Z 21008KT 8000 -DZ BKN003 02/02 Q1008 TEMPO 4000,
EFHK,2025-01-23 09:50,35.60,35.60,100.00,210.00,8.00,0.00,29.80,,4.97,,BKN,,,,300.00,,,,-DZ,,,,,,,28.55,EFHK 230950Z 21008KT 8000 -DZ BKN003 02/02 Q1009 TEMPO 4000,
EFHK,2025-01-23 10:20,35.60,33.80,93.08,210.00,7.00,0.00,29.80,,1.55,,BKN,,,,300.00,,,,-DZRA BR,,,,,,,29.17,EFHK 231020Z 21007KT 2500 -DZRA BR BKN003 02/01 Q1009 TEMPO 6000,
EFHK,2025-01-23 10:50,35.60,35.60,100.00,200.00,7.00,0.00,29.80,,1.55,,BKN,,,,300.00,,,,-DZRA BR,,,,,,,29.17,EFHK 231050Z 20007KT 2500 -DZRA BR BKN003 02/02 Q1009 BECMG 8000 NSW,
EFHK,2025-01-23 11:20,35.60,33.80,93.08,200.00,7.00,0.00,29.80,,1.86,,BKN,,,,400.00,,,,-DZRA BR,,,,,,,29.17,EFHK 231120Z 20007KT 3000 -DZRA BR BKN004 02/01 Q1009 BECMG 8000 NSW BKN005,
EFHK,2025-01-23 11:50,35.60,33.80,93.08,200.00,8.00,0.00,29.77,,2.49,,SCT,BKN,,,300.00,500.00,,,-DZRA BR,,,,,,,28.55,EFHK 231150Z 20008KT 4000 -DZRA BR SCT003 BKN005 02/01 Q1008 BECMG 8000 NSW,
EFHK,2025-01-23 12:20,35.60,33.80,93.08,190.00,8.00,0.00,29.80,,1.86,,BKN,,,,300.00,,,,-DZRA BR,,,,,,,28.55,EFHK 231220Z 19008KT 3000 -DZRA BR BKN003 02/01 Q1009 BECMG 8000 NSW BKN005,
EFHK,2025-01-23 12:50,35.60,33.80,93.08,180.00,7.00,0.00,29.80,,2.49,,BKN,,,,400.00,,,,-DZRA BR,,,,,,,29.17,EFHK 231250Z 18007KT 160V220 4000 -DZRA BR BKN004 02/01 Q1009 BECMG 8000 NSW BKN005,
EFHK,2025-01-23 13:20,35.60,33.80,93.08,190.00,8.00,0.00,29.80,,6.21,,BKN,BKN,,,700.00,1200.00,,,-DZRA,,,,,,,28.55,EFHK 231320Z 19008KT 9999 -DZRA BKN007 BKN012 02/01 Q1009 BECMG BKN011,
EFHK,2025-01-23 13:50,35.60,33.80,93.08,190.00,8.00,0.00,29.77,,6.21,,BKN,BKN,,,800.00,1200.00,,,-DZRA,,,,,,,28.55,EFHK 231350Z 19008KT 9999 -DZRA BKN008 BKN012 02/01 Q1008 BECMG BKN011,
EFHK,2025-01-23 14:20,33.80,32.00,93.03,200.00,8.00,0.00,29.80,,6.21,,SCT,BKN,,,800.00,2000.00,,,-RA,,,,,,,26.33,EFHK 231420Z 20008KT 9999 -RA SCT008 BKN020 01/00 Q1009 NOSIG,
EFHK,2025-01-23 14:50,35.60,32.00,86.59,190.00,6.00,0.00,29.80,,6.21,,FEW,SCT,BKN,,800.00,1300.00,2000.00,,,,,,,,,29.87,EFHK 231450Z 19006KT 9999 FEW008 SCT013 BKN020 02/00 Q1009 TEMPO BKN012,
EFHK,2025-01-23 15:20,35.60,32.00,86.59,180.00,6.00,0.00,29.80,,6.21,,FEW,SCT,BKN,,800.00,1000.00,1500.00,,,,,,,,,29.87,EFHK 231520Z 18006KT 9999 FEW008 SCT010 BKN015 02/00 Q1009 TEMPO BKN010,
EFHK,2025-01-23 15:50,33.80,32.00,93.03,150.00,7.00,0.00,29.77,,6.21,,FEW,BKN,BKN,,800.00,1100.00,1500.00,,,,,,,,,26.97,EFHK 231550Z 15007KT 9999 FEW008 BKN011 BKN015 01/00 Q1008 NOSIG,
EFHK,2025-01-23 16:20,33.80,32.00,93.03,160.00,7.00,0.00,29.77,,6.21,,FEW,BKN,,,800.00,1200.00,,,-RASN,,,,,,,26.97,EFHK 231620Z 16007KT 9999 -RASN FEW008 BKN012 01/M00 Q1008 NOSIG,
EFHK,2025-01-23 16:50,33.80,32.00,93.03,140.00,7.00,0.00,29.77,,6.21,,FEW,BKN,,,1000.00,1500.00,,,,,,,,,,26.97,EFHK 231650Z 14007KT 9999 FEW010 BKN015 01/M00 Q1008 TEMPO BKN011,
EFHK,2025-01-23 17:20,33.80,30.20,86.49,140.00,8.00,0.00,29.77,,6.21,,BKN,,,,1300.00,,,,,,,,,,,26.33,EFHK 231720Z 14008KT 9999 BKN013 01/M01 Q1008 NOSIG,
EFHK,2025-01-23 17:50,33.80,30.20,86.49,140.00,13.00,0.00,29.77,,6.21,,BKN,,,,1100.00,,,,,,,,,,,23.87,EFHK 231750Z 14013KT 9999 BKN011 01/M01 Q1008 TEMPO BKN009,
EFHK,2025-01-23 18:20,33.80,30.20,86.49,140.00,12.00,0.00,29.77,,6.21,,BKN,,,,1000.00,,,,,,,,,,,24.29,EFHK 231820Z 14012KT 9999 BKN010 01/M01 Q1008 TEMPO BKN009,
EFHK,2025-01-23 18:50,32.00,28.40,86.39,130.00,12.00,0.00,29.77,,6.21,,BKN,,,,1000.00,,,,,,,,,,,22.00,EFHK 231850Z 13012KT 9999 BKN010 00/M02 Q1008 TEMPO BKN009,
EFHK,2025-01-23 19:20,32.00,28.40,86.39,150.00,10.00,0.00,29.77,,6.21,,BKN,,,,1000.00,,,,,,,,,,,22.97,EFHK 231920Z 15010KT 9999 BKN010 00/M02 Q1008 TEMPO BKN009,
EFHK,2025-01-23 19:50,32.00,28.40,86.39,130.00,12.00,0.00,29.77,,6.21,,BKN,,,,1000.00,,,,,,,,,,,22.00,EFHK 231950Z 13012KT 9999 BKN010 00/M02 Q1008 TEMPO BKN009,
EFHK,2025-01-23 20:20,32.00,28.40,86.39,130.00,11.00,0.00,29.77,,6.21,,BKN,,,,1000.00,,,,,,,,,,,22.47,EFHK 232020Z 13011KT 100V160 9999 BKN010 00/M02 Q1008 TEMPO BKN009,
EFHK,2025-01-23 20:50,32.00,28.40,86.39,130.00,12.00,0.00,29.74,,6.21,,BKN,,,,1000.00,,,,,,,,,,,22.00,EFHK 232050Z 13012KT 9999 BKN010 00/M02 Q1007 TEMPO BKN009,
EFHK,2025-01-23 21:20,32.00,28.40,86.39,130.00,9.00,0.00,29.74,,6.21,,BKN,,,,1000.00,,,,,,,,,,,23.51,EFHK 232120Z 13009KT 9999 BKN010 00/M02 Q1007 NOSIG,
EFHK,2025-01-23 21:50,32.00,28.40,86.39,130.00,9.00,0.00,29.74,,6.21,,BKN,,,,1100.00,,,,,,,,,,,23.51,EFHK 232150Z 13009KT 9999 BKN011 00/M02 Q1007 NOSIG,
EFHK,2025-01-23 22:20,32.00,28.40,86.39,130.00,12.00,0.00,29.74,,6.21,,BKN,,,,1100.00,,,,,,,,,,,22.00,EFHK 232220Z 13012KT 9999 BKN011 00/M02 Q1007 NOSIG,
EFHK,2025-01-23 22:50,32.00,28.40,86.39,130.00,8.00,0.00,29.74,,6.21,,BKN,,,,1500.00,,,,,,,,,,,24.11,EFHK 232250Z 13008KT 9999 BKN015 00/M02 Q1007 TEMPO BKN013,
EFHK,2025-01-23 23:20,32.00,28.40,86.39,120.00,9.00,0.00,29.71,,6.21,,BKN,,,,1600.00,,,,,,,,,,,23.51,EFHK 232320Z 12009KT 9999 BKN016 00/M02 Q1006 TEMPO BKN013,
EFHK,2025-01-23 23:50,32.00,28.40,86.39,130.00,11.00,0.00,29.71,,6.21,,BKN,,,,1600.00,,,,,,,,,,,22.47,EFHK 232350Z 13011KT 9999 BKN016 00/M02 Q1006 NOSIG,
EFHK,2025-01-24 00:20,33.80,28.40,80.36,140.00,9.00,0.00,29.71,,6.21,,BKN,,,,1500.00,,,,,,,,,,,25.75,EFHK 240020Z 14009KT 9999 BKN015 01/M02 Q1006 TEMPO BKN012,
EFHK,2025-01-24 00:50,32.00,30.20,92.97,140.00,12.00,0.00,29.68,,4.35,,BKN,BKN,,,900.00,1200.00,,,-SN,,,,,,,22.00,EFHK 240050Z 14012KT 7000 -SN BKN009 BKN012 00/M01 Q1005 BECMG 8000 BKN012,
EFHK,2025-01-24 01:20,32.00,30.20,92.97,120.00,10.00,0.00,29.68,,6.21,,BKN,BKN,,,700.00,1300.00,,,,,,,,,,22.97,EFHK 240120Z 12010KT 9999 BKN007 BKN013 00/M01 Q1005 BECMG BKN012,
EFHK,2025-01-24 01:50,32.00,30.20,92.97,120.00,10.00,0.00,29.68,,2.49,,BKN,,,,500.00,,,,-DZSN BR,,,,,,,22.97,EFHK 240150Z 12010KT 4000 -DZSN BR BKN005 00/M01 Q1005 BECMG 8000 BKN010,
EFHK,2025-01-24 02:20,32.00,32.00,100.00,130.00,10.00,0.00,29.68,,3.11,,BKN,,,,400.00,,,,-DZ BR,,,,,,,22.97,EFHK 240220Z 13010KT 5000 -DZ BR BKN004 00/M00 Q1005 BECMG 8000 BKN008,
EFHK,2025-01-24 02:50,32.00,32.00,100.00,120.00,11.00,0.00,29.65,,3.11,,BKN,,,,400.00,,,,-DZ BR,,,,,,,22.47,EFHK 240250Z 12011KT 5000 -DZ BR BKN004 00/M00 Q1004 TEMPO 6000 BKN006,
EFHK,2025-01-24 03:20,33.80,32.00,93.03,120.00,12.00,0.00,29.65,,3.11,,BKN,,,,400.00,,,,-DZ BR,,,,,,,24.29,EFHK 240320Z 12012KT 5000 -DZ BR BKN004 01/00 Q1004 TEMPO BKN006,
EFHK,2025-01-24 03:50,33.80,32.00,93.03,130.00,11.00,0.00,29.65,,3.73,,BKN,,,,400.00,,,,-DZ,,,,,,,24.74,EFHK 240350Z 13011KT 6000 -DZ BKN004 01/00 Q1004 TEMPO BKN006,
EFHK,2025-01-24 04:20,33.80,32.00,93.03,130.00,12.00,0.00,29.65,,3.73,,BKN,,,,400.00,,,,-DZ,,,,,,,24.29,EFHK 240420Z 13012KT 6000 -DZ BKN004 01/00 Q1004 BECMG 3000 -SN,
EFHK,2025-01-24 04:50,33.80,32.00,93.03,130.00,11.00,0.00,29.65,,3.73,,BKN,,,,400.00,,,,-RA,,,,,,,24.74,EFHK 240450Z 13011KT 6000 -RA BKN004 01/00 Q1004 BECMG 3000 -SN,
EFHK,2025-01-24 05:20,33.80,33.80,100.00,140.00,11.00,0.00,29.62,,4.35,,BKN,,,,400.00,,,,-RA,,,,,,,24.74,EFHK 240520Z 14011KT 7000 -RA BKN004 01/01 Q1003 BECMG 2500 -SN,
EFHK,2025-01-24 05:50,33.80,33.80,100.00,140.00,11.00,0.00,29.62,,1.86,,BKN,,,,400.00,,,,-RA BR,,,,,,,24.74,EFHK 240550Z 14011KT 3000 -RA BR BKN004 01/01 Q1003 TEMPO 2500 -SN,
EFHK,2025-01-24 06:20,33.80,33.80,100.00,160.00,10.00,0.00,29.62,,2.49,,BKN,,,,400.00,,,,-RASN,,,,,,,25.23,EFHK 240620Z 16010KT 4000 -RASN BKN004 01/01 Q1003 TEMPO 2500 -SN,
EFHK,2025-01-24 06:50,33.80,32.00,93.03,160.00,10.00,0.00,29.62,,2.80,,BKN,,,,400.00,,,,-RASN,,,,,,,25.23,EFHK 240650Z 16010KT 4500 -RASN BKN004 01/00 Q1003 NOSIG,
EFHK,2025-01-24 07:20,33.80,32.00,93.03,160.00,10.00,0.00,29.65,,6.21,,BKN,,,,400.00,,,,-RA,,,,,,,25.23,EFHK 240720Z 16010KT 9999 -RA BKN004 01/00 Q1004 TEMPO 3000 BR,
EFHK,2025-01-24 07:50,33.80,33.80,100.00,170.00,8.00,0.00,29.65,,6.21,,FEW,BKN,,,400.00,500.00,,,,,,,,,,26.33,EFHK 240750Z 17008KT 150V210 9999 FEW004 BKN005 01/01 Q1004 TEMPO 3000 -RASN,
EFHK,2025-01-24 08:20,35.60,33.80,93.08,180.00,10.00,0.00,29.65,,6.21,,BKN,,,,500.00,,,,,,,,,,,27.48,EFHK 240820Z 18010KT 9999 BKN005 02/01 Q1004 TEMPO 3000 -RASN BKN004,
EFHK,2025-01-24 08:50,35.60,33.80,93.08,180.00,11.00,0.00,29.65,,2.49,,BKN,,,,500.00,,,,-RA,,,,,,,27.02,EFHK 240850Z 18011KT 4000 -RA BKN005 02/01 Q1004 TEMPO 5000 BKN004,
EFHK,2025-01-24 09:20,33.80,33.80,100.00,180.00,9.00,0.00,29.65,,2.49,,BKN,,,,300.00,,,,-DZ,,,,,,,25.75,EFHK 240920Z 18009KT 4000 -DZ BKN003 01/01 Q1004 TEMPO 2500,
EFHK,2025-01-24 09:50,35.60,33.80,93.08,170.00,9.00,0.00,29.65,,1.24,,BKN,,,,200.00,,,,BR,,,,,,,27.99,EFHK 240950Z 17009KT 2000 BR BKN002 02/01 Q1004 BECMG 4000,
EFHK,2025-01-24 10:20,35.60,35.60,100.00,190.00,11.00,0.00,29.65,,1.55,,OVC,,,,200.00,,,,BR,,,,,,,27.02,EFHK 241020Z 19011KT 2500 BR OVC002 02/02 Q1004 BECMG 4000,
EFHK,2025-01-24 10:50,35.60,35.60,100.00,190.00,10.00,0.00,29.65,,1.86,,BKN,,,,200.00,,,,BR,,,,,,,27.48,EFHK 241050Z 19010KT 3000 BR BKN002 02/02 Q1004 BECMG 5000 -RA BKN005,
EFHK,2025-01-24 11:20,35.60,35.60,100.00,190.00,11.00,0.00,29.65,,3.73,,BKN,,,,300.00,,,,,,,,,,,27.02,EFHK 241120Z 19011KT 6000 BKN003 02/02 Q1004 TEMPO 4000 -RA BKN005,
EFHK,2025-01-24 11:50,37.40,35.60,93.14,190.00,10.00,0.00,29.68,,3.73,,BKN,,,,400.00,,,,-RA,,,,,,,29.74,EFHK 241150Z 19010KT 6000 -RA BKN004 03/02 Q1005 BECMG BKN005,
EFHK,2025-01-24 12:20,37.40,33.80,86.69,220.00,10.00,0.00,29.68,,6.21,,SCT,BKN,,,500.00,4200.00,,,,,,,,,,29.74,EFHK 241220Z 22010KT 9999 SCT005 BKN042 03/01 Q1005 NOSIG,
EFHK,2025-01-24 12:50,35.60,33.80,93.08,210.00,6.00,0.00,29.68,,6.21,,FEW,,,,500.00,,,,,,,,,,,29.87,EFHK 241250Z 21006KT 9999 FEW005 02/01 Q1005 NOSIG,
EFHK,2025-01-24 13:20,35.60,33.80,93.08,200.00,5.00,0.00,29.68,,6.21,,FEW,SCT,BKN,,900.00,1600.00,4900.00,,,,,,,,,30.67,EFHK 241320Z 20005KT 9999 FEW009 SCT016 BKN049 02/01 Q1005 TEMPO BKN012,
EFHK,2025-01-24 13:50,37.40,33.80,86.69,180.00,7.00,0.00,29.71,,6.21,,FEW,BKN,BKN,,900.00,1100.00,3300.00,,,,,,,,,31.36,EFHK 241350Z 18007KT 9999 FEW009 BKN011 BKN033 03/01 Q1006 TEMPO SCT011,
EFHK,2025-01-24 14:20,37.40,35.60,93.14,180.00,8.00,0.00,29.71,,6.21,,FEW,SCT,BKN,,800.00,1100.00,2900.00,,,,,,,,,30.76,EFHK 241420Z 18008KT 9999 FEW008 SCT011 BKN029 03/02 Q1006 TEMPO BKN008,
EFHK,2025-01-24 14:50,37.40,35.60,93.14,190.00,8.00,0.00,29.71,,6.21,,BKN,BKN,,,800.00,1100.00,,,,,,,,,,30.76,EFHK 241450Z 19008KT 9999 BKN008 BKN011 03/02 Q1006 NOSIG,
EFHK,2025-01-24 15:20,37.40,35.60,93.14,190.00,9.00,0.00,29.71,,6.21,,FEW,BKN,,,800.00,2300.00,,,,,,,,,,30.23,EFHK 241520Z 19009KT 9999 FEW008 BKN023 03/02 Q1006 TEMPO BKN008,
EFHK,2025-01-24 15:50,37.40,33.80,86.69,190.00,9.00,0.00,29.71,,6.21,,FEW,BKN,,,800.00,2000.00,,,,,,,,,,30.23,EFHK 241550Z 19009KT 9999 FEW008 BKN020 03/01 Q1006 TEMPO BKN008,
EFHK,2025-01-24 16:20,37.40,33.80,86.69,190.00,10.00,0.00,29.71,,6.21,,FEW,SCT,BKN,,800.00,1500.00,2000.00,,,,,,,,,29.74,EFHK 241620Z 19010KT 9999 FEW008 SCT015 BKN020 03/01 Q1006 TEMPO BKN013,
EFHK,2025-01-24 16:50,37.40,33.80,86.69,190.00,11.00,0.00,29.74,,6.21,,FEW,BKN,BKN,,1000.00,1300.00,1600.00,,,,,,,,,29.29,EFHK 241650Z 19011KT 9999 FEW010 BKN013 BKN016 03/01 Q1007 TEMPO BKN015,
EFHK,2025-01-24 17:20,37.40,33.80,86.69,190.00,10.00,0.00,29.71,,6.21,,FEW,BKN,BKN,,1000.00,1200.00,1900.00,,,,,,,,,29.74,EFHK 241720Z 19010KT 9999 FEW010 BKN012 BKN019 03/01 Q1006 TEMPO BKN015,
EFHK,2025-01-24 17:50,35.60,33.80,93.08,180.00,10.00,0.00,29.71,,6.21,,FEW,BKN,BKN,,900.00,1400.00,2000.00,,,,,,,,,27.48,EFHK 241750Z 18010KT 9999 FEW009 BKN014 BKN020 02/01 Q1006 TEMPO BKN015,
EFHK,2025-01-24 18:20,35.60,33.80,93.08,180.00,11.00,0.00,29.71,,6.21,,FEW,BKN,,,900.00,2000.00,,,,,,,,,,27.02,EFHK 241820Z 18011KT 9999 FEW009 BKN020 02/01 Q1006 TEMPO BKN008,
EFHK,2025-01-24 18:50,35.60,33.80,93.08,180.00,10.00,0.00,29.71,,6.21,,BKN,BKN,,,700.00,2000.00,,,-RA,,,,,,,27.48,EFHK 241850Z 18010KT 9999 -RA BKN007 BKN020 02/01 Q1006 TEMPO SCT008 BKN020,
EFHK,2025-01-24 19:20,35.60,33.80,93.08,180.00,8.00,0.00,29.71,,6.21,,BKN,BKN,,,700.00,4600.00,,,,,,,,,,28.55,EFHK 241920Z 18008KT 9999 BKN007 BKN046 02/01 Q1006 TEMPO SCT008 BKN020,
EFHK,2025-01-24 19:50,35.60,33.80,93.08,180.00,10.00,0.00,29.71,,6.21,,BKN,BKN,,,700.00,4600.00,,,,,,,,,,27.48,EFHK 241950Z 18010KT 9999 BKN007 BKN046 02/01 Q1006 TEMPO SCT007,
EFHK,2025-01-24 20:20,37.40,35.60,93.14,180.00,12.00,0.00,29.71,,6.21,,BKN,,,,600.00,,,,,,,,,,,28.87,EFHK 242020Z 18012KT 9999 BKN006 03/02 Q1006 NOSIG,
EFHK,2025-01-24 20:50,37.40,33.80,86.69,190.00,13.00,0.00,29.71,,6.21,,BKN,,,,700.00,,,,,,,,,,,28.49,EFHK 242050Z 19013KT 9999 BKN007 03/01 Q1006 NOSIG,
EFHK,2025-01-24 21:20,37.40,33.80,86.69,180.00,13.00,0.00,29.68,,6.21,,BKN,,,,800.00,,,,,,,,,,,28.49,EFHK 242120Z 18013KT 9999 BKN008 03/01 Q1005 NOSIG,
EFHK,2025-01-24 21:50,37.40,33.80,86.69,180.00,13.00,0.00,29.68,,6.21,,BKN,,,,800.00,,,,,,,,,,,28.49,EFHK 242150Z 18013KT 9999 BKN008 03/01 Q1005 NOSIG,
EFHK,2025-01-24 22:20,37.40,33.80,86.69,180.00,14.00,0.00,29.68,,6.21,,BKN,,,,800.00,,,,,,,,,,,28.12,EFHK 242220Z 18014KT 9999 BKN008 03/01 Q1005 NOSIG,
EFHK,2025-01-24 22:50,37.40,33.80,86.69,180.00,14.00,0.00,29.68,,6.21,,BKN,,,,900.00,,,,,,,,,,,28.12,EFHK 242250Z 18014KT 9999 BKN009 03/01 Q1005 TEMPO SCT009,
EFHK,2025-01-24 23:20,35.60,33.80,93.08,170.00,13.00,0.00,29.68,,6.21,,SCT,BKN,,,900.00,1000.00,,,,,,,,,,26.18,EFHK 242320Z 17013KT 9999 SCT009 BKN010 02/01 Q1005 TEMPO SCT009,
EFHK,2025-01-24 23:50,35.60,32.00,86.59,160.00,13.00,0.00,29.65,,6.21,,BKN,BKN,,,1000.00,4800.00,,,,,,,,,,26.18,EFHK 242350Z 16013KT 9999 BKN010 BKN048 02/00 Q1004 TEMPO SCT010,
EFHK,2025-01-25 00:20,35.60,32.00,86.59,160.00,14.00,0.00,29.65,,6.21,,SCT,BKN,,,1200.00,4600.00,,,,,,,,,,25.80,EFHK 250020Z 16014KT 9999 SCT012 BKN046 02/00 Q1004 TEMPO BKN012,
EFHK,2025-01-25 00:50,35.60,32.00,86.59,160.00,15.00,0.00,29.62,,6.21,,FEW,BKN,,,1400.00,2700.00,,,,,,,,,,25.45,EFHK 250050Z 16015KT 9999 FEW014 BKN027 02/M00 Q1003 TEMPO BKN012,
EFHK,2025-01-25 01:20,35.60,30.20,80.51,160.00,17.00,0.00,29.62,,6.21,,FEW,BKN,,,1600.00,1900.00,,,,,,,,,,24.79,EFHK 250120Z 16017KT 9999 FEW016 BKN019 02/M01 Q1003 TEMPO BKN012,
EFHK,2025-01-25 01:50,35.60,32.00,86.59,160.00,15.00,0.00,29.59,,6.21,,BKN,,,,1600.00,,,,,,,,,,,25.45,EFHK 250150Z 16015KT 9999 BKN016 02/M00 Q1002 TEMPO BKN012,
EFHK,2025-01-25 02:20,35.60,32.00,86.59,160.00,15.00,0.00,29.56,,6.21,,FEW,BKN,,,1400.00,1700.00,,,,,,,,,,25.45,EFHK 250220Z 16015KT 9999 FEW014 BKN017 02/M00 Q1001 BECMG 7000 RASN BKN010,
EFHK,2025-01-25 02:50,35.60,30.20,80.51,160.00,15.00,0.00,29.56,,6.21,,FEW,BKN,,,1400.00,1500.00,,,,,,,,,,25.45,EFHK 250250Z 16015KT 9999 FEW014 BKN015 02/M01 Q1001 BECMG 7000 RASN BKN010,
EFHK,2025-01-25 03:20,35.60,30.20,80.51,170.00,16.00,0.00,29.56,,6.21,26.00,BKN,,,,1200.00,,,,,,,,,,,25.11,EFHK 250320Z 17016G26KT 150V210 9999 BKN012 02/M01 Q1001 BECMG 7000 RASN,
EFHK,2025-01-25 03:50,35.60,32.00,86.59,170.00,15.00,0.00,29.53,,6.21,,BKN,BKN,,,900.00,1000.00,,,-RASN,,,,,,,25.45,EFHK 250350Z 17015KT 9999 -RASN BKN009 BKN010 02/00 Q1000 TEMPO 4000 RASN BKN010,
EFHK,2025-01-25 04:20,33.80,32.00,93.03,170.00,15.00,0.00,29.50,,4.35,,BKN,,,,700.00,,,,-SNRA,,,,,,,23.11,EFHK 250420Z 17015KT 7000 -SNRA BKN007 01/00 Q0999 TEMPO 4000 RASN,
EFHK,2025-01-25 04:50,33.80,33.80,100.00,170.00,15.00,0.00,29.50,,4.97,,BKN,,,,600.00,,,,-SNRA,,,,,,,23.11,EFHK 250450Z 17015KT 8000 -SNRA BKN006 01/01 Q0999 TEMPO 4000 RASN,
EFHK,2025-01-25 05:20,35.60,33.80,93.08,170.00,15.00,0.00,29.47,,3.73,,BKN,,,,600.00,,,,-SNRA,,,,,,,25.45,EFHK 250520Z 17015KT 6000 -SNRA BKN006 02/01 Q0998 TEMPO 4000 RASN,
EFHK,2025-01-25 05:50,35.60,33.80,93.08,180.00,17.00,0.00,29.47,,3.73,,BKN,,,,600.00,,,,-SNRA,,,,,,,24.79,EFHK 250550Z 18017KT 6000 -SNRA BKN006 02/01 Q0998 NOSIG,
EFHK,2025-01-25 06:20,35.60,33.80,93.08,180.00,19.00,0.00,29.47,,4.35,,BKN,,,,600.00,,,,-SNRA,,,,,,,24.20,EFHK 250620Z 18019KT 7000 -SNRA BKN006 02/01 Q0998 TEMPO 8000,
EFHK,2025-01-25 06:50,35.60,33.80,93.08,190.00,19.00,0.00,29.47,,3.73,,BKN,,,,600.00,,,,-RADZ,,,,,,,24.20,EFHK 250650Z 19019KT 6000 -RADZ BKN006 02/01 Q0998 TEMPO 8000,
EFHK,2025-01-25 07:20,35.60,33.80,93.08,190.00,19.00,0.00,29.47,,2.49,,BKN,,,,600.00,,,,-RADZ,,,,,,,24.20,EFHK 250720Z 19019KT 4000 -RADZ BKN006 02/01 Q0998 NOSIG,
EFHK,2025-01-25 07:50,35.60,33.80,93.08,190.00,17.00,0.00,29.44,,6.21,27.00,BKN,,,,600.00,,,,,,,,,,,24.79,EFHK 250750Z 19017G27KT 9999 BKN006 02/01 Q0997 TEMPO 6000,
EFHK,2025-01-25 08:20,35.60,33.80,93.08,200.00,20.00,0.00,29.47,,5.59,,BKN,,,,500.00,,,,-RA,,,,,,,23.92,EFHK 250820Z 20020KT 9000 -RA BKN005 02/01 Q0998 TEMPO 6000,
EFHK,2025-01-25 08:50,37.40,33.80,86.69,190.00,17.00,0.00,29.47,,5.59,,BKN,,,,500.00,,,,-RA,,,,,,,27.15,EFHK 250850Z 19017KT 9000 -RA BKN005 03/01 Q0998 TEMPO 6000,
EFHK,2025-01-25 09:20,37.40,35.60,93.14,190.00,18.00,0.00,29.47,,3.11,,BKN,,,,500.00,,,,-RADZ,,,,,,,26.86,EFHK 250920Z 19018KT 5000 -RADZ BKN005 03/02 Q0998 NOSIG,
EFHK,2025-01-25 09:50,37.40,35.60,93.14,200.00,16.00,0.00,29.47,,4.97,,BKN,,,,600.00,,,,-RA,,,,,,,27.46,EFHK 250950Z 20016KT 8000 -RA BKN006 03/02 Q0998 TEMPO 6000,
EFHK,2025-01-25 10:20,37.40,37.40,100.00,200.00,16.00,0.00,29.47,,5.59,,BKN,,,,700.00,,,,-RADZ,,,,,,,27.46,EFHK 251020Z 20016KT 9000 -RADZ BKN007 03/03 Q0998 TEMPO BKN010,
EFHK,2025-01-25 10:50,39.20,37.40,93.19,200.00,15.00,0.00,29.47,,6.21,,BKN,,,,700.00,,,,-RA,,,,,,,30.11,EFHK 251050Z 20015KT 9999 -RA BKN007 04/03 Q0998 BECMG BKN010,
EFHK,2025-01-25 11:20,37.40,35.60,93.14,190.00,13.00,0.00,29.47,,6.21,,SCT,BKN,,,700.00,1000.00,,,-RADZ,,,,,,,28.49,EFHK 251120Z 19013KT 9999 -RADZ SCT007 BKN010 03/02 Q0998 NOSIG,
EFHK,2025-01-25 11:50,39.20,35.60,86.79,190.00,13.00,0.00,29.47,,6.21,,SCT,BKN,,,800.00,1000.00,,,,,,,,,,30.79,EFHK 251150Z 19013KT 9999 SCT008 BKN010 04/02 Q0998 NOSIG,
EFHK,2025-01-25 12:20,39.20,35.60,86.79,200.00,15.00,0.00,29.47,,6.21,,FEW,BKN,,,800.00,1200.00,,,,,,,,,,30.11,EFHK 251220Z 20015KT 9999 FEW008 BKN012 04/02 Q0998 NOSIG,
EFHK,2025-01-25 12:50,39.20,35.60,86.79,200.00,12.00,0.00,29.47,,6.21,,FEW,BKN,,,900.00,1200.00,,,,,,,,,,31.17,EFHK 251250Z 20012KT 9999 FEW009 BKN012 04/02 Q0998 NOSIG,
EFHK,2025-01-25 13:20,39.20,35.60,86.79,210.00,17.00,0.00,29.47,,6.21,,FEW,BKN,,,900.00,1200.00,,,,,,,,,,29.51,EFHK 251320Z 21017KT 9999 FEW009 BKN012 04/02 Q0998 NOSIG,
EFHK,2025-01-25 13:50,39.20,35.60,86.79,210.00,15.00,0.00,29.47,,6.21,,BKN,,,,1200.00,,,,,,,,,,,30.11,EFHK 251350Z 21015KT 9999 BKN012 04/02 Q0998 NOSIG,
EFHK,2025-01-25 14:20,39.20,35.60,86.79,210.00,15.00,0.00,29.47,,6.21,,FEW,BKN,,,1200.00,1500.00,,,,,,,,,,30.11,EFHK 251420Z 21015KT 9999 FEW012 BKN015 04/02 Q0998 TEMPO BKN012,
EFHK,2025-01-25 14:50,39.20,35.60,86.79,200.00,15.00,0.00,29.47,,6.21,,BKN,,,,1400.00,,,,,,,,,,,30.11,EFHK 251450Z 20015KT 9999 BKN014 04/02 Q0998 TEMPO BKN015,
EFHK,2025-01-25 15:20,39.20,35.60,86.79,200.00,18.00,0.00,29.47,,6.21,,BKN,,,,1100.00,,,,,,,,,,,29.23,EFHK 251520Z 20018KT 9999 BKN011 04/02 Q0998 NOSIG,
EFHK,2025-01-25 15:50,39.20,35.60,86.79,210.00,19.00,0.00,29.47,,6.21,,BKN,,,,1100.00,,,,,,,,,,,28.96,EFHK 251550Z 21019KT 9999 BKN011 04/02 Q0998 NOSIG,
EFHK,2025-01-25 16:20,39.20,35.60,86.79,210.00,19.00,0.00,29.47,,6.21,,BKN,,,,1200.00,,,,,,,,,,,28.96,EFHK 251620Z 21019KT 9999 BKN012 04/02 Q0998 NOSIG,
EFHK,2025-01-25 16:50,39.20,35.60,86.79,210.00,21.00,0.00,29.47,,6.21,32.00,BKN,,,,1300.00,,,,,,,,,,,28.46,EFHK 251650Z 21021G32KT 9999 BKN013 04/02 Q0998 NOSIG,
EFHK,2025-01-25 17:20,39.20,35.60,86.79,210.00,22.00,0.00,29.47,,6.21,32.00,BKN,,,,1300.00,,,,,,,,,,,28.22,EFHK 251720Z 21022G32KT 9999 BKN013 04/02 Q0998 TEMPO BKN015,
EFHK,2025-01-25 17:50,39.20,35.60,86.79,210.00,22.00,0.00,29.47,,6.21,33.00,SCT,,,,1200.00,,,,,,,,,,,28.22,EFHK 251750Z 21022G33KT 9999 SCT012 04/02 Q0998 NOSIG,
EFHK,2025-01-25 18:20,39.20,35.60,86.79,210.00,21.00,0.00,29.50,,6.21,,FEW,,,,1200.00,,,,,,,,,,,28.46,EFHK 251820Z 21021KT 9999 FEW012 04/02 Q0999 NOSIG,
EFHK,2025-01-25 18:50,39.20,35.60,86.79,210.00,16.00,0.00,29.50,,6.21,,,,,,,,,,,,,,,,,29.80,EFHK 251850Z 21016KT CAVOK 04/02 Q0999 NOSIG,
EFHK,2025-01-25 19:20,39.20,35.60,86.79,210.00,16.00,0.00,29.50,,6.21,,,,,,,,,,,,,,,,,29.80,EFHK 251920Z 21016KT CAVOK 04/02 Q0999 BECMG 6000 -DZ BKN008,
EFHK,2025-01-25 19:50,39.20,35.60,86.79,210.00,15.00,0.00,29.53,,6.21,,FEW,,,,1600.00,,,,,,,,,,,30.11,EFHK 251950Z 21015KT 9999 FEW016 04/02 Q1000 BECMG 6000 -DZ BKN008,
EFHK,2025-01-25 20:20,39.20,35.60,86.79,210.00,15.00,0.00,29.53,,6.21,,BKN,,,,1100.00,,,,,,,,,,,30.11,EFHK 252020Z 21015KT 9999 BKN011 04/02 Q1000 BECMG 6000 -DZ BKN008,
EFHK,2025-01-25 20:50,39.20,35.60,86.79,210.00,15.00,0.00,29.53,,6.21,,FEW,BKN,,,900.00,1100.00,,,,,,,,,,30.11,EFHK 252050Z 21015KT 9999 FEW009 BKN011 04/02 Q1000 BECMG 6000 -DZ BKN008,
EFHK,2025-01-25 21:20,39.20,37.40,93.19,200.00,12.00,0.00,29.50,,6.21,,BKN,,,,900.00,,,,-RA,,,,,,,31.17,EFHK 252120Z 20012KT 9999 -RA BKN009 04/03 Q0999 TEMPO 6000 -DZ,
EFHK,2025-01-25 21:50,39.20,37.40,93.19,200.00,12.00,0.00,29.50,,6.21,,BKN,,,,800.00,,,,-RA,,,,,,,31.17,EFHK 252150Z 20012KT 9999 -RA BKN008 04/03 Q0999 TEMPO 6000 -DZ,
EFHK,2025-01-25 22:20,39.20,35.60,86.79,180.00,11.00,0.00,29.50,,6.21,,FEW,BKN,,,500.00,700.00,,,-RA,,,,,,,31.57,EFHK 252220Z 18011KT 9999 -RA FEW005 BKN007 04/02 Q0999 NOSIG,
EFHK,2025-01-25 22:50,39.20,37.40,93.19,190.00,13.00,0.00,29.50,,4.35,,BKN,,,,300.00,,,,-DZ,,,,,,,30.79,EFHK 252250Z 19013KT 7000 -DZ BKN003 04/03 Q0999 TEMPO 3000,
EFHK,2025-01-25 23:20,39.20,37.40,93.19,190.00,17.00,0.00,29.50,,5.59,,SCT,BKN,,,300.00,600.00,,,,,,,,,,29.51,EFHK 252320Z 19017KT 9000 SCT003 BKN006 04/03 Q0999 TEMPO 6000 -DZ BKN003,
EFHK,2025-01-25 23:50,39.20,37.40,93.19,190.00,15.00,0.00,29.50,,5.59,,FEW,BKN,,,300.00,500.00,,,-RA,,,,,,,30.11,EFHK 252350Z 19015KT 9000 -RA FEW003 BKN005 04/03 Q0999 TEMPO 6000 -DZ BKN003,
EFHK,2025-01-26 00:20,37.40,37.40,100.00,190.00,14.00,0.00,29.50,,3.73,,BKN,,,,400.00,,,,-RA,,,,,,,28.12,EFHK 260020Z 19014KT 6000 -RA BKN004 03/03 Q0999 TEMPO 3000,
EFHK,2025-01-26 00:50,37.40,35.60,93.14,190.00,17.00,0.00,29.47,,3.73,,BKN,,,,400.00,,,,-RA,,,,,,,27.15,EFHK 260050Z 19017KT 6000 -RA BKN004 03/02 Q0998 TEMPO 3000,
EFHK,2025-01-26 01:20,37.40,35.60,93.14,190.00,15.00,0.00,29.47,,5.59,,BKN,,,,400.00,,,,-RA,,,,,,,27.78,EFHK 260120Z 19015KT 9000 -RA BKN004 03/02 Q0998 TEMPO 7000 BKN005,
EFHK,2025-01-26 01:50,37.40,35.60,93.14,190.00,15.00,0.00,29.47,,3.11,,SCT,BKN,,,300.00,400.00,,,-RA,,,,,,,27.78,EFHK 260150Z 19015KT 5000 -RA SCT003 BKN004 03/02 Q0998 BECMG 9999 BKN005,
EFHK,2025-01-26 02:20,37.40,37.40,100.00,200.00,15.00,0.00,29.50,,3.73,,BKN,,,,200.00,,,,-DZ,,,,,,,27.78,EFHK 260220Z 20015KT 6000 -DZ BKN002 03/03 Q0999 BECMG 9999 BKN005,
EFHK,2025-01-26 02:50,37.40,37.40,100.00,200.00,13.00,0.00,29.50,,6.21,,FEW,BKN,,,200.00,500.00,,,,,,,,,,28.49,EFHK 260250Z 20013KT 9999 FEW002 BKN005 03/03 Q0999 BECMG SCT010,
EFHK,2025-01-26 03:20,39.20,37.40,93.19,210.00,14.00,0.00,29.50,,6.21,,BKN,BKN,,,600.00,900.00,,,,,,,,,,30.44,EFHK 260320Z 21014KT 9999 BKN006 BKN009 04/03 Q0999 BECMG SCT010,
EFHK,2025-01-26 03:50,37.40,35.60,93.14,210.00,13.00,0.00,29.50,,6.21,,FEW,BKN,,,800.00,1800.00,,,,,,,,,,28.49,EFHK 260350Z 21013KT 9999 FEW008 BKN018 03/02 Q0999 TEMPO BKN010,
EFHK,2025-01-26 04:20,35.60,33.80,93.08,210.00,12.00,0.00,29.50,,6.21,,FEW,,,,1000.00,,,,,,,,,,,26.58,EFHK 260420Z 21012KT 9999 FEW010 02/01 Q0999 TEMPO BKN010,
EFHK,2025-01-26 04:50,37.40,35.60,93.14,210.00,13.00,0.00,29.53,,6.21,,FEW,BKN,,,1000.00,1300.00,,,,,,,,,,28.49,EFHK 260450Z 21013KT 9999 FEW010 BKN013 03/02 Q1000 NOSIG,
EFHK,2025-01-26 05:20,37.40,35.60,93.14,220.00,14.00,0.00,29.53,,6.21,,BKN,BKN,,,1400.00,1800.00,,,,,,,,,,28.12,EFHK 260520Z 22014KT 9999 BKN014 BKN018 03/02 Q1000 TEMPO BKN015,
EFHK,2025-01-26 05:50,37.40,35.60,93.14,220.00,12.00,0.00,29.56,,6.21,,BKN,BKN,,,1500.00,2200.00,,,,,,,,,,28.87,EFHK 260550Z 22012KT 9999 BKN015 BKN022 03/02 Q1001 NOSIG,
EFHK,2025-01-26 06:20,37.40,33.80,86.69,230.00,12.00,0.00,29.56,,6.21,,BKN,BKN,,,1600.00,2800.00,,,,,,,,,,28.87,EFHK 260620Z 23012KT 9999 BKN016 BKN028 03/01 Q1001 NOSIG,
EFHK,2025-01-26 06:50,37.40,33.80,86.69,210.00,12.00,0.00,29.56,,6.21,,FEW,BKN,,,1600.00,3000.00,,,,,,,,,,28.87,EFHK 260650Z 21012KT 9999 FEW016 BKN030 03/01 Q1001 NOSIG,
EFHK,2025-01-26 07:20,37.40,33.80,86.69,210.00,11.00,0.00,29.59,,6.21,,BKN,BKN,,,1500.00,3000.00,,,-RA,,,,,,,29.29,EFHK 260720Z 21011KT 9999 -RA BKN015 BKN030 03/01 Q1002 TEMPO BKN014,
EFHK,2025-01-26 07:50,37.40,33.80,86.69,210.00,14.00,0.00,29.59,,6.21,,FEW,BKN,,,1500.00,2500.00,,,,,,,,,,28.12,EFHK 260750Z 21014KT 9999 FEW015 BKN025 03/01 Q1002 NOSIG,
EFHK,2025-01-26 08:20,39.20,35.60,86.79,220.00,14.00,0.00,29.59,,6.21,,FEW,BKN,,,1400.00,2500.00,,,,,,,,,,30.44,EFHK 260820Z 22014KT 9999 FEW014 BKN025 04/02 Q1002 NOSIG,
EFHK,2025-01-26 08:50,39.20,35.60,86.79,220.00,13.00,0.00,29.62,,6.21,,FEW,BKN,,,1500.00,2500.00,,,,,,,,,,30.79,EFHK 260850Z 22013KT 9999 FEW015 BKN025 04/02 Q1003 NOSIG,
EFHK,2025-01-26 09:20,39.20,35.60,86.79,220.00,12.00,0.00,29.62,,6.21,,FEW,BKN,,,1400.00,2200.00,,,,,,,,,,31.17,EFHK 260920Z 22012KT 9999 FEW014 BKN022 04/02 Q1003 NOSIG,
EFHK,2025-01-26 09:50,39.20,35.60,86.79,210.00,11.00,0.00,29.62,,6.21,,FEW,BKN,,,1400.00,1900.00,,,,,,,,,,31.57,EFHK 260950Z 21011KT 9999 FEW014 BKN019 04/02 Q1003 NOSIG,
EFHK,2025-01-26 10:20,39.20,35.60,86.79,200.00,10.00,0.00,29.65,,6.21,,SCT,BKN,,,1400.00,2000.00,,,,,,,,,,32.00,EFHK 261020Z 20010KT 9999 SCT014 BKN020 04/02 Q1004 TEMPO BKN014,
EFHK,2025-01-26 10:50,39.20,35.60,86.79,210.00,10.00,0.00,29.65,,6.21,,BKN,BKN,,,1400.00,2000.00,,,,,,,,,,32.00,EFHK 261050Z 21010KT 9999 BKN014 BKN020 04/02 Q1004 TEMPO BKN015,
EFHK,2025-01-26 11:20,39.20,35.60,86.79,220.00,10.00,0.00,29.65,,6.21,,BKN,BKN,,,1500.00,2000.00,,,,,,,,,,32.00,EFHK 261120Z 22010KT 9999 BKN015 BKN020 04/02 Q1004 TEMPO BKN014,
EFHK,2025-01-26 11:50,39.20,35.60,86.79,220.00,10.00,0.00,29.65,,6.21,,FEW,BKN,,,1300.00,1600.00,,,,,,,,,,32.00,EFHK 261150Z 22010KT 180V250 9999 FEW013 BKN016 04/02 Q1004 NOSIG,
EFHK,2025-01-26 12:20,39.20,33.80,80.79,230.00,11.00,0.00,29.65,,6.21,,FEW,BKN,,,1400.00,1600.00,,,,,,,,,,31.57,EFHK 261220Z 23011KT 9999 FEW014 BKN016 04/01 Q1004 TEMPO BKN014,
EFHK,2025-01-26 12:50,39.20,33.80,80.79,230.00,10.00,0.00,29.65,,6.21,,FEW,BKN,,,1400.00,1600.00,,,,,,,,,,32.00,EFHK 261250Z 23010KT 9999 FEW014 BKN016 04/01 Q1004 TEMPO BKN014,
EFHK,2025-01-26 13:20,39.20,33.80,80.79,230.00,6.00,0.00,29.65,,6.21,,FEW,BKN,,,1400.00,1600.00,,,,,,,,,,34.20,EFHK 261320Z 23006KT 9999 FEW014 BKN016 04/01 Q1004 TEMPO BKN014,
EFHK,2025-01-26 13:50,39.20,33.80,80.79,210.00,6.00,0.00,29.68,,6.21,,BKN,,,,1500.00,,,,,,,,,,,34.20,EFHK 261350Z 21006KT 9999 BKN015 04/01 Q1005 TEMPO BKN014,
EFHK,2025-01-26 14:20,37.40,33.80,86.69,210.00,7.00,0.00,29.68,,6.21,,BKN,,,,1400.00,,,,,,,,,,,31.36,EFHK 261420Z 21007KT 9999 BKN014 03/01 Q1005 TEMPO BKN015,
EFHK,2025-01-26 14:50,37.40,33.80,86.69,220.00,6.00,0.00,29.68,,6.21,,BKN,,,,1400.00,,,,,,,,,,,32.03,EFHK 261450Z 22006KT 200V270 9999 BKN014 03/01 Q1005 NOSIG,
EFHK,2025-01-26 15:20,37.40,33.80,86.69,200.00,6.00,0.00,29.68,,6.21,,BKN,,,,1400.00,,,,,,,,,,,32.03,EFHK 261520Z 20006KT 9999 BKN014 03/01 Q1005 NOSIG,
EFHK,2025-01-26 15:50,37.40,33.80,86.69,200.00,7.00,0.00,29.68,,6.21,,FEW,BKN,,,1200.00,1400.00,,,,,,,,,,31.36,EFHK 261550Z 20007KT 9999 FEW012 BKN014 03/01 Q1005 NOSIG,
EFHK,2025-01-26 16:20,37.40,33.80,86.69,200.00,7.00,0.00,29.68,,6.21,,FEW,BKN,,,1200.00,1400.00,,,,,,,,,,31.36,EFHK 261620Z 20007KT 9999 FEW012 BKN014 03/01 Q1005 NOSIG,
EFHK,2025-01-26 16:50,37.40,33.80,86.69,210.00,7.00,0.00,29.68,,6.21,,FEW,BKN,,,1200.00,1500.00,,,,,,,,,,31.36,EFHK 261650Z 21007KT 9999 FEW012 BKN015 03/01 Q1005 TEMPO BKN014,
EFHK,2025-01-26 17:20,37.40,33.80,86.69,210.00,7.00,0.00,29.71,,6.21,,FEW,BKN,,,1300.00,1500.00,,,,,,,,,,31.36,EFHK 261720Z 21007KT 9999 FEW013 BKN015 03/01 Q1006 TEMPO BKN014,
EFHK,2025-01-26 17:50,37.40,33.80,86.69,200.00,3.00,0.00,29.68,,6.21,,BKN,,,,1300.00,,,,,,,,,,,34.86,EFHK 261750Z 20003KT 9999 BKN013 03/01 Q1005 NOSIG,
EFHK,2025-01-26 18:20,37.40,33.80,86.69,200.00,6.00,0.00,29.68,,6.21,,FEW,BKN,,,1300.00,1600.00,,,,,,,,,,32.03,EFHK 261820Z 20006KT 170V240 9999 FEW013 BKN016 03/01 Q1005 TEMPO BKN014,
EFHK,2025-01-26 18:50,37.40,33.80,86.69,180.00,5.00,0.00,29.68,,6.21,,BKN,,,,1500.00,,,,,,,,,,,32.81,EFHK 261850Z 18005KT 9999 BKN015 03/01 Q1005 TEMPO BKN014,
EFHK,2025-01-26 19:20,35.60,33.80,93.08,170.00,5.00,0.00,29.68,,6.21,,FEW,BKN,,,1200.00,1500.00,,,,,,,,,,30.67,EFHK 261920Z 17005KT 9999 FEW012 BKN015 02/01 Q1005 TEMPO BKN014,
EFHK,2025-01-26 19:50,37.40,33.80,86.69,180.00,5.00,0.00,29.68,,6.21,,FEW,BKN,,,1300.00,1600.00,,,,,,,,,,32.81,EFHK 261950Z 18005KT 9999 FEW013 BKN016 03/01 Q1005 TEMPO BKN014,
EFHK,2025-01-26 20:20,35.60,33.80,93.08,210.00,4.00,0.00,29.68,,6.21,,BKN,,,,1500.00,,,,,,,,,,,31.62,EFHK 262020Z 21004KT 9999 BKN015 02/01 Q1005 TEMPO BKN014,
EFHK,2025-01-26 20:50,35.60,33.80,93.08,,2.00,0.00,29.65,,6.21,,BKN,,,,1500.00,,,,,,,,,,,35.60,EFHK 262050Z VRB02KT 9999 BKN015 02/01 Q1004 TEMPO BKN015,
EFHK,2025-01-26 21:20,35.60,33.80,93.08,140.00,5.00,0.00,29.65,,6.21,,BKN,,,,1600.00,,,,,,,,,,,30.67,COR EFHK 262120Z 14005KT 9999 BKN016 02/01 Q1004 TEMPO BKN014,
EFHK,2025-01-26 21:50,35.60,33.80,93.08,150.00,5.00,0.00,29.65,,6.21,,FEW,BKN,,,800.00,1700.00,,,,,,,,,,30.67,EFHK 262150Z 15005KT 9999 FEW008 BKN017 02/01 Q1004 TEMPO BKN014,
EFHK,2025-01-26 22:20,35.60,33.80,93.08,160.00,5.00,0.00,29.65,,6.21,,FEW,BKN,,,700.00,1700.00,,,,,,,,,,30.67,EFHK 262220Z 16005KT 9999 FEW007 BKN017 02/01 Q1004 TEMPO BKN014,
EFHK,2025-01-26 22:50,35.60,33.80,93.08,120.00,3.00,0.00,29.65,,6.21,,FEW,BKN,,,700.00,1700.00,,,,,,,,,,32.80,EFHK 262250Z 12003KT 9999 FEW007 BKN017 02/01 Q1004 TEMPO BKN007,
EFHK,2025-01-26 23:20,35.60,33.80,93.08,80.00,3.00,0.00,29.65,,6.21,,FEW,BKN,,,700.00,1700.00,,,,,,,,,,32.80,EFHK 262320Z 08003KT 9999 FEW007 BKN017 02/01 Q1004 TEMPO BKN007,
EFHK,2025-01-26 23:50,35.60,33.80,93.08,80.00,3.00,0.00,29.62,,6.21,,FEW,BKN,,,700.00,1700.00,,,,,,,,,,32.80,EFHK 262350Z 08003KT 9999 FEW007 BKN017 02/01 Q1003 TEMPO BKN007,
EFHK,2025-01-27 00:20,35.60,33.80,93.08,90.00,2.00,0.00,29.62,,6.21,,FEW,BKN,,,700.00,1800.00,,,,,,,,,,35.60,EFHK 270020Z 09002KT 9999 FEW007 BKN018 02/01 Q1003 TEMPO BKN007,
EFHK,2025-01-27 00:50,35.60,33.80,93.08,130.00,3.00,0.00,29.62,,6.21,,FEW,BKN,,,600.00,1800.00,,,,,,,,,,32.80,EFHK 270050Z 13003KT 9999 FEW006 BKN018 02/01 Q1003 TEMPO BKN006,
EFHK,2025-01-27 01:20,35.60,33.80,93.08,140.00,4.00,0.00,29.62,,6.21,,SCT,BKN,,,700.00,1800.00,,,,,,,,,,31.62,EFHK 270120Z 14004KT 9999 SCT007 BKN018 02/01 Q1003 TEMPO BKN006,
EFHK,2025-01-27 01:50,35.60,33.80,93.08,140.00,3.00,0.00,29.59,,6.21,,FEW,BKN,,,500.00,1800.00,,,,,,,,,,32.80,EFHK 270150Z 14003KT 9999 FEW005 BKN018 02/01 Q1002 TEMPO BKN006,
EFHK,2025-01-27 02:20,35.60,33.80,93.08,120.00,3.00,0.00,29.59,,6.21,,SCT,BKN,,,500.00,1800.00,,,,,,,,,,32.80,EFHK 270220Z 12003KT 9999 SCT005 BKN018 02/01 Q1002 BECMG BKN005,
EFHK,2025-01-27 02:50,33.80,33.80,100.00,90.00,2.00,0.00,29.59,,6.21,,BKN,BKN,,,500.00,1800.00,,,,,,,,,,33.80,EFHK 270250Z 09002KT 9999 BKN005 BKN018 01/01 Q1002 TEMPO BKN004,
EFHK,2025-01-27 03:20,33.80,33.80,100.00,80.00,2.00,0.00,29.59,,6.21,,BKN,BKN,,,600.00,1500.00,,,,,,,,,,33.80,EFHK 270320Z 08002KT 9999 BKN006 BKN015 01/01 Q1002 NOSIG,
EFHK,2025-01-27 03:50,33.80,33.80,100.00,,2.00,0.00,29.59,,6.21,,BKN,BKN,,,700.00,1600.00,,,,,,,,,,33.80,EFHK 270350Z VRB02KT 9999 BKN007 BKN016 01/01 Q1002 NOSIG,
EFHK,2025-01-27 04:20,33.80,33.80,100.00,360.00,2.00,0.00,29.59,,6.21,,SCT,,,,700.00,,,,,,,,,,,33.80,EFHK 270420Z 36002KT 9999 SCT007 01/01 Q1002 TEMPO 6000 BKN006,
EFHK,2025-01-27 04:50,33.80,33.80,100.00,340.00,4.00,0.00,29.59,,6.21,,FEW,BKN,,,500.00,2500.00,,,,,,,,,,29.52,EFHK 270450Z 34004KT 9999 FEW005 BKN025 01/01 Q1002 TEMPO 6000 BKN006,
EFHK,2025-01-27 05:20,33.80,32.00,93.03,20.00,3.00,0.00,29.59,,4.97,,FEW,,,,2500.00,,,,,,,,,,,30.75,EFHK 270520Z 02003KT 8000 FEW025 01/00 Q1002 TEMPO 6000 BKN006,
EFHK,2025-01-27 05:50,32.00,32.00,100.00,10.00,3.00,0.00,29.59,,3.73,,FEW,,,,100.00,,,,,,,,,,,28.69,EFHK 270550Z 01003KT 350V060 6000 FEW001 00/00 Q1002 TEMPO 4000 BR,
EFHK,2025-01-27 06:20,32.00,32.00,100.00,340.00,3.00,0.00,29.59,,2.49,,FEW,SCT,,,100.00,2500.00,,,BR,,,,,,,28.69,EFHK 270620Z 34003KT 4000 BR FEW001 SCT025 00/00 Q1002 TEMPO 2500,
EFHK,2025-01-27 06:50,33.80,32.00,93.03,340.00,5.00,0.00,29.59,,0.31,,BKN,SCT,,,100.00,2500.00,,,FG,,,,,,,28.53,EFHK 270650Z 34005KT 0500 R04L/P2000N R15/1500D R22L/P2000N R22R/P2000N FG BKN001 SCT025 01/00 Q1002 NOSIG,
EFHK,2025-01-27 07:20,32.00,32.00,100.00,360.00,4.00,0.00,29.56,,0.99,,BKN,,,,100.00,,,,BR,,,,,,,27.42,EFHK 270720Z 36004KT 1600 R04L/1400D R15/1800U R22L/P2000N R22R/P2000N BR BKN001 00/00 Q1001 TEMPO 0500 FG,
EFHK,2025-01-27 07:50,32.00,32.00,100.00,360.00,3.00,0.00,29.59,,0.19,,VV ,,,,100.00,,,,FG,,,,,,,28.69,EFHK 270750Z 36003KT 0300 R04L/0800D R15/0700N R22L/1500N R22R/0800U FG VV001 00/M00 Q1002 TEMPO FZFG,
EFHK,2025-01-27 08:20,32.00,32.00,100.00,350.00,5.00,0.00,29.59,,0.19,,VV ,,,,100.00,,,,FZFG,,,,,,,26.40,EFHK 270820Z 35005KT 330V030 0300 R04L/0550N R15/0500U R22L/0650N R22R/0550N FZFG VV001 M00/M00 Q1002 TEMPO 0800 FG,
EFHK,2025-01-27 08:50,32.00,32.00,100.00,310.00,3.00,0.00,29.59,,0.25,,VV ,,,,100.00,,,,FZFG,,,,,,,28.69,EFHK 270850Z 31003KT 0400 R04L/0500N R15/0450D R22L/1000U R22R/0700D FZFG VV001 M00/M00 Q1002 TEMPO 0800 FG,
EFHK,2025-01-27 09:20,32.00,30.20,92.97,30.00,3.00,0.00,29.59,,0.25,,VV ,,,,100.00,,,,FZFG,,,,,,,28.69,EFHK 270920Z 03003KT 360V060 0400 R04L/0600U R15/0700N R22L/0900N R22R/0600D FZFG VV001 M00/M01 Q1002 TEMPO 0800 FG,
EFHK,2025-01-27 09:50,32.00,32.00,100.00,,2.00,0.00,29.59,,0.43,,VV ,,,,200.00,,,,FZFG,,,,,,,32.00,EFHK 270950Z VRB02KT 0700 R04L/0700D R15/P2000N R22L/P2000N R22R/0600N FZFG VV002 M00/M00 Q1002 TEMPO 1500 BR,
EFHK,2025-01-27 10:20,32.00,32.00,100.00,,1.00,0.00,29.62,,0.37,,VV ,,,,200.00,,,,FZFG,,,,,,,32.00,EFHK 271020Z VRB01KT 0600 R04L/0600D R15/0900U R22L/1300U R22R/0450U FZFG VV002 M00/M00 Q1003 TEMPO 1500 BR SCT003,
EFHK,2025-01-27 10:50,32.00,32.00,100.00,300.00,3.00,0.00,29.62,,0.31,,VV ,,,,200.00,,,,FG,,,,,,,28.69,EFHK 271050Z 30003KT 0500 R04L/0650N R15/1500D R22L/P2000N R22R/0400N FG VV002 00/M00 Q1003 TEMPO 0800,
EFHK,2025-01-27 11:20,32.00,32.00,100.00,280.00,3.00,0.00,29.62,,0.09,,VV ,,,,200.00,,,,FZFG,,,,,,,28.69,EFHK 271120Z 28003KT 190V330 0150 R04L/0500N R15/0450N R22L/1100U R22R/0375N FZFG VV002 M00/M00 Q1003 BECMG 3000 BCFG SCT003,
EFHK,2025-01-27 11:50,33.80,32.00,93.03,,2.00,0.00,29.62,,3.73,,VV ,,,,100.00,,,,PRFG,,,,,,,33.80,EFHK 271150Z VRB02KT 6000 0200SW R04L/0450N R15/P2000N R22L/P2000N R22R/0350N PRFG VV001 01/00 Q1003 BECMG 8000 SCT003,
EFHK,2025-01-27 12:20,32.00,32.00,100.00,290.00,3.00,0.00,29.62,,6.21,,BKN,,,,100.00,,,,PRFG,,,,,,,32.00,COR EFHK 271220Z 29003KT 250V330 9999 0200SW R04L/0450N R15/P2000N R22L/P2000N R22R/0375N PRFG BKN001 00/M00 Q1003 TEMPO SCT003,
EFHK,2025-01-27 12:50,32.00,32.00,100.00,,2.00,0.00,29.65,,3.73,,BKN,,,,100.00,,,,PRFG,,,,,,,32.00,EFHK 271250Z VRB02KT 6000 0200SW R04L/0800U R15/1500D R22L/P2000N R22R/0450U PRFG BKN001 00/M00 Q1004 TEMPO SCT003,
EFHK,2025-01-27 13:20,32.00,30.20,92.97,,2.00,0.00,29.65,,3.73,,SCT,SCT,,,100.00,2100.00,,,PRFG,,,,,,,32.00,EFHK 271320Z VRB02KT 6000 0600SW R04L/0600U R15/P2000N R22L/P2000N R22R/0650D PRFG SCT001 SCT021 M00/M01 Q1004 TEMPO 3000,
EFHK,2025-01-27 13:50,32.00,30.20,92.97,,2.00,0.00,29.65,,6.21,,BKN,,,,2200.00,,,,BCFG,,,,,,,32.00,EFHK 271350Z VRB02KT 9999 1500NW R04L/P2000N R15/P2000N R22L/P2000N R22R/0900U BCFG BKN022 M00/M01 Q1004 NOSIG,
EFHK,2025-01-27 14:20,32.00,30.20,92.97,,2.00,0.00,29.65,,6.21,,BKN,,,,2300.00,,,,VCFG,,,,,,,32.00,EFHK 271420Z VRB02KT 9999 VCFG BKN023 00/M01 Q1004 NOSIG,
EFHK,2025-01-27 14:50,32.00,30.20,92.97,50.00,4.00,0.00,29.65,,6.21,,BKN,,,,2400.00,,,,,,,,,,,27.42,EFHK 271450Z 05004KT 9999 BKN024 M00/M01 Q1004 NOSIG,
EFHK,2025-01-27 15:20,32.00,30.20,92.97,40.00,4.00,0.00,29.65,,6.21,,BKN,,,,2400.00,,,,,,,,,,,27.42,EFHK 271520Z 04004KT 020V080 9999 BKN024 M00/M01 Q1004 BECMG BKN002,
EFHK,2025-01-27 15:50,32.00,30.20,92.97,50.00,4.00,0.00,29.65,,6.21,,FEW,BKN,,,200.00,2400.00,,,,,,,,,,27.42,EFHK 271550Z 05004KT 9999 FEW002 BKN024 M00/M01 Q1004 BECMG BKN002,
EFHK,2025-01-27 16:20,30.20,30.20,100.00,60.00,4.00,0.00,29.65,,6.21,,FEW,BKN,,,300.00,2000.00,,,-SHSN,,,,,,,25.32,EFHK 271620Z 06004KT 9999 -SHSN FEW003 BKN020 M01/M01 Q1004 BECMG BKN002,
EFHK,2025-01-27 16:50,32.00,30.20,92.97,50.00,4.00,0.00,29.65,,6.21,,FEW,BKN,,,1900.00,3500.00,,,,,,,,,,27.42,EFHK 271650Z 05004KT 9999 FEW019 BKN035 M00/M01 Q1004 BECMG BKN002,
EFHK,2025-01-27 17:20,30.20,30.20,100.00,50.00,4.00,0.00,29.65,,6.21,,SCT,BKN,,,200.00,2000.00,,,,,,,,,,25.32,EFHK 271720Z 05004KT 9999 SCT002 BKN020 M01/M01 Q1004 BECMG 2000 BR BKN002,
EFHK,2025-01-27 17:50,30.20,30.20,100.00,70.00,3.00,0.00,29.65,,5.59,,FEW,BKN,,,200.00,2200.00,,,,,,,,,,26.63,EFHK 271750Z 07003KT 9000 FEW002 BKN022 M01/M01 Q1004 BECMG 2000 BR BKN002,
EFHK,2025-01-27 18:20,30.20,30.20,100.00,60.00,5.00,0.00,29.65,,5.59,,FEW,BKN,BKN,,200.00,2200.00,4000.00,,,,,,,,,24.26,EFHK 271820Z 06005KT 9000 FEW002 BKN022 BKN040 M01/M01 Q1004 BECMG 2000 BR BKN002,
EFHK,2025-01-27 18:50,32.00,30.20,92.97,90.00,4.00,0.00,29.65,,5.59,,FEW,BKN,BKN,,200.00,2000.00,4000.00,,,,,,,,,27.42,EFHK 271850Z 09004KT 9000 FEW002 BKN020 BKN040 M00/M01 Q1004 BECMG 2000 BR BKN002,
EFHK,2025-01-27 19:20,32.00,30.20,92.97,120.00,4.00,0.00,29.65,,6.21,,FEW,SCT,BKN,,200.00,1400.00,2000.00,,,,,,,,,27.42,EFHK 271920Z 12004KT 9999 FEW002 SCT014 BKN020 M00/M01 Q1004 TEMPO 2000 BR BKN002,
EFHK,2025-01-27 19:50,32.00,32.00,100.00,110.00,5.00,0.00,29.65,,6.21,,BKN,BKN,,,400.00,1200.00,,,,,,,,,,26.40,EFHK 271950Z 11005KT 9999 BKN004 BKN012 00/M00 Q1004 NOSIG,
EFHK,2025-01-27 20:20,32.00,32.00,100.00,100.00,8.00,0.00,29.65,,6.21,,BKN,,,,300.00,,,,,,,,,,,24.11,EFHK 272020Z 10008KT 9999 BKN003 00/M00 Q1004 TEMPO 6000,
EFHK,2025-01-27 20:50,33.80,32.00,93.03,110.00,7.00,0.00,29.65,,1.86,,OVC,,,,200.00,,,,-DZ BR,,,,,,,26.97,EFHK 272050Z 11007KT 3000 -DZ BR OVC002 01/00 Q1004 TEMPO 6000 NSW,
EFHK,2025-01-27 21:20,33.80,32.00,93.03,110.00,7.00,0.00,29.65,,3.73,,BKN,,,,300.00,,,,,,,,,,,26.97,EFHK 272120Z 11007KT 6000 BKN003 01/00 Q1004 BECMG 9999,
EFHK,2025-01-27 21:50,33.80,33.80,100.00,110.00,7.00,0.00,29.65,,6.21,,BKN,BKN,,,400.00,600.00,,,,,,,,,,26.97,EFHK 272150Z 11007KT 9999 BKN004 BKN006 01/01 Q1004 BECMG BKN006,
EFHK,2025-01-27 22:20,35.60,33.80,93.08,140.00,12.00,0.00,29.62,,6.21,,SCT,BKN,,,400.00,700.00,,,,,,,,,,26.58,EFHK 272220Z 14012KT 9999 SCT004 BKN007 02/01 Q1003 TEMPO BKN010,
EFHK,2025-01-27 22:50,35.60,32.00,86.59,120.00,13.00,0.00,29.62,,6.21,,BKN,,,,800.00,,,,,,,,,,,26.18,EFHK 272250Z 12013KT 9999 BKN008 02/M00 Q1003 TEMPO BKN010,
EFHK,2025-01-27 23:20,35.60,32.00,86.59,120.00,12.00,0.00,29.62,,6.21,,BKN,BKN,,,800.00,1000.00,,,,,,,,,,26.58,EFHK 272320Z 12012KT 9999 BKN008 BKN010 02/M00 Q1003 TEMPO BKN010,
EFHK,2025-01-27 23:50,35.60,32.00,86.59,130.00,13.00,0.00,29.62,,6.21,,BKN,BKN,,,900.00,1200.00,,,,,,,,,,26.18,EFHK 272350Z 13013KT 9999 BKN009 BKN012 02/M00 Q1003 BECMG 4000 RASN,
