station,valid,tmpf,dwpf,relh,drct,sknt,p01i,alti,mslp,vsby,gust,skyc1,skyc2,skyc3,skyc4,skyl1,skyl2,skyl3,skyl4,wxcodes,ice_accretion_1hr,ice_accretion_3hr,ice_accretion_6hr,peak_wind_gust,peak_wind_drct,peak_wind_time,feel,metar,snowdepth
ENGM,2025-01-11 00:20,23.00,17.60,79.47,360.00,8.00,0.00,30.06,,6.21,,,,,,,,,,,,,,,,,13.03,ENGM 110020Z 36008KT CAVOK M05/M08 Q1018,
ENGM,2025-01-11 00:50,15.80,12.20,85.40,20.00,9.00,0.00,30.06,,6.21,,,,,,,,,,,,,,,,,3.37,ENGM 110050Z 02009KT CAVOK M09/M11 Q1018,
ENGM,2025-01-11 01:20,19.40,15.80,85.63,10.00,12.00,0.00,30.06,,6.21,,,,,,,,,,,,,,,,,5.97,ENGM 110120Z 01012KT CAVOK M07/M09 Q1018,
ENGM,2025-01-11 01:50,17.60,14.00,85.51,20.00,9.00,0.00,30.06,,6.21,,,,,,,,,,,,,,,,,5.61,ENGM 110150Z 02009KT CAVOK M08/M10 Q1018,
ENGM,2025-01-11 02:20,17.60,14.00,85.51,10.00,9.00,0.00,30.06,,6.21,,,,,,,,,,,,,,,,,5.61,ENGM 110220Z 01009KT CAVOK M08/M10 Q1018,
ENGM,2025-01-11 02:50,15.80,12.20,85.40,360.00,8.00,0.00,30.06,,6.21,,,,,,,,,,,,,,,,,4.16,ENGM 110250Z 36008KT CAVOK M09/M11 Q1018,
ENGM,2025-01-11 03:20,21.20,15.80,79.31,360.00,7.00,0.00,30.06,,6.21,,,,,,,,,,,,,,,,,11.61,ENGM 110320Z 36007KT CAVOK M06/M09 Q1018,
ENGM,2025-01-11 03:50,24.80,19.40,79.62,350.00,10.00,0.00,30.06,,6.21,,,,,,,,,,,,,,,,,13.94,ENGM 110350Z 35010KT CAVOK M04/M07 Q1018,
ENGM,2025-01-11 04:20,23.00,17.60,79.47,360.00,8.00,0.00,30.09,,6.21,,,,,,,,,,,,,,,,,13.03,ENGM 110420Z 36008KT CAVOK M05/M08 Q1019,
ENGM,2025-01-11 04:50,24.80,19.40,79.62,360.00,10.00,0.00,30.09,,6.21,,,,,,,,,,,,,,,,,13.94,ENGM 110450Z 36010KT CAVOK M04/M07 Q1019 NOSIG,
ENGM,2025-01-11 05:20,24.80,19.40,79.62,350.00,11.00,0.00,30.09,,6.21,,,,,,,,,,,,,,,,,13.37,ENGM 110520Z 35011KT CAVOK M04/M07 Q1019 NOSIG,
ENGM,2025-01-11 05:50,24.80,19.40,79.62,360.00,11.00,0.00,30.09,,6.21,,,,,,,,,,,,,,,,,13.37,ENGM 110550Z 36011KT CAVOK M04/M07 Q1019 NOSIG,
ENGM,2025-01-11 06:20,26.60,19.40,73.89,350.00,10.00,0.00,30.12,,6.21,,,,,,,,,,,,,,,,,16.20,ENGM 110620Z 35010KT CAVOK M03/M07 Q1020 NOSIG,
ENGM,2025-01-11 06:50,24.80,17.60,73.70,350.00,9.00,0.00,30.12,,6.21,,,,,,,,,,,,,,,,,14.56,ENGM 110650Z 35009KT CAVOK M04/M08 Q1020 NOSIG,
ENGM,2025-01-11 07:20,24.80,19.40,79.62,360.00,10.00,0.00,30.12,,6.21,,,,,,,,,,,,,,,,,13.94,ENGM 110720Z 36010KT CAVOK M04/M07 Q1020 NOSIG,
ENGM,2025-01-11 07:50,24.80,19.40,79.62,360.00,13.00,0.00,30.15,,6.21,,,,,,,,,,,,,,,,,12.34,ENGM 110750Z 36013KT CAVOK M04/M07 Q1021 NOSIG,
ENGM,2025-01-11 08:20,24.80,17.60,73.70,360.00,12.00,0.00,30.15,,6.21,,,,,,,,,,,,,,,,,12.84,ENGM 110820Z 36012KT CAVOK M04/M08 Q1021 NOSIG,
ENGM,2025-01-11 08:50,24.80,19.40,79.62,360.00,14.00,0.00,30.15,,6.21,,,,,,,,,,,,,,,,,11.88,ENGM 110850Z 36014KT CAVOK M04/M07 Q1021 NOSIG,
ENGM,2025-01-11 09:20,26.60,19.40,73.89,360.00,15.00,0.00,30.15,,6.21,,,,,,,,,,,,,,,,,13.78,ENGM 110920Z 36015KT CAVOK M03/M07 Q1021 NOSIG,
ENGM,2025-01-11 09:50,26.60,19.40,73.89,350.00,12.00,0.00,30.18,,6.21,,,,,,,,,,,,,,,,,15.13,ENGM 110950Z 35012KT CAVOK M03/M07 Q1022 NOSIG,
ENGM,2025-01-11 10:20,24.80,19.40,79.62,350.00,13.00,0.00,30.18,,6.21,,,,,,,,,,,,,,,,,12.34,ENGM 111020Z 35013KT CAVOK M04/M07 Q1022 NOSIG,
ENGM,2025-01-11 10:50,26.60,19.40,73.89,350.00,9.00,0.00,30.18,,6.21,,,,,,,,,,,,,,,,,16.80,ENGM 111050Z 35009KT CAVOK M03/M07 Q1022 NOSIG,
ENGM,2025-01-11 11:20,26.60,19.40,73.89,350.00,6.00,0.00,30.18,,6.21,,,,,,,,,,,,,,,,,19.03,ENGM 111120Z 35006KT CAVOK M03/M07 Q1022 NOSIG,
ENGM,2025-01-11 11:50,28.40,19.40,68.61,350.00,8.00,0.00,30.18,,6.21,,,,,,,,,,,,,,,,,19.68,ENGM 111150Z 35008KT CAVOK M02/M07 Q1022 NOSIG,
ENGM,2025-01-11 12:20,26.60,19.40,73.89,360.00,8.00,0.00,30.18,,6.21,,,,,,,,,,,,,,,,,17.46,ENGM 111220Z 36008KT CAVOK M03/M07 Q1022 NOSIG,
ENGM,2025-01-11 12:50,28.40,21.20,74.08,360.00,11.00,0.00,30.18,,6.21,,,,,,,,,,,,,,,,,17.92,ENGM 111250Z 36011KT CAVOK M02/M06 Q1022 NOSIG,
ENGM,2025-01-11 13:20,28.40,21.20,74.08,350.00,11.00,0.00,30.21,,6.21,,,,,,,,,,,,,,,,,17.92,ENGM 111320Z 35011KT CAVOK M02/M06 Q1023 NOSIG,
ENGM,2025-01-11 13:50,26.60,19.40,73.89,350.00,9.00,0.00,30.21,,6.21,,,,,,,,,,,,,,,,,16.80,ENGM 111350Z 35009KT CAVOK M03/M07 Q1023 NOSIG,
ENGM,2025-01-11 14:20,26.60,19.40,73.89,350.00,6.00,0.00,30.21,,6.21,,,,,,,,,,,,,,,,,19.03,ENGM 111420Z 35006KT CAVOK M03/M07 Q1023 NOSIG,
ENGM,2025-01-11 14:50,24.80,19.40,79.62,350.00,6.00,0.00,30.24,,6.21,,,,,,,,,,,,,,,,,16.86,ENGM 111450Z 35006KT CAVOK M04/M07 Q1024 NOSIG,
ENGM,2025-01-11 15:20,24.80,19.40,79.62,350.00,7.00,0.00,30.24,,6.21,,,,,,,,,,,,,,,,,16.00,ENGM 111520Z 35007KT CAVOK M04/M07 Q1024 NOSIG,
ENGM,2025-01-11 15:50,24.80,19.40,79.62,340.00,7.00,0.00,30.27,,6.21,,,,,,,,,,,,,,,,,16.00,ENGM 111550Z 34007KT 290V350 CAVOK M04/M07 Q1025 NOSIG,
ENGM,2025-01-11 16:20,26.60,19.40,73.89,360.00,10.00,0.00,30.27,,6.21,,,,,,,,,,,,,,,,,16.20,ENGM 111620Z 36010KT CAVOK M03/M07 Q1025 NOSIG,
ENGM,2025-01-11 16:50,24.80,17.60,73.70,360.00,9.00,0.00,30.27,,6.21,,,,,,,,,,,,,,,,,14.56,ENGM 111650Z 36009KT CAVOK M04/M08 Q1025 NOSIG,
ENGM,2025-01-11 17:20,23.00,17.60,79.47,350.00,8.00,0.00,30.30,,6.21,,,,,,,,,,,,,,,,,13.03,ENGM 111720Z 35008KT CAVOK M05/M08 Q1026 NOSIG,
ENGM,2025-01-11 17:50,23.00,17.60,79.47,350.00,8.00,0.00,30.30,,6.21,,,,,,,,,,,,,,,,,13.03,ENGM 111750Z 35008KT CAVOK M05/M08 Q1026 NOSIG,
ENGM,2025-01-11 18:20,23.00,17.60,79.47,350.00,7.00,0.00,30.33,,6.21,,,,,,,,,,,,,,,,,13.81,ENGM 111820Z 35007KT CAVOK M05/M08 Q1027 NOSIG,
ENGM,2025-01-11 18:50,23.00,17.60,79.47,340.00,3.00,0.00,30.33,,6.21,,,,,,,,,,,,,,,,,18.40,ENGM 111850Z 34003KT 270V020 CAVOK M05/M08 Q1027 NOSIG,
ENGM,2025-01-11 19:20,23.00,17.60,79.47,280.00,3.00,0.00,30.36,,6.21,,,,,,,,,,,,,,,,,18.40,ENGM 111920Z 28003KT 230V340 CAVOK M05/M08 Q1028 NOSIG,
ENGM,2025-01-11 19:50,21.20,15.80,79.31,350.00,4.00,0.00,30.36,,6.21,,,,,,,,,,,,,,,,,14.81,ENGM 111950Z 35004KT CAVOK M06/M09 Q1028,
ENGM,2025-01-11 20:20,19.40,15.80,85.63,20.00,4.00,0.00,30.36,,6.21,,,,,,,,,,,,,,,,,12.71,ENGM 112020Z 02004KT 340V050 CAVOK M07/M09 Q1028,
ENGM,2025-01-11 20:50,19.40,15.80,85.63,20.00,3.00,0.00,30.39,,6.21,,,,,,,,,,,,,,,,,14.28,ENGM 112050Z 02003KT CAVOK M07/M09 Q1029 NOSIG,
ENGM,2025-01-11 21:20,17.60,15.80,92.50,10.00,6.00,0.00,30.39,,6.21,,,,,,,,,,,,,,,,,8.19,ENGM 112120Z 01006KT CAVOK M08/M09 Q1029 NOSIG,
ENGM,2025-01-11 21:50,17.60,14.00,85.51,,2.00,0.00,30.39,,6.21,,,,,,,,,,,,,,,,,17.60,ENGM 112150Z VRB02KT CAVOK M08/M10 Q1029 NOSIG,
ENGM,2025-01-11 22:20,19.40,15.80,85.63,340.00,3.00,0.00,30.39,,6.21,,,,,,,,,,,,,,,,,14.28,ENGM 112220Z 34003KT 290V010 CAVOK M07/M09 Q1029,
ENGM,2025-01-11 22:50,17.60,14.00,85.51,10.00,6.00,0.00,30.39,,6.21,,,,,,,,,,,,,,,,,8.19,ENGM 112250Z 01006KT CAVOK M08/M10 Q1029,
ENGM,2025-01-11 23:20,15.80,12.20,85.40,360.00,5.00,0.00,30.42,,6.21,,,,,,,,,,,,,,,,,7.16,ENGM 112320Z 36005KT CAVOK M09/M11 Q1030,
ENGM,2025-01-11 23:50,14.00,12.20,92.38,360.00,7.00,0.00,30.42,,6.21,,,,,,,,,,,,,,,,,2.84,ENGM 112350Z 36007KT CAVOK M10/M11 Q1030,
ENGM,2025-01-12 00:20,15.80,12.20,85.40,30.00,5.00,0.00,30.42,,6.21,,,,,,,,,,,,,,,,,7.16,ENGM 120020Z 03005KT CAVOK M09/M11 Q1030,
ENGM,2025-01-12 00:50,15.80,14.00,92.44,360.00,5.00,0.00,30.42,,6.21,,,,,,,,,,,,,,,,,7.16,ENGM 120050Z 36005KT CAVOK M09/M10 Q1030,
ENGM,2025-01-12 01:20,14.00,12.20,92.38,20.00,8.00,0.00,30.42,,6.21,,,,,,,,,,,,,,,,,1.94,ENGM 120120Z 02008KT CAVOK M10/M11 Q1030,
ENGM,2025-01-12 01:50,14.00,10.40,85.28,10.00,7.00,0.00,30.42,,6.21,,,,,,,,,,,,,,,,,2.84,ENGM 120150Z 01007KT CAVOK M10/M12 Q1030,
ENGM,2025-01-12 02:20,15.80,12.20,85.40,10.00,4.00,0.00,30.45,,6.21,,,,,,,,,,,,,,,,,8.50,ENGM 120220Z 01004KT CAVOK M09/M11 Q1031,
ENGM,2025-01-12 02:50,17.60,14.00,85.51,360.00,5.00,0.00,30.45,,6.21,,,,,,,,,,,,,,,,,9.29,ENGM 120250Z 36005KT CAVOK M08/M10 Q1031,
ENGM,2025-01-12 03:20,17.60,14.00,85.51,10.00,5.00,0.00,30.45,,6.21,,,,,,,,,,,,,,,,,9.29,ENGM 120320Z 01005KT CAVOK M08/M10 Q1031,
ENGM,2025-01-12 03:50,15.80,12.20,85.40,330.00,6.00,0.00,30.47,,6.21,,,,,,,,,,,,,,,,,6.02,ENGM 120350Z 33006KT CAVOK M09/M11 Q1032,
ENGM,2025-01-12 04:20,15.80,12.20,85.40,350.00,6.00,0.00,30.47,,6.21,,,,,,,,,,,,,,,,,6.02,ENGM 120420Z 35006KT CAVOK M09/M11 Q1032,
ENGM,2025-01-12 04:50,15.80,12.20,85.40,340.00,5.00,0.00,30.47,,6.21,,,,,,,,,,,,,,,,,7.16,ENGM 120450Z 34005KT CAVOK M09/M11 Q1032 NOSIG,
ENGM,2025-01-12 05:20,14.00,10.40,85.28,340.00,4.00,0.00,30.47,,6.21,,,,,,,,,,,,,,,,,6.40,ENGM 120520Z 34004KT 310V010 CAVOK M10/M12 Q1032 NOSIG,
ENGM,2025-01-12 05:50,12.20,10.40,92.32,360.00,3.00,0.00,30.47,,6.21,,,,,,,,,,,,,,,,,6.05,ENGM 120550Z 36003KT CAVOK M11/M12 Q1032 NOSIG,
ENGM,2025-01-12 06:20,10.40,6.80,85.05,340.00,5.00,0.00,30.47,,6.21,,,,,,,,,,,,,,,,,0.74,ENGM 120620Z 34005KT CAVOK M12/M14 Q1032 NOSIG,
ENGM,2025-01-12 06:50,12.20,8.60,85.17,10.00,3.00,0.00,30.47,,6.21,,,,,,,,,,,,,,,,,6.05,ENGM 120650Z 01003KT CAVOK M11/M13 Q1032 NOSIG,
ENGM,2025-01-12 07:20,8.60,6.80,92.19,360.00,3.00,0.00,30.50,,6.21,,,,,,,,,,,,,,,,,1.94,ENGM 120720Z 36003KT CAVOK M13/M14 Q1033 NOSIG,
ENGM,2025-01-12 07:50,10.40,8.60,92.25,10.00,4.00,0.00,30.50,,6.21,,BKN,,,,100.00,,,,,,,,,,,2.20,ENGM 120750Z 01004KT 340V050 9999 BKN001 M12/M13 Q1033 TEMPO 0800 FZFG,
ENGM,2025-01-12 08:20,10.40,8.60,92.25,,1.00,0.00,30.50,,6.21,,BKN,,,,100.00,,,,PRFG,,,,,,,10.40,ENGM 120820Z VRB01KT 9999 0450E R19R/P2000N R01R/P2000N R19L/0650D R01L/P2000N PRFG BKN001 M12/M13 Q1033 TEMPO 0800 FZFG,
ENGM,2025-01-12 08:50,10.40,8.60,92.25,,1.00,0.00,30.53,,6.21,,BKN,,,,200.00,,,,PRFG,,,,,,,10.40,ENGM 120850Z VRB01KT 9999 0650E R19R/P2000N R01R/1400U R19L/1500U R01L/P2000N PRFG BKN002 M12/M13 Q1034 TEMPO 0800 FZFG,
ENGM,2025-01-12 09:20,10.40,6.80,85.05,330.00,3.00,0.00,30.53,,6.21,,BKN,,,,200.00,,,,,,,,,,,4.00,ENGM 120920Z 33003KT 9999 BKN002 M12/M14 Q1034 TEMPO 0800 FZFG,
ENGM,2025-01-12 09:50,10.40,6.80,85.05,350.00,3.00,0.00,30.53,,6.21,,SCT,,,,100.00,,,,PRFG,,,,,,,4.00,ENGM 120950Z 35003KT 9999 0800E PRFG SCT001 M12/M14 Q1034 TEMPO 0800 FZFG BKN001,
ENGM,2025-01-12 10:20,10.40,6.80,85.05,360.00,3.00,0.00,30.53,,6.21,,,,,,,,,,VCFG,,,,,,,4.00,ENGM 121020Z 36003KT 9999 VCFG SCTC002 M12/M14 Q1034 TEMPO BKN002,
ENGM,2025-01-12 10:50,10.40,6.80,85.05,350.00,3.00,0.00,30.53,,6.21,,FEW,,,,100.00,,,,,,,,,,,4.00,ENGM 121050Z 35003KT 9999 FEW001 M12/M14 Q1034 NOSIG,
ENGM,2025-01-12 11:20,12.20,8.60,85.17,0.00,0.00,0.00,30.56,,6.21,,FEW,,,,200.00,,,,,,,,,,,12.20,ENGM 121120Z 00000KT 9999 FEW002 M11/M13 Q1035 NOSIG,
ENGM,2025-01-12 11:50,12.20,8.60,85.17,,2.00,0.00,30.56,,6.21,,FEW,,,,200.00,,,,,,,,,,,12.20,ENGM 121150Z VRB02KT 9999 FEW002 M11/M13 Q1035 TEMPO BKN002,
ENGM,2025-01-12 12:20,12.20,10.40,92.32,,1.00,0.00,30.56,,6.21,,BKN,,,,200.00,,,,BCFG,,,,,,,12.20,ENGM 121220Z VRB01KT 9999 1000SE BCFG BKN002 M11/M12 Q1035 TEMPO 0800 FZFG,
ENGM,2025-01-12 12:50,12.20,8.60,85.17,,1.00,0.00,30.56,,0.47,,VV ,,,,200.00,,,,FZFG,,,,,,,12.20,ENGM 121250Z VRB01KT 0750 0350SE R19R/P2000N R01R/0450N R19L/0500D R01L/P2000N FZFG VV002 M11/M13 Q1035 NOSIG,
ENGM,2025-01-12 13:20,14.00,10.40,85.28,,1.00,0.00,30.56,,0.25,,VV ,,,,200.00,,,,FZFG,,,,,,,14.00,ENGM 121320Z VRB01KT 0400 R19R/P2000N R01R/0500N R19L/0500N R01L/0400N FZFG VV002 M10/M12 Q1035 TEMPO 0800 FZFG OVC001,
ENGM,2025-01-12 13:50,12.20,10.40,92.32,,2.00,0.00,30.56,,0.22,,VV ,,,,200.00,,,,FZFG,,,,,,,12.20,ENGM 121350Z VRB02KT 0350 R19R/1000U R01R/0400N R19L/0400N R01L/0275D FZFG VV002 M11/M12 Q1035 TEMPO 0800 FZFG OVC001,
ENGM,2025-01-12 14:20,12.20,10.40,92.32,0.00,0.00,0.00,30.56,,0.37,,VV ,,,,200.00,,,,FZFG,,,,,,,12.20,ENGM 121420Z 00000KT 0600 0400SE R19R/P2000N R01R/0900U R19L/0650N R01L/P2000N FZFG VV002 M11/M12 Q1035 NOSIG,
ENGM,2025-01-12 14:50,10.40,10.40,100.00,240.00,3.00,0.00,30.56,,0.56,,VV ,,,,200.00,,,,FZFG,,,,,,,4.00,ENGM 121450Z 24003KT 0900 0350SW R19R/P2000N R01R/1000D R19L/P2000N R01L/0450N FZFG VV002 M12/M12 Q1035,
ENGM,2025-01-12 15:20,10.40,8.60,92.25,0.00,0.00,0.00,30.56,,0.34,,VV ,,,,200.00,,,,FZFG,,,,,,,10.40,ENGM 121520Z 00000KT 0550 R19R/P2000N R01R/P2000N R19L/0550D R01L/0450N FZFG VV002 M12/M13 Q1035 NOSIG,
ENGM,2025-01-12 15:50,8.60,6.80,92.19,0.00,0.00,0.00,30.56,,0.68,,VV ,,,,200.00,,,,FZFG,,,,,,,8.60,ENGM 121550Z 00000KT 1100 0500SW R19R/P2000N R01R/1300D R19L/1700U R01L/0600N FZFG VV002 M13/M14 Q1035 TEMPO 2000 BCFG BKN002,
ENGM,2025-01-12 16:20,10.40,8.60,92.25,,2.00,0.00,30.56,,0.31,,VV ,,,,200.00,,,,FZFG,,,,,,,10.40,ENGM 121620Z VRB02KT 0500 R19R/1000U R01R/0650D R19L/1600D R01L/0700N FZFG VV002 M12/M13 Q1035 TEMPO 2000 BCFG BKN002,
ENGM,2025-01-12 16:50,8.60,6.80,92.19,,2.00,0.00,30.59,,0.43,,VV ,,,,200.00,,,,FZFG,,,,,,,8.60,ENGM 121650Z VRB02KT 0700 0450SW R19R/P2000N R01R/P2000N R19L/0650D R01L/0500N FZFG VV002 M13/M14 Q1036 TEMPO 0400 FZFG,
ENGM,2025-01-12 17:20,6.80,5.00,92.12,,2.00,0.00,30.59,,0.56,,VV ,,,,200.00,,,,FZFG,,,,,,,6.80,ENGM 121720Z VRB02KT 0900 0350SW R19R/P2000N R01R/1000U R19L/P2000N R01L/0450N FZFG VV002 M14/M15 Q1036 TEMPO 2000 BCFG BKN002,
ENGM,2025-01-12 17:50,6.80,5.00,92.12,0.00,0.00,0.00,30.59,,0.47,,VV ,,,,200.00,,,,FZFG,,,,,,,6.80,ENGM 121750Z 00000KT 0750 0450SE R19R/1800D R01R/0500N R19L/1000N R01L/1100D FZFG VV002 M14/M15 Q1036 TEMPO 0400 FZFG,
ENGM,2025-01-12 18:20,6.80,5.00,92.12,,1.00,0.00,30.56,,0.37,,VV ,,,,200.00,,,,FZFG,,,,,,,6.80,ENGM 121820Z VRB01KT 0600 0350SW R19R/1300U R01R/1800U R19L/0450N R01L/0400N FZFG VV002 M14/M15 Q1035 TEMPO 0400 FZFG,
ENGM,2025-01-12 18:50,5.00,3.20,92.06,,2.00,0.00,30.59,,0.81,,VV ,,,,200.00,,,,FZFG,,,,,,,5.00,ENGM 121850Z VRB02KT 1300 0550S R19R/1900U R01R/0800N R19L/1900U R01L/0650D FZFG VV002 M15/M16 Q1036 TEMPO 0400 FZFG,
ENGM,2025-01-12 19:20,5.00,3.20,92.06,0.00,0.00,0.00,30.59,,1.18,,VV ,,,,200.00,,,,FZFG,,,,,,,5.00,ENGM 121920Z 00000KT 1900 0650S R19R/P2000N R01R/0900D R19L/P2000N R01L/1000D FZFG VV002 M15/M16 Q1036 TEMPO 0400 FZFG,
ENGM,2025-01-12 19:50,5.00,3.20,92.06,0.00,0.00,0.00,30.59,,0.56,,VV ,,,,200.00,,,,FZFG,,,,,,,5.00,ENGM 121950Z 00000KT 0900 0600SE R19R/2000U R01R/0750N R19L/1300N R01L/0800N FZFG VV002 M15/M16 Q1036 TEMPO 0400 FZFG,
ENGM,2025-01-12 20:20,5.00,3.20,92.06,230.00,2.00,0.00,30.59,,0.56,,VV ,,,,200.00,,,,FZFG,,,,,,,5.00,ENGM 122020Z 23002KT 0900 0550SE R19R/2000D R01R/0500N R19L/1900D R01L/0800D FZFG VV002 M15/M16 Q1036 TEMPO 0400 FZFG,
ENGM,2025-01-12 20:50,5.00,3.20,92.06,0.00,0.00,0.00,30.59,,0.50,,VV ,,,,200.00,,,,FZFG,,,,,,,5.00,ENGM 122050Z 00000KT 0800 0450W R19R/0750D R01R/1100U R19L/1400U R01L/0800U FZFG VV002 M15/M16 Q1036 TEMPO 0400 FZFG,
ENGM,2025-01-12 21:20,5.00,1.40,84.68,,1.00,0.00,30.56,,0.56,,BKN,,,,200.00,,,,FZFG,,,,,,,5.00,ENGM 122120Z VRB01KT 0900 0450SE R19R/1100D R01R/0500N R19L/0700D R01L/1300U FZFG BKN002 M15/M17 Q1035 TEMPO 2000 BCFG,
ENGM,2025-01-12 21:50,3.20,1.40,91.99,,1.00,0.00,30.56,,1.24,,VV ,,,,200.00,,,,PRFG,,,,,,,3.20,ENGM 122150Z VRB01KT 2000 0650NE R19R/P2000N R01R/P2000N R19L/0700N R01L/P2000N PRFG VV002 M16/M17 Q1035 TEMPO 0400 FZFG,
ENGM,2025-01-12 22:20,3.20,-0.40,84.56,,1.00,0.00,30.53,,1.74,,BKN,,,,200.00,,,,BCFG,,,,,,,3.20,ENGM 122220Z VRB01KT 2800 1100SE BCFG BKN002 M16/M18 Q1034,
ENGM,2025-01-12 22:50,3.20,1.40,91.99,,1.00,0.00,30.53,,1.68,,BKN,,,,200.00,,,,PRFG,,,,,,,3.20,ENGM 122250Z VRB01KT 2700 0500E PRFG BKN002 M16/M17 Q1034,
ENGM,2025-01-12 23:20,3.20,1.40,91.99,320.00,2.00,0.00,30.53,,1.24,,BKN,,,,200.00,,,,PRFG,,,,,,,3.20,ENGM 122320Z 32002KT 2000 0450E PRFG BKN002 M16/M17 Q1034,
ENGM,2025-01-12 23:50,3.20,1.40,91.99,,1.00,0.00,30.50,,0.62,,BKN,,,,200.00,,,,PRFG,,,,,,,3.20,ENGM 122350Z VRB01KT 1000 0600SW R19R/0900D R01R/1000D R19L/P2000N R01L/0700N PRFG BKN002 M16/M17 Q1033,
ENGM,2025-01-13 00:20,3.20,1.40,91.99,,1.00,0.00,30.47,,1.06,,BKN,,,,200.00,,,,PRFG,,,,,,,3.20,ENGM 130020Z VRB01KT 1700 0450E R19R/P2000N R01R/1700U R19L/0900U R01L/P2000N PRFG BKN002 M16/M17 Q1032,
ENGM,2025-01-13 00:50,3.20,-0.40,84.56,,1.00,0.00,30.47,,2.55,,BKN,,,,200.00,,,,BCFG,,,,,,,3.20,ENGM 130050Z VRB01KT 4100 2000SW BCFG BKN002 M16/M18 Q1032,
ENGM,2025-01-13 01:20,3.20,1.40,91.99,,1.00,0.00,30.45,,4.35,,OVC,,,,200.00,,,,BCFG,,,,,,,3.20,ENGM 130120Z VRB01KT 7000 2000SW BCFG OVC002 M16/M17 Q1031,
ENGM,2025-01-13 01:50,3.20,1.40,91.99,,1.00,0.00,30.42,,4.97,,OVC,,,,200.00,,,,BR,,,,,,,3.20,ENGM 130150Z VRB01KT 8000 3000S BR OVC002 M16/M17 Q1030,
ENGM,2025-01-13 02:20,3.20,1.40,91.99,,1.00,0.00,30.42,,4.35,,OVC,,,,200.00,,,,,,,,,,,3.20,ENGM 130220Z VRB01KT 7000 OVC002 M16/M17 Q1030,
ENGM,2025-01-13 02:50,5.00,1.40,84.68,,2.00,0.00,30.42,,4.35,,FEW,OVC,,,200.00,300.00,,,,,,,,,,5.00,ENGM 130250Z VRB02KT 7000 FEW002 OVC003 M15/M17 Q1030,
ENGM,2025-01-13 03:20,3.20,1.40,91.99,,2.00,0.00,30.39,,4.97,,FEW,OVC,,,300.00,400.00,,,,,,,,,,3.20,ENGM 130320Z VRB02KT 8000 FEW003 OVC004 M16/M17 Q1029,
ENGM,2025-01-13 03:50,5.00,1.40,84.68,,1.00,0.00,30.39,,5.59,,BKN,,,,200.00,,,,,,,,,,,5.00,ENGM 130350Z VRB01KT 9000 BKN002 M15/M17 Q1029,
ENGM,2025-01-13 04:20,5.00,1.40,84.68,,1.00,0.00,30.36,,5.59,,BKN,,,,100.00,,,,,,,,,,,5.00,ENGM 130420Z VRB01KT 9000 BKN001 M15/M17 Q1028,
ENGM,2025-01-13 04:50,5.00,1.40,84.68,,2.00,0.00,30.36,,4.97,,SCT,BKN,,,200.00,600.00,,,,,,,,,,5.00,ENGM 130450Z VRB02KT 8000 SCT002 BKN006 M15/M17 Q1028 TEMPO BKN002,
ENGM,2025-01-13 05:20,5.00,1.40,84.68,,2.00,0.00,30.33,,4.35,,FEW,BKN,,,200.00,400.00,,,,,,,,,,5.00,ENGM 130520Z VRB02KT 7000 FEW002 BKN004 M15/M17 Q1027 TEMPO 4000 BR,
ENGM,2025-01-13 05:50,5.00,3.20,92.06,,2.00,0.00,30.30,,5.59,,FEW,SCT,,,200.00,400.00,,,BCFG,,,,,,,5.00,ENGM 130550Z VRB02KT 9000 4100NW BCFG FEW002 SCT004 M15/M16 Q1026 TEMPO 4000 BR BKN002,
ENGM,2025-01-13 06:20,5.00,3.20,92.06,,2.00,0.00,30.30,,5.59,,FEW,,,,200.00,,,,BCFG,,,,,,,5.00,ENGM 130620Z VRB02KT 9000 4400NW BCFG FEW002 M15/M16 Q1026 TEMPO 4000 BCFG BKN002,
ENGM,2025-01-13 06:50,6.80,3.20,84.80,330.00,3.00,0.00,30.30,,4.97,,FEW,,,,100.00,,,,BCFG,,,,,,,-0.12,ENGM 130650Z 33003KT 8000 BCFG FEW001 M14/M16 Q1026 TEMPO 4000 BCFG,
ENGM,2025-01-13 07:20,6.80,3.20,84.80,,3.00,0.00,30.27,,5.59,,FEW,SCT,,,200.00,700.00,,,BCFG,,,,,,,-0.12,ENGM 130720Z VRB03KT 9000 BCFG FEW002 SCT007 M14/M16 Q1025 TEMPO 4000 BCFG,
ENGM,2025-01-13 07:50,8.60,6.80,92.19,,2.00,0.00,30.24,,4.35,,FEW,SCT,,,300.00,700.00,,,BCFG,,,,,,,8.60,ENGM 130750Z VRB02KT 7000 BCFG FEW003 SCT007 M13/M14 Q1024 NOSIG,
ENGM,2025-01-13 08:20,10.40,8.60,92.25,50.00,3.00,0.00,30.24,,6.21,,BKN,,,,600.00,,,,,,,,,,,4.00,ENGM 130820Z 05003KT 350V140 9999 BKN006 M12/M13 Q1024 NOSIG,
ENGM,2025-01-13 08:50,10.40,8.60,92.25,,2.00,0.00,30.24,,6.21,,BKN,,,,700.00,,,,,,,,,,,10.40,ENGM 130850Z VRB02KT 9999 BKN007 M12/M13 Q1024 NOSIG,
ENGM,2025-01-13 09:20,17.60,15.80,92.50,200.00,6.00,0.00,30.21,,6.21,,BKN,,,,600.00,,,,,,,,,,,8.19,ENGM 130920Z 20006KT 9999 BKN006 M08/M09 Q1023 NOSIG,
ENGM,2025-01-13 09:50,19.40,17.60,92.57,210.00,4.00,0.00,30.18,,6.21,,FEW,BKN,,,300.00,700.00,,,,,,,,,,12.71,ENGM 130950Z 21004KT 190V250 9999 FEW003 BKN007 M07/M08 Q1022 TEMPO 4000 BR OVC004,
ENGM,2025-01-13 10:20,23.00,21.20,92.69,200.00,6.00,0.00,30.15,,4.97,,FEW,SCT,BKN,,200.00,400.00,900.00,,BCFG,,,,,,,14.69,ENGM 131020Z 20006KT 8000 1400E BCFG FEW002 SCT004 BKN009 M05/M06 Q1021 TEMPO 4000 BCFG BKN004,
ENGM,2025-01-13 10:50,23.00,23.00,100.00,220.00,6.00,0.00,30.15,,4.97,,FEW,BKN,,,400.00,600.00,,,,,,,,,,14.69,ENGM 131050Z 22006KT 8000 FEW004 BKN006 M05/M05 Q1021 NOSIG,
ENGM,2025-01-13 11:20,24.80,23.00,92.74,230.00,5.00,0.00,30.12,,6.21,,BKN,,,,700.00,,,,,,,,,,,17.84,ENGM 131120Z 23005KT 9999 BKN007 M04/M05 Q1020 NOSIG,
ENGM,2025-01-13 11:50,28.40,28.40,100.00,230.00,5.00,0.00,30.12,,6.21,,OVC,,,,600.00,,,,,,,,,,,22.12,ENGM 131150Z 23005KT 200V260 9999 OVC006 M02/M02 Q1020 NOSIG,
ENGM,2025-01-13 12:20,30.20,28.40,92.92,200.00,8.00,0.00,30.09,,6.21,,OVC,,,,400.00,,,,,,,,,,,21.90,ENGM 131220Z 20008KT 9999 OVC004 M01/M02 Q1019 TEMPO BKN008,
ENGM,2025-01-13 12:50,32.00,30.20,92.97,200.00,9.00,0.00,30.09,,6.21,,OVC,,,,500.00,,,,,,,,,,,23.51,ENGM 131250Z 20009KT 9999 OVC005 M00/M01 Q1019 NOSIG,
ENGM,2025-01-13 13:20,32.00,32.00,100.00,200.00,8.00,0.00,30.06,,6.21,,OVC,,,,500.00,,,,,,,,,,,24.11,ENGM 131320Z 20008KT 9999 OVC005 M00/M00 Q1018 NOSIG,
ENGM,2025-01-13 13:50,33.80,32.00,93.03,190.00,15.00,0.00,30.06,,6.21,,OVC,,,,500.00,,,,,,,,,,,23.11,ENGM 131350Z 19015KT 9999 OVC005 01/00 Q1018 NOSIG,
ENGM,2025-01-13 14:20,33.80,33.80,100.00,200.00,12.00,0.00,30.06,,6.21,,BKN,,,,600.00,,,,,,,,,,,24.29,ENGM 131420Z 20012KT 9999 BKN006 01/01 Q1018 NOSIG,
ENGM,2025-01-13 14:50,33.80,32.00,93.03,210.00,8.00,0.00,30.06,,6.21,,BKN,,,,600.00,,,,,,,,,,,26.33,ENGM 131450Z 21008KT 9999 BKN006 01/00 Q1018 NOSIG,
ENGM,2025-01-13 15:20,33.80,33.80,100.00,180.00,9.00,0.00,30.03,,6.21,,BKN,,,,700.00,,,,,,,,,,,25.75,ENGM 131520Z 18009KT 9999 BKN007 01/01 Q1017 NOSIG,
ENGM,2025-01-13 15:50,35.60,33.80,93.08,200.00,8.00,0.00,30.03,,6.21,,BKN,,,,600.00,,,,,,,,,,,28.55,ENGM 131550Z 20008KT 9999 BKN006 02/01 Q1017 NOSIG,
ENGM,2025-01-13 16:20,33.80,33.80,100.00,190.00,6.00,0.00,30.03,,6.21,,BKN,,,,600.00,,,,,,,,,,,27.70,ENGM 131620Z 19006KT 9999 BKN006 01/01 Q1017 NOSIG,
ENGM,2025-01-13 16:50,35.60,33.80,93.08,210.00,8.00,0.00,30.00,,6.21,,BKN,,,,600.00,,,,,,,,,,,28.55,ENGM 131650Z 21008KT 9999 BKN006 02/01 Q1016 NOSIG,
ENGM,2025-01-13 17:20,35.60,33.80,93.08,210.00,7.00,0.00,30.00,,6.21,,BKN,,,,600.00,,,,,,,,,,,29.17,ENGM 131720Z 21007KT 9999 BKN006 02/01 Q1016 NOSIG,
ENGM,2025-01-13 17:50,35.60,33.80,93.08,210.00,8.00,0.00,30.00,,6.21,,OVC,,,,700.00,,,,,,,,,,,28.55,ENGM 131750Z 21008KT 9999 OVC007 02/01 Q1016 NOSIG,
ENGM,2025-01-13 18:20,35.60,33.80,93.08,210.00,10.00,0.00,29.97,,6.21,,SCT,BKN,,,600.00,800.00,,,,,,,,,,27.48,ENGM 131820Z 21010KT 9999 SCT006 BKN008 02/01 Q1015 NOSIG,
ENGM,2025-01-13 18:50,35.60,33.80,93.08,200.00,10.00,0.00,30.00,,6.21,,BKN,,,,600.00,,,,,,,,,,,27.48,ENGM 131850Z 20010KT 9999 BKN006 02/01 Q1016 NOSIG,
ENGM,2025-01-13 19:20,35.60,33.80,93.08,200.00,11.00,0.00,29.97,,6.21,,BKN,,,,800.00,,,,,,,,,,,27.02,ENGM 131920Z 20011KT 9999 BKN008 02/01 Q1015 NOSIG,
ENGM,2025-01-13 19:50,35.60,33.80,93.08,210.00,8.00,0.00,29.97,,6.21,,SCT,,,,700.00,,,,,,,,,,,28.55,ENGM 131950Z 21008KT 9999 SCT007 02/01 Q1015 TEMPO BKN005,
ENGM,2025-01-13 20:20,35.60,33.80,93.08,200.00,9.00,0.00,29.94,,6.21,,SCT,,,,500.00,,,,,,,,,,,27.99,ENGM 132020Z 20009KT 9999 SCT005 02/01 Q1014 TEMPO BKN005,
ENGM,2025-01-13 20:50,35.60,33.80,93.08,190.00,11.00,0.00,29.94,,6.21,,FEW,,,,900.00,,,,,,,,,,,27.02,ENGM 132050Z 19011KT 9999 FEW009 02/01 Q1014 TEMPO BKN005,
ENGM,2025-01-13 21:20,37.40,33.80,86.69,200.00,9.00,0.00,29.94,,6.21,,FEW,,,,2000.00,,,,,,,,,,,30.23,ENGM 132120Z 20009KT 9999 FEW020 03/01 Q1014 TEMPO BKN005,
ENGM,2025-01-13 21:50,35.60,33.80,93.08,210.00,9.00,0.00,29.94,,6.21,,FEW,,,,2000.00,,,,,,,,,,,27.99,ENGM 132150Z 21009KT 170V230 9999 FEW020 02/01 Q1014 TEMPO BKN005,
ENGM,2025-01-13 22:20,37.40,35.60,93.14,170.00,5.00,0.00,29.94,,6.21,,SCT,,,,300.00,,,,,,,,,,,32.81,ENGM 132220Z 17005KT 9999 SCT003 03/02 Q1014,
ENGM,2025-01-13 22:50,35.60,33.80,93.08,190.00,9.00,0.00,29.94,,6.21,,FEW,,,,800.00,,,,,,,,,,,27.99,ENGM 132250Z 19009KT 9999 FEW008 02/01 Q1014,
ENGM,2025-01-13 23:20,35.60,33.80,93.08,200.00,9.00,0.00,29.91,,6.21,,FEW,BKN,,,400.00,900.00,,,,,,,,,,27.99,ENGM 132320Z 20009KT 9999 FEW004 BKN009 02/01 Q1013,
ENGM,2025-01-13 23:50,35.60,33.80,93.08,190.00,7.00,0.00,29.91,,6.21,,SCT,OVC,,,400.00,700.00,,,,,,,,,,29.17,ENGM 132350Z 19007KT 150V210 9999 SCT004 OVC007 02/01 Q1013,
ENGM,2025-01-14 00:20,35.60,33.80,93.08,170.00,6.00,0.00,29.91,,6.21,,SCT,OVC,,,600.00,800.00,,,,,,,,,,29.87,ENGM 140020Z 17006KT 9999 SCT006 OVC008 02/01 Q1013,
ENGM,2025-01-14 00:50,37.40,35.60,93.14,210.00,13.00,0.00,29.91,,6.21,,FEW,BKN,,,300.00,600.00,,,,,,,,,,28.49,ENGM 140050Z 21013KT 9999 FEW003 BKN006 03/02 Q1013,
ENGM,2025-01-14 01:20,37.40,35.60,93.14,210.00,10.00,0.00,29.88,,6.21,,BKN,,,,500.00,,,,,,,,,,,29.74,ENGM 140120Z 21010KT 9999 BKN005 03/02 Q1012,
ENGM,2025-01-14 01:50,35.60,33.80,93.08,200.00,11.00,0.00,29.88,,6.21,,BKN,,,,500.00,,,,,,,,,,,27.02,ENGM 140150Z 20011KT 9999 BKN005 02/01 Q1012,
ENGM,2025-01-14 02:20,37.40,35.60,93.14,210.00,9.00,0.00,29.88,,6.21,,BKN,,,,500.00,,,,,,,,,,,30.23,ENGM 140220Z 21009KT 9999 BKN005 03/02 Q1012,
ENGM,2025-01-14 02:50,37.40,35.60,93.14,200.00,6.00,0.00,29.88,,6.21,,BKN,,,,500.00,,,,,,,,,,,32.03,ENGM 140250Z 20006KT 9999 BKN005 03/02 Q1012,
ENGM,2025-01-14 03:20,35.60,33.80,93.08,180.00,4.00,0.00,29.88,,6.21,,FEW,,,,500.00,,,,,,,,,,,31.62,ENGM 140320Z 18004KT 9999 FEW005 02/01 Q1012,
ENGM,2025-01-14 03:50,35.60,33.80,93.08,220.00,3.00,0.00,29.88,,6.21,,,,,,,,,,,,,,,,,32.80,ENGM 140350Z 22003KT 150V260 CAVOK 02/01 Q1012,
ENGM,2025-01-14 04:20,35.60,33.80,93.08,230.00,4.00,0.00,29.85,,6.21,,,,,,,,,,,,,,,,,31.62,ENGM 140420Z 23004KT CAVOK 02/01 Q1011,
ENGM,2025-01-14 04:50,35.60,33.80,93.08,210.00,7.00,0.00,29.85,,6.21,,,,,,,,,,,,,,,,,29.17,ENGM 140450Z 21007KT CAVOK 02/01 Q1011 NOSIG,
ENGM,2025-01-14 05:20,35.60,33.80,93.08,210.00,5.00,0.00,29.85,,6.21,,FEW,,,,200.00,,,,,,,,,,,30.67,ENGM 140520Z 21005KT 160V270 9999 FEW002 02/01 Q1011 NOSIG,
ENGM,2025-01-14 05:50,35.60,33.80,93.08,90.00,5.00,0.00,29.83,,6.21,,FEW,,,,300.00,,,,,,,,,,,30.67,ENGM 140550Z 09005KT 050V150 9999 FEW003 02/01 Q1010 NOSIG,
ENGM,2025-01-14 06:20,33.80,32.00,93.03,120.00,6.00,0.00,29.83,,6.21,,FEW,,,,200.00,,,,,,,,,,,27.70,ENGM 140620Z 12006KT 080V140 9999 FEW002 01/00 Q1010 TEMPO 4000 BCFG,
ENGM,2025-01-14 06:50,33.80,32.00,93.03,160.00,8.00,0.00,29.83,,6.21,,NSC,,,,,,,,BCFG,,,,,,,26.33,ENGM 140650Z 16008KT 9999 BCFG NSC 01/00 Q1010 TEMPO 4000 BCFG,
ENGM,2025-01-14 07:20,33.80,32.00,93.03,,1.00,0.00,29.83,,6.21,,SCT,,,,200.00,,,,BCFG,,,,,,,33.80,ENGM 140720Z VRB01KT 9999 1500W BCFG SCT002 01/M00 Q1010 TEMPO 2500 BCFG BKN002,
ENGM,2025-01-14 07:50,33.80,32.00,93.03,190.00,8.00,0.00,29.85,,0.25,,VV ,,,,200.00,,,,FG,,,,,,,26.33,ENGM 140750Z 19008KT 0400 R19R/0650D R01R/0450D R19L/0450D R01L/0700D FG VV002 01/00 Q1011 TEMPO 2000 BCFG,
ENGM,2025-01-14 08:20,33.80,32.00,93.03,200.00,5.00,0.00,29.85,,0.12,,VV ,,,,100.00,,,,FG,,,,,,,28.53,ENGM 140820Z 20005KT 0200 R19R/0250N R01R/0225N R19L/0225N R01L/0250N FG VV001 01/00 Q1011 TEMPO 0800 FG,
ENGM,2025-01-14 08:50,32.00,32.00,100.00,,1.00,0.00,29.85,,0.12,,VV ,,,,100.00,,,,FZFG,,,,,,,32.00,ENGM 140850Z VRB01KT 0200 R19R/0225N R01R/0250N R19L/0250N R01L/0225N FZFG VV001 M00/M00 Q1011 TEMPO 0800 FZFG,
ENGM,2025-01-14 09:20,32.00,32.00,100.00,290.00,4.00,0.00,29.85,,0.12,,VV ,,,,100.00,,,,FG,,,,,,,27.42,ENGM 140920Z 29004KT 180V350 0200 R19R/0225N R01R/0225N R19L/0250N R01L/0275N FG VV001 00/00 Q1011 TEMPO 0800 FZFG,
ENGM,2025-01-14 09:50,32.00,32.00,100.00,,1.00,0.00,29.85,,0.12,,VV ,,,,100.00,,,,FZFG,,,,,,,32.00,ENGM 140950Z VRB01KT 0200 R19R/0275N R01R/0275N R19L/0275N R01L/0325N FZFG VV001 M00/M00 Q1011 TEMPO 0800 FZFG,
ENGM,2025-01-14 10:20,32.00,30.20,92.97,,1.00,0.00,29.85,,0.16,,VV ,,,,200.00,,,,FZFG,,,,,,,32.00,ENGM 141020Z VRB01KT 0250 R19R/0275N R01R/0350N R19L/0275N R01L/0300N FZFG VV002 M00/M01 Q1011 TEMPO 0600 FZFG VV001,
ENGM,2025-01-14 10:50,30.20,30.20,100.00,,2.00,0.00,29.85,,0.19,,VV ,,,,100.00,,,,FZFG,,,,,,,30.20,ENGM 141050Z VRB02KT 0300 0250SE R19R/0500N R01R/0300N R19L/0450N R01L/0350N FZFG VV001 M01/M01 Q1011 TEMPO 2000 BCFG BKN002,
ENGM,2025-01-14 11:20,30.20,30.20,100.00,,2.00,0.00,29.85,,0.25,,FEW,BKN,,,100.00,300.00,,,FZFG,,,,,,,30.20,ENGM 141120Z VRB02KT 0400 0200SE R19R/P2000N R01R/0275N R19L/0500N R01L/0400N FZFG FEW001 BKN003 M01/M01 Q1011 BECMG CAVOK,
ENGM,2025-01-14 11:50,30.20,30.20,100.00,,1.00,0.00,29.85,,6.21,,FEW,,,,100.00,,,,VCFG,,,,,,,30.20,ENGM 141150Z VRB01KT 9999 2500NE VCFG FEW001 M01/M01 Q1011 NOSIG,
ENGM,2025-01-14 12:20,32.00,30.20,92.97,80.00,3.00,0.00,29.85,,6.21,,FEW,,,,200.00,,,,VCFG,,,,,,,28.69,ENGM 141220Z 08003KT 040V150 9999 VCFG FEW002 M00/M01 Q1011 NOSIG,
ENGM,2025-01-14 12:50,32.00,30.20,92.97,,1.00,0.00,29.85,,6.21,,NSC,,,,,,,,VCFG,,,,,,,32.00,ENGM 141250Z VRB01KT 9999 VCFG NSC M00/M01 Q1011 NOSIG,
ENGM,2025-01-14 13:20,32.00,30.20,92.97,50.00,5.00,0.00,29.85,,6.21,,FEW,,,,200.00,,,,BCFG,,,,,,,26.40,ENGM 141320Z 05005KT 9999 1000NE BCFG FEW002 M00/M01 Q1011 NOSIG NOSIG,
ENGM,2025-01-14 13:50,30.20,30.20,100.00,,2.00,0.00,29.88,,6.21,,NSC,,,,,,,,VCFG,,,,,,,30.20,ENGM 141350Z VRB02KT 9999 VCFG NSC M01/M01 Q1012 NOSIG,
ENGM,2025-01-14 14:20,32.00,30.20,92.97,,2.00,0.00,29.88,,6.21,,NSC,,,,,,,,VCFG,,,,,,,32.00,ENGM 141420Z VRB02KT 9999 VCFG NSC 00/M01 Q1012 NOSIG,
ENGM,2025-01-14 14:50,30.20,30.20,100.00,,2.00,0.00,29.91,,6.21,,FEW,,,,200.00,,,,BCFG,,,,,,,30.20,ENGM 141450Z VRB02KT 9999 0400NW R19R/0450D R01R/0700U R19L/P2000N R01L/P2000N BCFG FEW002 M01/M01 Q1013 TEMPO 2000 BCFG BKN002,
ENGM,2025-01-14 15:20,28.40,26.60,92.86,30.00,4.00,0.00,29.91,,6.21,,FEW,,,,300.00,,,,PRFG,,,,,,,23.22,ENGM 141520Z 03004KT 9999 0500NE R19R/P2000N R01R/0550D R19L/1300D R01L/P2000N PRFG FEW003 M02/M03 Q1013 TEMPO 2000 BCFG BKN002,
ENGM,2025-01-14 15:50,28.40,26.60,92.86,30.00,5.00,0.00,29.91,,5.59,,FEW,,,,200.00,,,,BCFG,,,,,,,22.12,ENGM 141550Z 03005KT 9000 0700N R19R/1000D R01R/1500U R19L/1600U R01L/P2000N BCFG FEW002 M02/M03 Q1013 TEMPO 2000 BCFG BKN002,
ENGM,2025-01-14 16:20,28.40,26.60,92.86,30.00,6.00,0.00,29.94,,6.21,,FEW,,,,200.00,,,,VCFG,,,,,,,21.19,ENGM 141620Z 03006KT 9999 VCFG FEW002 M02/M03 Q1014 NOSIG,
ENGM,2025-01-14 16:50,26.60,24.80,92.80,20.00,4.00,0.00,29.97,,6.21,,FEW,,,,100.00,,,,VCFG,,,,,,,21.11,ENGM 141650Z 02004KT 9999 VCFG FEW001 M03/M04 Q1015 NOSIG,
ENGM,2025-01-14 17:20,28.40,28.40,100.00,330.00,3.00,0.00,29.97,,6.21,,FEW,,,,100.00,,,,VCFG,,,,,,,24.57,ENGM 141720Z 33003KT 290V010 9999 VCFG FEW001 M02/M02 Q1015 NOSIG,
ENGM,2025-01-14 17:50,26.60,24.80,92.80,30.00,3.00,0.00,30.00,,6.21,,FEW,,,,100.00,,,,BCFG,,,,,,,22.52,ENGM 141750Z 03003KT 320V110 9999 3000NE BCFG FEW001 M03/M04 Q1016 TEMPO 2000 BCFG BKN002,
ENGM,2025-01-14 18:20,28.40,26.60,92.86,40.00,4.00,0.00,30.00,,5.59,,FEW,,,,100.00,,,,BCFG,,,,,,,23.22,ENGM 141820Z 04004KT 9000 3700NE BCFG FEW001 M02/M03 Q1016 TEMPO 2000 BCFG BKN002,
ENGM,2025-01-14 18:50,28.40,26.60,92.86,30.00,5.00,0.00,30.03,,6.21,,FEW,,,,100.00,,,,PRFG,,,,,,,22.12,ENGM 141850Z 03005KT 9999 1000E PRFG FEW001 M02/M03 Q1017 TEMPO 2000 BCFG BKN002,
ENGM,2025-01-14 19:20,26.60,24.80,92.80,160.00,4.00,0.00,30.06,,6.21,,FEW,,,,100.00,,,,PRFG,,,,,,,21.11,ENGM 141920Z 16004KT 120V220 9999 1000NE R19R/P2000N R01R/P2000N R19L/1200D R01L/P2000N PRFG FEW001 M03/M04 Q1018 TEMPO 2000 BCFG BKN002,
ENGM,2025-01-14 19:50,26.60,24.80,92.80,,2.00,0.00,30.06,,1.86,,FEW,,,,300.00,,,,BCFG,,,,,,,26.60,ENGM 141950Z VRB02KT 3000 0500E R19R/P2000N R01R/1800D R19L/0600N R01L/P2000N BCFG FEW003 M03/M04 Q1018 TEMPO 2000 BKN002,
ENGM,2025-01-14 20:20,26.60,26.60,100.00,0.00,0.00,0.00,30.09,,0.31,,VV ,,,,100.00,,,,FZFG,,,,,,,26.60,ENGM 142020Z 00000KT 0500 R19R/0700N R01R/1500D R19L/0600D R01L/P2000N FZFG VV001 M03/M03 Q1019 TEMPO 0800,
ENGM,2025-01-14 20:50,26.60,24.80,92.80,,2.00,0.00,30.09,,4.97,,SCT,,,,200.00,,,,PRFG,,,,,,,26.60,ENGM 142050Z VRB02KT 8000 0800E R19R/1000U R01R/1600U R19L/0700U R01L/1900U PRFG SCT002 M03/M04 Q1019 TEMPO 2000 BCFG BKN002,
ENGM,2025-01-14 21:20,24.80,24.80,100.00,50.00,5.00,0.00,30.12,,0.56,,VV ,,,,100.00,,,,FZFG,,,,,,,17.84,ENGM 142120Z 05005KT 0900 R19R/1900U R01R/1700D R19L/0650D R01L/P2000N FZFG VV001 M04/M04 Q1020 TEMPO 0500,
ENGM,2025-01-14 21:50,23.00,23.00,100.00,,2.00,0.00,30.15,,0.62,,SCT,,,,200.00,,,,BR,,,,,,,23.00,COR ENGM 142150Z VRB02KT 1000 R19R/1700D R01R/1000U R19L/P2000N R01L/1200D BR SCT002 M05/M05 Q1021 TEMPO 0700 FZFG VV001,
ENGM,2025-01-14 22:20,23.00,21.20,92.69,,2.00,0.00,30.15,,5.59,,FEW,,,,100.00,,,,,,,,,,,23.00,ENGM 142220Z VRB02KT 9000 FEW001 M05/M06 Q1021,
ENGM,2025-01-14 22:50,24.80,23.00,92.74,90.00,4.00,0.00,30.18,,1.86,,SCT,,,,100.00,,,,BR,,,,,,,19.01,ENGM 142250Z 09004KT 040V130 3000 R19R/1700D R01R/P2000N R19L/0600D R01L/P2000N BR SCT001 M04/M05 Q1022,
ENGM,2025-01-14 23:20,23.00,23.00,100.00,290.00,4.00,0.00,30.18,,0.56,,SCT,,,,100.00,,,,FZFG,,,,,,,16.91,ENGM 142320Z 29004KT 240V010 0900 0350NE R19R/P2000N R01R/1300N R19L/0600N R01L/P2000N FZFG SCT001 M05/M05 Q1022,
ENGM,2025-01-14 23:50,21.20,19.40,92.63,70.00,3.00,0.00,30.18,,0.34,,SCT,,,,200.00,,,,FZFG,,,,,,,16.34,ENGM 142350Z 07003KT 360V110 0550 R19R/1400U R01R/0500D R19L/0550N R01L/P2000N FZFG SCT002 M06/M07 Q1022,
ENGM,2025-01-15 00:20,19.40,17.60,92.57,20.00,4.00,0.00,30.18,,6.21,,FEW,,,,100.00,,,,VCFG,,,,,,,12.71,ENGM 150020Z 02004KT 9999 R19R/P2000N R01R/P2000N R19L/P2000N R01L/1300U VCFG FEW001 M07/M08 Q1022,
ENGM,2025-01-15 00:50,24.80,23.00,92.74,20.00,4.00,0.00,30.18,,6.21,,,,,,,,,,,,,,,,,19.01,ENGM 150050Z 02004KT CAVOK M04/M05 Q1022,
ENGM,2025-01-15 01:20,21.20,19.40,92.63,30.00,5.00,0.00,30.21,,6.21,,,,,,,,,,,,,,,,,13.57,ENGM 150120Z 03005KT 360V060 CAVOK M06/M07 Q1023,
ENGM,2025-01-15 01:50,23.00,21.20,92.69,0.00,0.00,0.00,30.21,,5.59,,FEW,,,,100.00,,,,BCFG,,,,,,,23.00,ENGM 150150Z 00000KT 9000 2900E BCFG FEW001 M05/M06 Q1023,
ENGM,2025-01-15 02:20,21.20,19.40,92.63,190.00,3.00,0.00,30.21,,5.59,,FEW,,,,200.00,,,,BCFG,,,,,,,16.34,ENGM 150220Z 19003KT 9000 0650NW R19R/1200D R01R/P2000N R19L/P2000N R01L/P2000N BCFG FEW002 M06/M07 Q1023,
ENGM,2025-01-15 02:50,21.20,19.40,92.63,0.00,0.00,0.00,30.21,,4.35,,FEW,,,,400.00,,,,BCFG,,,,,,,21.20,ENGM 150250Z 00000KT 7000 1100NE BCFG FEW004 M06/M07 Q1023,
ENGM,2025-01-15 03:20,17.60,15.80,92.50,10.00,3.00,0.00,30.21,,6.21,,FEW,,,,300.00,,,,BCFG,,,,,,,12.23,ENGM 150320Z 01003KT 9999 1700W R19R/2000U R01R/P2000N R19L/1300U R01L/2000U BCFG FEW003 M08/M09 Q1023,
ENGM,2025-01-15 03:50,17.60,15.80,92.50,20.00,3.00,0.00,30.24,,6.21,,FEW,,,,200.00,,,,VCFG,,,,,,,12.23,ENGM 150350Z 02003KT 9999 VCFG FEW002 M08/M09 Q1024,
ENGM,2025-01-15 04:20,19.40,17.60,92.57,,2.00,0.00,30.24,,6.21,,NSC,,,,,,,,VCFG,,,,,,,19.40,ENGM 150420Z VRB02KT 9999 VCFG NSC M07/M08 Q1024,
ENGM,2025-01-15 04:50,17.60,15.80,92.50,,1.00,0.00,30.24,,6.21,,FEW,,,,200.00,,,,BCFG,,,,,,,17.60,ENGM 150450Z VRB01KT 9999 BCFG FEW002 M08/M09 Q1024 NOSIG,
ENGM,2025-01-15 05:20,19.40,17.60,92.57,0.00,0.00,0.00,30.24,,5.59,,BKN,,,,100.00,,,,BCFG,,,,,,,19.40,COR ENGM 150520Z 00000KT 9000 BCFG BKN001 M07/M08 Q1024 TEMPO SCT001,
ENGM,2025-01-15 05:50,17.60,15.80,92.50,,1.00,0.00,30.21,,6.21,,BKN,,,,100.00,,,,BCFG,,,,,,,17.60,ENGM 150550Z VRB01KT 9999 0700NW R19R/0800D R01R/P2000N R19L/P2000N R01L/P2000N BCFG BKN001 M08/M09 Q1023 TEMPO 2000 BCFG,
ENGM,2025-01-15 06:20,21.20,19.40,92.63,,1.00,0.00,30.21,,2.73,,VV ,,,,200.00,,,,PRFG,,,,,,,21.20,ENGM 150620Z VRB01KT 4400 0450SE R19R/2000D R01R/0500N R19L/P2000N R01L/P2000N PRFG VV002 M06/M07 Q1023 TEMPO 0800 FZFG,
ENGM,2025-01-15 06:50,21.20,19.40,92.63,,2.00,0.00,30.24,,0.37,,VV ,,,,200.00,,,,FZFG,,,,,,,21.20,ENGM 150650Z VRB02KT 0600 R19R/0650U R01R/1200U R19L/1600U R01L/0450N FZFG VV002 M06/M07 Q1024 TEMPO 2000 BR,
ENGM,2025-01-15 07:20,19.40,19.40,100.00,,2.00,0.00,30.24,,0.37,,VV ,,,,100.00,,,,FZFG,,,,,,,19.40,ENGM 150720Z VRB02KT 0600 R19R/1100D R01R/0450N R19L/0900U R01L/0600U FZFG VV001 M07/M07 Q1024 TEMPO 1200 BCFG BKN002,
ENGM,2025-01-15 07:50,19.40,19.40,100.00,0.00,0.00,0.00,30.24,,0.68,,VV ,,,,200.00,,,,BCFG,,,,,,,19.40,ENGM 150750Z 00000KT 1100 0300SW R19R/1800U R01R/1600U R19L/1000U R01L/0350N BCFG VV002 M07/M07 Q1024 TEMPO 2000 SCT002,
ENGM,2025-01-15 08:20,21.20,19.40,92.63,,2.00,0.00,30.24,,2.49,,SCT,BKN,,,100.00,400.00,,,FZFG,,,,,,,21.20,ENGM 150820Z VRB02KT 4000 0350SW R19R/P2000N R01R/P2000N R19L/P2000N R01L/0500U FZFG SCT001 BKN004 M06/M07 Q1024 TEMPO -FZRA SCT002,
ENGM,2025-01-15 08:50,21.20,19.40,92.63,160.00,3.00,0.00,30.24,,1.49,,FEW,BKN,,,200.00,400.00,,,FZFG,,,,,,,16.34,ENGM 150850Z 16003KT 2400 0400SW R19R/P2000N R01R/P2000N R19L/P2000N R01L/0450N FZFG FEW002 BKN004 M06/M07 Q1024 TEMPO 4000 -FZRA SCT002,
ENGM,2025-01-15 09:20,21.20,21.20,100.00,,1.00,0.00,30.24,,3.73,,SCT,,,,100.00,,,,PRFG,,,,,,,21.20,ENGM 150920Z VRB01KT 6000 0900SW R19R/P2000N R01R/P2000N R19L/P2000N R01L/1200U PRFG SCT001 M06/M06 Q1024 TEMPO -FZRA,
ENGM,2025-01-15 09:50,21.20,19.40,92.63,,2.00,0.00,30.21,,4.35,,SCT,,,,100.00,,,,BCFG,,,,,,,21.20,ENGM 150950Z VRB02KT 7000 BCFG SCT001 M06/M07 Q1023 TEMPO -FZRA,
ENGM,2025-01-15 10:20,23.00,23.00,100.00,,2.00,0.00,30.21,,5.59,,SCT,,,,100.00,,,,BCFG,,,,,,,23.00,ENGM 151020Z VRB02KT 9000 BCFG SCT001 M05/M05 Q1023 TEMPO -FZRA,
ENGM,2025-01-15 10:50,24.80,23.00,92.74,210.00,3.00,0.00,30.21,,3.73,,SCT,,,,100.00,,,,BCFG,,,,,,,20.46,ENGM 151050Z 21003KT 170V260 6000 BCFG SCT001 M04/M05 Q1023 TEMPO 4000 -FZRA,
ENGM,2025-01-15 11:20,24.80,24.80,100.00,,2.00,0.00,30.18,,4.35,,SCT,,,,100.00,,,,-FZRA,,,,,,,24.80,ENGM 151120Z VRB02KT 7000 -FZRA SCT001 M04/M04 Q1022 NOSIG,
ENGM,2025-01-15 11:50,30.20,28.40,92.92,230.00,3.00,0.00,30.18,,4.97,,SCT,,,,100.00,,,,-FZRA,,,,,,,26.63,ENGM 151150Z 23003KT 150V280 8000 -FZRA SCT001 M01/M02 Q1022 BECMG NSW,
ENGM,2025-01-15 12:20,28.40,28.40,100.00,,2.00,0.00,30.18,,5.59,,FEW,,,,100.00,,,,-FZRA,,,,,,,28.40,ENGM 151220Z VRB02KT 9000 -FZRA FEW001 M02/M02 Q1022 BECMG NSW,
ENGM,2025-01-15 12:50,32.00,32.00,100.00,180.00,7.00,0.00,30.15,,6.21,,FEW,,,,100.00,,,,-FZRA,,,,,,,24.78,ENGM 151250Z 18007KT 9999 -FZRA FEW001 M00/M00 Q1021 BECMG NSW,
ENGM,2025-01-15 13:20,33.80,32.00,93.03,,5.00,0.00,30.15,,6.21,,FEW,,,,100.00,,,,-RA,,,,,,,28.53,ENGM 151320Z VRB05KT 9999 -RA FEW001 01/M00 Q1021 NOSIG,
ENGM,2025-01-15 13:50,33.80,32.00,93.03,160.00,7.00,0.00,30.15,,6.21,,,,,,,,,,,,,,,,,26.97,ENGM 151350Z 16007KT 120V180 CAVOK 01/00 Q1021 NOSIG,
ENGM,2025-01-15 14:20,33.80,32.00,93.03,190.00,9.00,0.00,30.15,,6.21,,,,,,,,,,,,,,,,,25.75,ENGM 151420Z 19009KT CAVOK 01/00 Q1021 NOSIG,
ENGM,2025-01-15 14:50,35.60,32.00,86.59,180.00,8.00,0.00,30.15,,6.21,,,,,,,,,,,,,,,,,28.55,ENGM 151450Z 18008KT CAVOK 02/00 Q1021 NOSIG,
ENGM,2025-01-15 15:20,35.60,33.80,93.08,180.00,9.00,0.00,30.15,,6.21,,FEW,,,,100.00,,,,,,,,,,,27.99,ENGM 151520Z 18009KT 9999 FEW001 02/01 Q1021 NOSIG,
ENGM,2025-01-15 15:50,35.60,33.80,93.08,180.00,9.00,0.00,30.15,,6.21,,FEW,,,,100.00,,,,,,,,,,,27.99,ENGM 151550Z 18009KT 9999 FEW001 02/01 Q1021 NOSIG,
ENGM,2025-01-15 16:20,35.60,33.80,93.08,170.00,9.00,0.00,30.15,,6.21,,,,,,,,,,,,,,,,,27.99,ENGM 151620Z 17009KT CAVOK 02/01 Q1021 NOSIG,
ENGM,2025-01-15 16:50,35.60,33.80,93.08,170.00,8.00,0.00,30.15,,6.21,,,,,,,,,,,,,,,,,28.55,ENGM 151650Z 17008KT CAVOK 02/01 Q1021 NOSIG,
ENGM,2025-01-15 17:20,35.60,33.80,93.08,180.00,8.00,0.00,30.15,,6.21,,,,,,,,,,,,,,,,,28.55,ENGM 151720Z 18008KT CAVOK 02/01 Q1021 NOSIG,
ENGM,2025-01-15 17:50,35.60,33.80,93.08,230.00,3.00,0.00,30.15,,6.21,,,,,,,,,,,,,,,,,32.80,ENGM 151750Z 23003KT 200V280 CAVOK 02/01 Q1021 NOSIG,
ENGM,2025-01-15 18:20,35.60,33.80,93.08,230.00,4.00,0.00,30.12,,6.21,,,,,,,,,,,,,,,,,31.62,ENGM 151820Z 23004KT CAVOK 02/01 Q1020 NOSIG,
ENGM,2025-01-15 18:50,33.80,32.00,93.03,220.00,5.00,0.00,30.12,,6.21,,,,,,,,,,,,,,,,,28.53,ENGM 151850Z 22005KT CAVOK 01/00 Q1020 NOSIG,
ENGM,2025-01-15 19:20,35.60,33.80,93.08,180.00,3.00,0.00,30.12,,6.21,,,,,,,,,,,,,,,,,32.80,ENGM 151920Z 18003KT CAVOK 02/01 Q1020 NOSIG,
ENGM,2025-01-15 19:50,35.60,33.80,93.08,180.00,3.00,0.00,30.12,,6.21,,,,,,,,,,,,,,,,,32.80,ENGM 151950Z 18003KT CAVOK 02/01 Q1020 NOSIG,
ENGM,2025-01-15 20:20,35.60,33.80,93.08,,2.00,0.00,30.12,,6.21,,,,,,,,,,,,,,,,,35.60,ENGM 152020Z VRB02KT CAVOK 02/01 Q1020 NOSIG,
ENGM,2025-01-15 20:50,35.60,33.80,93.08,210.00,3.00,0.00,30.12,,6.21,,,,,,,,,,,,,,,,,32.80,ENGM 152050Z 21003KT 150V230 CAVOK 02/01 Q1020 NOSIG,
ENGM,2025-01-15 21:20,37.40,35.60,93.14,160.00,6.00,0.00,30.12,,6.21,,,,,,,,,,,,,,,,,32.03,ENGM 152120Z 16006KT CAVOK 03/02 Q1020 NOSIG,
ENGM,2025-01-15 21:50,35.60,33.80,93.08,190.00,6.00,0.00,30.12,,6.21,,,,,,,,,,,,,,,,,29.87,ENGM 152150Z 19006KT CAVOK 02/01 Q1020 NOSIG,
ENGM,2025-01-15 22:20,35.60,33.80,93.08,160.00,6.00,0.00,30.12,,6.21,,,,,,,,,,,,,,,,,29.87,ENGM 152220Z 16006KT CAVOK 02/01 Q1020,
ENGM,2025-01-15 22:50,35.60,33.80,93.08,140.00,7.00,0.00,30.12,,6.21,,FEW,,,,200.00,,,,,,,,,,,29.17,ENGM 152250Z 14007KT 9999 FEW002 02/01 Q1020,
ENGM,2025-01-15 23:20,35.60,33.80,93.08,120.00,4.00,0.00,30.09,,6.21,,FEW,,,,200.00,,,,,,,,,,,31.62,ENGM 152320Z 12004KT 090V180 9999 FEW002 02/01 Q1019,
ENGM,2025-01-15 23:50,35.60,33.80,93.08,140.00,4.00,0.00,30.09,,5.59,,FEW,,,,200.00,,,,,,,,,,,31.62,ENGM 152350Z 14004KT 9000 FEW002 02/01 Q1019,
ENGM,2025-01-16 00:20,33.80,33.80,100.00,160.00,6.00,0.00,30.09,,4.35,,SCT,,,,100.00,,,,BCFG,,,,,,,27.70,ENGM 160020Z 16006KT 7000 2600SE BCFG SCT001 01/01 Q1019,
ENGM,2025-01-16 00:50,35.60,33.80,93.08,160.00,7.00,0.00,30.09,,4.35,,FEW,,,,200.00,,,,BCFG,,,,,,,29.17,ENGM 160050Z 16007KT 7000 BCFG FEW002 02/01 Q1019,
ENGM,2025-01-16 01:20,33.80,32.00,93.03,200.00,3.00,0.00,30.12,,4.97,,FEW,,,,200.00,,,,VCFG,,,,,,,30.75,ENGM 160120Z 20003KT 180V240 8000 VCFG FEW002 01/00 Q1020,
ENGM,2025-01-16 01:50,35.60,33.80,93.08,200.00,7.00,0.00,30.09,,6.21,,FEW,,,,200.00,,,,VCFG,,,,,,,29.17,ENGM 160150Z 20007KT 9999 VCFG FEW002 02/01 Q1019,
ENGM,2025-01-16 02:20,37.40,35.60,93.14,210.00,9.00,0.00,30.06,,6.21,,NSC,,,,,,,,VCFG,,,,,,,30.23,ENGM 160220Z 21009KT 9999 VCFG NSC 03/02 Q1018,
ENGM,2025-01-16 02:50,35.60,32.00,86.59,80.00,6.00,0.00,30.09,,6.21,,NSC,,,,,,,,VCFG,,,,,,,29.87,ENGM 160250Z 08006KT 060V120 9999 VCFG NSC 02/00 Q1019,
ENGM,2025-01-16 03:20,35.60,33.80,93.08,20.00,4.00,0.00,30.12,,6.21,,NSC,,,,,,,,VCFG,,,,,,,31.62,ENGM 160320Z 02004KT 9999 VCFG NSC 02/01 Q1020,
ENGM,2025-01-16 03:50,35.60,33.80,93.08,230.00,5.00,0.00,30.12,,6.21,,NSC,,,,,,,,VCFG,,,,,,,30.67,ENGM 160350Z 23005KT 210V270 9999 VCFG NSC 02/01 Q1020,
ENGM,2025-01-16 04:20,33.80,32.00,93.03,,2.00,0.00,30.12,,6.21,,NSC,,,,,,,,VCFG,,,,,,,33.80,ENGM 160420Z VRB02KT 9999 VCFG NSC 01/00 Q1020,
ENGM,2025-01-16 04:50,32.00,32.00,100.00,0.00,0.00,0.00,30.12,,3.73,,NSC,,,,,,,,BCFG,,,,,,,32.00,ENGM 160450Z 00000KT 6000 1600W BCFG NSC 00/M00 Q1020 TEMPO 2000,
ENGM,2025-01-16 05:20,33.80,32.00,93.03,,2.00,0.00,30.12,,4.97,,NSC,,,,,,,,BCFG,,,,,,,33.80,ENGM 160520Z VRB02KT 8000 0700NW R19R/1300D R01R/P2000N R19L/P2000N R01L/P2000N BCFG NSC 01/M00 Q1020 TEMPO 1000,
ENGM,2025-01-16 05:50,32.00,30.20,92.97,40.00,4.00,0.00,30.12,,4.97,,FEW,,,,300.00,,,,VCFG,,,,,,,27.42,ENGM 160550Z 04004KT 350V060 8000 VCFG FEW003 M00/M01 Q1020 TEMPO 2000 BCFG,
ENGM,2025-01-16 06:20,32.00,30.20,92.97,,1.00,0.00,30.12,,4.35,,FEW,,,,300.00,,,,VCFG,,,,,,,32.00,ENGM 160620Z VRB01KT 7000 VCFG FEW003 M00/M01 Q1020 TEMPO 2000 BCFG BKN002,
ENGM,2025-01-16 06:50,30.20,28.40,92.92,,2.00,0.00,30.12,,1.24,,BKN,,,,100.00,,,,PRFG,,,,,,,30.20,ENGM 160650Z VRB02KT 2000 0900NW R19R/1300U R01R/P2000N R19L/P2000N R01L/2000D PRFG BKN001 M01/M02 Q1020,
ENGM,2025-01-16 07:20,30.20,30.20,100.00,250.00,3.00,0.00,30.12,,0.47,,VV ,,,,100.00,,,,FZFG,,,,,,,26.63,ENGM 160720Z 25003KT 210V310 0750 R19R/1800D R01R/0800D R19L/P2000N R01L/1100D FZFG VV001 M01/M01 Q1020,
ENGM,2025-01-16 07:50,30.20,28.40,92.92,0.00,0.00,0.00,30.12,,0.47,,SCT,BKN,,,100.00,400.00,,,FZFG,,,,,,,30.20,ENGM 160750Z 00000KT 0750 R19R/0450N R01R/1800U R19L/0750U R01L/0500D FZFG SCT001 BKN004 M01/M02 Q1020 TEMPO 0500 VV001,
ENGM,2025-01-16 08:20,32.00,32.00,100.00,210.00,4.00,0.00,30.15,,0.25,,VV ,,,,200.00,,,,FZFG,,,,,,,27.42,ENGM 160820Z 21004KT 190V260 0400 R19R/0650D R01R/0450D R19L/0650D R01L/0375N FZFG VV002 00/00 Q1021 TEMPO 0300 VV001,
ENGM,2025-01-16 08:50,32.00,32.00,100.00,,2.00,0.00,30.12,,0.25,,VV ,,,,100.00,,,,FG,,,,,,,32.00,ENGM 160850Z VRB02KT 0400 R19R/0225N R01R/0500N R19L/1900D R01L/0325N FG VV001 00/M00 Q1020 TEMPO 0300 FZFG VV001,
ENGM,2025-01-16 09:20,32.00,32.00,100.00,,1.00,0.00,30.12,,0.25,,VV ,,,,200.00,,,,FG,,,,,,,32.00,ENGM 160920Z VRB01KT 0400 R19R/0350N R01R/0600N R19L/0650N R01L/0250N FG VV002 00/00 Q1020 TEMPO 0300 FZFG VV001,
ENGM,2025-01-16 09:50,32.00,32.00,100.00,,2.00,0.00,30.15,,0.25,,VV ,,,,200.00,,,,FG,,,,,,,32.00,ENGM 160950Z VRB02KT 0400 R19R/0325N R01R/P2000N R19L/2000U R01L/0325N FG VV002 00/M00 Q1021 TEMPO 0300 FZFG VV001,
ENGM,2025-01-16 10:20,33.80,33.80,100.00,,2.00,0.00,30.15,,5.59,,SCT,,,,200.00,,,,PRFG,,,,,,,33.80,ENGM 161020Z VRB02KT 9000 0450W R19R/1100U R01R/P2000N R19L/P2000N R01L/0550D PRFG SCT002 01/01 Q1021 TEMPO 0800 FG VV002,
ENGM,2025-01-16 10:50,33.80,32.00,93.03,200.00,3.00,0.00,30.12,,2.55,,SCT,,,,300.00,,,,PRFG,,,,,,,30.75,ENGM 161050Z 20003KT 4100 0300W R19R/0400N R01R/P2000N R19L/P2000N R01L/0325N PRFG SCT003 01/00 Q1020 TEMPO 0800 FG VV002,
ENGM,2025-01-16 11:20,33.80,32.00,93.03,30.00,4.00,0.00,30.15,,4.35,,FEW,,,,200.00,,,,PRFG,,,,,,,29.52,ENGM 161120Z 03004KT 010V090 7000 0450NW R19R/0900U R01R/P2000N R19L/P2000N R01L/1900U PRFG FEW002 01/00 Q1021 NOSIG,
ENGM,2025-01-16 11:50,33.80,33.80,100.00,20.00,4.00,0.00,30.15,,6.21,,FEW,,,,300.00,,,,VCFG,,,,,,,29.52,ENGM 161150Z 02004KT 360V060 9999 VCFG FEW003 01/01 Q1021,
ENGM,2025-01-16 12:20,35.60,33.80,93.08,,2.00,0.00,30.15,,4.97,,NSC,,,,,,,,VCFG,,,,,,,35.60,ENGM 161220Z VRB02KT 8000 VCFG NSC 02/01 Q1021 NOSIG,
ENGM,2025-01-16 12:50,35.60,33.80,93.08,50.00,4.00,0.00,30.15,,6.21,,NSC,,,,,,,,VCFG,,,,,,,31.62,ENGM 161250Z 05004KT 010V140 9999 VCFG NSC 02/01 Q1021 NOSIG,
ENGM,2025-01-16 13:20,41.00,37.40,86.89,,2.00,0.00,30.15,,6.21,,NSC,,,,,,,,VCFG,,,,,,,41.00,ENGM 161320Z VRB02KT 9999 VCFG NSC 05/03 Q1021 NOSIG,
ENGM,2025-01-16 13:50,37.40,35.60,93.14,330.00,3.00,0.00,30.15,,6.21,,NSC,,,,,,,,VCFG,,,,,,,34.86,ENGM 161350Z 33003KT 260V020 9999 VCFG NSC 03/02 Q1021 NOSIG,
ENGM,2025-01-16 14:20,33.80,32.00,93.03,,2.00,0.00,30.15,,6.21,,,,,,,,,,,,,,,,,33.80,ENGM 161420Z VRB02KT CAVOK 01/00 Q1021 NOSIG,
ENGM,2025-01-16 14:50,35.60,33.80,93.08,170.00,3.00,0.00,30.15,,6.21,,,,,,,,,,,,,,,,,32.80,ENGM 161450Z 17003KT 130V190 CAVOK 02/01 Q1021 NOSIG,
ENGM,2025-01-16 15:20,37.40,35.60,93.14,180.00,3.00,0.00,30.15,,6.21,,,,,,,,,,,,,,,,,34.86,ENGM 161520Z 18003KT 150V210 CAVOK 03/02 Q1021 NOSIG,
ENGM,2025-01-16 15:50,39.20,37.40,93.19,210.00,7.00,0.00,30.15,,6.21,,,,,,,,,,,,,,,,,33.56,ENGM 161550Z 21007KT CAVOK 04/03 Q1021 NOSIG,
ENGM,2025-01-16 16:20,37.40,35.60,93.14,210.00,6.00,0.00,30.15,,6.21,,,,,,,,,,,,,,,,,32.03,ENGM 161620Z 21006KT CAVOK 03/02 Q1021 NOSIG,
ENGM,2025-01-16 16:50,37.40,33.80,86.69,210.00,8.00,0.00,30.15,,6.21,,,,,,,,,,,,,,,,,30.76,ENGM 161650Z 21008KT CAVOK 03/01 Q1021,
ENGM,2025-01-16 17:20,39.20,37.40,93.19,190.00,8.00,0.00,30.18,,6.21,,,,,,,,,,,,,,,,,32.98,ENGM 161720Z 19008KT CAVOK 04/03 Q1022 NOSIG,
ENGM,2025-01-16 17:50,39.20,35.60,86.79,220.00,8.00,0.00,30.18,,6.21,,,,,,,,,,,,,,,,,32.98,ENGM 161750Z 22008KT CAVOK 04/02 Q1022 NOSIG,
ENGM,2025-01-16 18:20,41.00,35.60,80.93,210.00,5.00,0.00,30.15,,6.21,,,,,,,,,,,,,,,,,37.08,ENGM 161820Z 21005KT 140V270 CAVOK 05/02 Q1021 NOSIG,
ENGM,2025-01-16 18:50,39.20,35.60,86.79,140.00,3.00,0.00,30.18,,6.21,,,,,,,,,,,,,,,,,36.92,ENGM 161850Z 14003KT CAVOK 04/02 Q1022 NOSIG,
ENGM,2025-01-16 19:20,39.20,35.60,86.79,150.00,8.00,0.00,30.18,,6.21,,,,,,,,,,,,,,,,,32.98,ENGM 161920Z 15008KT CAVOK 04/02 Q1022 NOSIG,
ENGM,2025-01-16 19:50,37.40,35.60,93.14,210.00,5.00,0.00,30.18,,6.21,,,,,,,,,,,,,,,,,32.81,ENGM 161950Z 21005KT CAVOK 03/02 Q1022 NOSIG,
ENGM,2025-01-16 20:20,37.40,35.60,93.14,200.00,8.00,0.00,30.15,,6.21,,,,,,,,,,,,,,,,,30.76,ENGM 162020Z 20008KT CAVOK 03/02 Q1021 NOSIG,
ENGM,2025-01-16 20:50,37.40,35.60,93.14,160.00,3.00,0.00,30.18,,6.21,,,,,,,,,,,,,,,,,34.86,ENGM 162050Z 16003KT 130V200 CAVOK 03/02 Q1022 NOSIG,
ENGM,2025-01-16 21:20,39.20,35.60,86.79,150.00,6.00,0.00,30.15,,6.21,,,,,,,,,,,,,,,,,34.20,ENGM 162120Z 15006KT CAVOK 04/02 Q1021 NOSIG,
ENGM,2025-01-16 21:50,37.40,35.60,93.14,150.00,6.00,0.00,30.15,,6.21,,,,,,,,,,,,,,,,,32.03,ENGM 162150Z 15006KT CAVOK 03/02 Q1021 NOSIG,
ENGM,2025-01-16 22:20,37.40,35.60,93.14,150.00,8.00,0.00,30.15,,6.21,,,,,,,,,,,,,,,,,30.76,ENGM 162220Z 15008KT CAVOK 03/02 Q1021,
ENGM,2025-01-16 22:50,37.40,35.60,93.14,130.00,7.00,0.00,30.18,,6.21,,,,,,,,,,,,,,,,,31.36,ENGM 162250Z 13007KT CAVOK 03/02 Q1022,
ENGM,2025-01-16 23:20,37.40,35.60,93.14,140.00,5.00,0.00,30.18,,6.21,,,,,,,,,,,,,,,,,32.81,ENGM 162320Z 14005KT CAVOK 03/02 Q1022,
ENGM,2025-01-16 23:50,37.40,35.60,93.14,140.00,4.00,0.00,30.15,,6.21,,,,,,,,,,,,,,,,,33.73,ENGM 162350Z 14004KT CAVOK 03/02 Q1021,
ENGM,2025-01-17 00:20,35.60,33.80,93.08,130.00,4.00,0.00,30.15,,6.21,,,,,,,,,,,,,,,,,31.62,ENGM 170020Z 13004KT 060V160 CAVOK 02/01 Q1021,
ENGM,2025-01-17 00:50,37.40,35.60,93.14,120.00,3.00,0.00,30.15,,6.21,,,,,,,,,,,,,,,,,34.86,ENGM 170050Z 12003KT 010V170 CAVOK 03/02 Q1021,
ENGM,2025-01-17 01:20,37.40,35.60,93.14,150.00,8.00,0.00,30.15,,6.21,,,,,,,,,,,,,,,,,30.76,ENGM 170120Z 15008KT CAVOK 03/02 Q1021,
ENGM,2025-01-17 01:50,37.40,35.60,93.14,190.00,6.00,0.00,30.15,,6.21,,,,,,,,,,,,,,,,,32.03,ENGM 170150Z 19006KT CAVOK 03/02 Q1021,
ENGM,2025-01-17 02:20,37.40,35.60,93.14,180.00,7.00,0.00,30.15,,6.21,,,,,,,,,,,,,,,,,31.36,ENGM 170220Z 18007KT CAVOK 03/02 Q1021,
ENGM,2025-01-17 02:50,37.40,35.60,93.14,170.00,5.00,0.00,30.15,,6.21,,,,,,,,,,,,,,,,,32.81,ENGM 170250Z 17005KT CAVOK 03/02 Q1021,
ENGM,2025-01-17 03:20,37.40,35.60,93.14,180.00,6.00,0.00,30.15,,6.21,,,,,,,,,,,,,,,,,32.03,ENGM 170320Z 18006KT CAVOK 03/02 Q1021,
ENGM,2025-01-17 03:50,37.40,35.60,93.14,100.00,3.00,0.00,30.15,,6.21,,,,,,,,,,,,,,,,,34.86,ENGM 170350Z 10003KT 010V160 CAVOK 03/02 Q1021,
ENGM,2025-01-17 04:20,35.60,33.80,93.08,140.00,8.00,0.00,30.15,,6.21,,,,,,,,,,,,,,,,,28.55,ENGM 170420Z 14008KT CAVOK 02/01 Q1021,
ENGM,2025-01-17 04:50,37.40,33.80,86.69,130.00,7.00,0.00,30.15,,6.21,,,,,,,,,,,,,,,,,31.36,ENGM 170450Z 13007KT CAVOK 03/01 Q1021 NOSIG,
ENGM,2025-01-17 05:20,37.40,33.80,86.69,160.00,8.00,0.00,30.15,,6.21,,,,,,,,,,,,,,,,,30.76,ENGM 170520Z 16008KT CAVOK 03/01 Q1021 NOSIG,
ENGM,2025-01-17 05:50,37.40,32.00,80.65,140.00,7.00,0.00,30.15,,6.21,,,,,,,,,,,,,,,,,31.36,ENGM 170550Z 14007KT CAVOK 03/00 Q1021 NOSIG,
ENGM,2025-01-17 06:20,37.40,32.00,80.65,150.00,8.00,0.00,30.15,,6.21,,,,,,,,,,,,,,,,,30.76,ENGM 170620Z 15008KT CAVOK 03/00 Q1021 NOSIG,
ENGM,2025-01-17 06:50,35.60,32.00,86.59,140.00,8.00,0.00,30.15,,6.21,,,,,,,,,,,,,,,,,28.55,ENGM 170650Z 14008KT CAVOK 02/00 Q1021 NOSIG,
ENGM,2025-01-17 07:20,37.40,32.00,80.65,140.00,8.00,0.00,30.12,,6.21,,,,,,,,,,,,,,,,,30.76,ENGM 170720Z 14008KT CAVOK 03/00 Q1020 NOSIG,
ENGM,2025-01-17 07:50,35.60,32.00,86.59,140.00,9.00,0.00,30.12,,6.21,,,,,,,,,,,,,,,,,27.99,ENGM 170750Z 14009KT CAVOK 02/00 Q1020 NOSIG,
ENGM,2025-01-17 08:20,35.60,32.00,86.59,180.00,7.00,0.00,30.12,,6.21,,,,,,,,,,,,,,,,,29.17,ENGM 170820Z 18007KT CAVOK 02/00 Q1020 NOSIG,
ENGM,2025-01-17 08:50,37.40,32.00,80.65,190.00,8.00,0.00,30.12,,6.21,,,,,,,,,,,,,,,,,30.76,ENGM 170850Z 19008KT CAVOK 03/00 Q1020 NOSIG,
ENGM,2025-01-17 09:20,37.40,33.80,86.69,190.00,7.00,0.00,30.12,,6.21,,,,,,,,,,,,,,,,,31.36,ENGM 170920Z 19007KT CAVOK 03/01 Q1020 NOSIG,
ENGM,2025-01-17 09:50,37.40,32.00,80.65,190.00,7.00,0.00,30.12,,6.21,,,,,,,,,,,,,,,,,31.36,ENGM 170950Z 19007KT CAVOK 03/00 Q1020 NOSIG,
ENGM,2025-01-17 10:20,35.60,32.00,86.59,180.00,7.00,0.00,30.09,,6.21,,,,,,,,,,,,,,,,,29.17,ENGM 171020Z 18007KT 140V200 CAVOK 02/00 Q1019 NOSIG,
ENGM,2025-01-17 10:50,37.40,33.80,86.69,210.00,12.00,0.00,30.09,,6.21,,,,,,,,,,,,,,,,,28.87,ENGM 171050Z 21012KT CAVOK 03/01 Q1019 NOSIG,
ENGM,2025-01-17 11:20,37.40,33.80,86.69,190.00,10.00,0.00,30.09,,6.21,,,,,,,,,,,,,,,,,29.74,ENGM 171120Z 19010KT CAVOK 03/01 Q1019 NOSIG,
ENGM,2025-01-17 11:50,39.20,33.80,80.79,200.00,12.00,0.00,30.06,,6.21,,,,,,,,,,,,,,,,,31.17,ENGM 171150Z 20012KT CAVOK 04/01 Q1018 NOSIG,
ENGM,2025-01-17 12:20,39.20,33.80,80.79,220.00,11.00,0.00,30.09,,6.21,,,,,,,,,,,,,,,,,31.57,ENGM 171220Z 22011KT CAVOK 04/01 Q1019 NOSIG,
ENGM,2025-01-17 12:50,39.20,33.80,80.79,210.00,13.00,0.00,30.09,,6.21,,,,,,,,,,,,,,,,,30.79,ENGM 171250Z 21013KT CAVOK 04/01 Q1019 NOSIG,
ENGM,2025-01-17 13:20,39.20,33.80,80.79,200.00,15.00,0.00,30.06,,6.21,,,,,,,,,,,,,,,,,30.11,ENGM 171320Z 20015KT CAVOK 04/01 Q1018 NOSIG,
ENGM,2025-01-17 13:50,37.40,33.80,86.69,180.00,11.00,0.00,30.06,,6.21,,,,,,,,,,,,,,,,,29.29,ENGM 171350Z 18011KT CAVOK 03/01 Q1018,
ENGM,2025-01-17 14:20,37.40,33.80,86.69,190.00,11.00,0.00,30.06,,6.21,,,,,,,,,,,,,,,,,29.29,ENGM 171420Z 19011KT CAVOK 03/01 Q1018 NOSIG,
ENGM,2025-01-17 14:50,37.40,33.80,86.69,190.00,10.00,0.00,30.09,,6.21,,FEW,,,,1700.00,,,,,,,,,,,29.74,ENGM 171450Z 19010KT 9999 FEW017 03/01 Q1019 NOSIG,
ENGM,2025-01-17 15:20,37.40,33.80,86.69,210.00,14.00,0.00,30.09,,6.21,,,,,,,,,,,,,,,,,28.12,ENGM 171520Z 21014KT CAVOK 03/01 Q1019 NOSIG,
ENGM,2025-01-17 15:50,37.40,33.80,86.69,200.00,11.00,0.00,30.09,,6.21,,,,,,,,,,,,,,,,,29.29,ENGM 171550Z 20011KT CAVOK 03/01 Q1019 NOSIG,
ENGM,2025-01-17 16:20,37.40,33.80,86.69,170.00,7.00,0.00,30.09,,6.21,,,,,,,,,,,,,,,,,31.36,ENGM 171620Z 17007KT 130V200 CAVOK 03/01 Q1019 NOSIG,
ENGM,2025-01-17 16:50,37.40,33.80,86.69,170.00,9.00,0.00,30.09,,6.21,,,,,,,,,,,,,,,,,30.23,ENGM 171650Z 17009KT CAVOK 03/01 Q1019 NOSIG,
ENGM,2025-01-17 17:20,35.60,32.00,86.59,160.00,7.00,0.00,30.09,,6.21,,,,,,,,,,,,,,,,,29.17,ENGM 171720Z 16007KT CAVOK 02/00 Q1019 NOSIG,
ENGM,2025-01-17 17:50,35.60,32.00,86.59,160.00,9.00,0.00,30.06,,6.21,,,,,,,,,,,,,,,,,27.99,ENGM 171750Z 16009KT CAVOK 02/00 Q1018 NOSIG,
ENGM,2025-01-17 18:20,35.60,32.00,86.59,170.00,8.00,0.00,30.09,,6.21,,,,,,,,,,,,,,,,,28.55,ENGM 171820Z 17008KT CAVOK 02/00 Q1019 NOSIG,
ENGM,2025-01-17 18:50,35.60,32.00,86.59,180.00,11.00,0.00,30.09,,6.21,,,,,,,,,,,,,,,,,27.02,ENGM 171850Z 18011KT CAVOK 02/M00 Q1019 NOSIG,
ENGM,2025-01-17 19:20,33.80,32.00,93.03,200.00,6.00,0.00,30.09,,6.21,,,,,,,,,,,,,,,,,27.70,ENGM 171920Z 20006KT CAVOK 01/M00 Q1019 NOSIG,
ENGM,2025-01-17 19:50,33.80,32.00,93.03,190.00,11.00,0.00,30.12,,6.21,,,,,,,,,,,,,,,,,24.74,ENGM 171950Z 19011KT CAVOK 01/M00 Q1020 NOSIG,
ENGM,2025-01-17 20:20,35.60,32.00,86.59,160.00,7.00,0.00,30.12,,6.21,,,,,,,,,,,,,,,,,29.17,ENGM 172020Z 16007KT CAVOK 02/M00 Q1020 NOSIG,
ENGM,2025-01-17 20:50,35.60,32.00,86.59,170.00,9.00,0.00,30.12,,6.21,,,,,,,,,,,,,,,,,27.99,ENGM 172050Z 17009KT CAVOK 02/00 Q1020 NOSIG,
ENGM,2025-01-17 21:20,35.60,32.00,86.59,210.00,5.00,0.00,30.15,,6.21,,,,,,,,,,,,,,,,,30.67,ENGM 172120Z 21005KT 190V250 CAVOK 02/M00 Q1021 NOSIG,
ENGM,2025-01-17 21:50,32.00,28.40,86.39,,2.00,0.00,30.15,,6.21,,,,,,,,,,,,,,,,,32.00,ENGM 172150Z VRB02KT CAVOK 00/M02 Q1021 NOSIG,
ENGM,2025-01-17 22:20,30.20,28.40,92.92,250.00,4.00,0.00,30.18,,6.21,,,,,,,,,,,,,,,,,25.32,ENGM 172220Z 25004KT CAVOK M01/M02 Q1022,
ENGM,2025-01-17 22:50,28.40,28.40,100.00,60.00,4.00,0.00,30.18,,6.21,,,,,,,,,,,,,,,,,23.22,ENGM 172250Z 06004KT 350V090 CAVOK M02/M02 Q1022,
ENGM,2025-01-17 23:20,28.40,28.40,100.00,,2.00,0.00,30.18,,5.59,,NSC,,,,,,,,,,,,,,,28.40,ENGM 172320Z VRB02KT 9000 3000E NSC M02/M02 Q1022,
ENGM,2025-01-17 23:50,30.20,28.40,92.92,,2.00,0.00,30.21,,5.59,,NSC,,,,,,,,,,,,,,,30.20,ENGM 172350Z VRB02KT 9000 1000E NSC M01/M02 Q1023,
