station,valid,tmpf,dwpf,relh,drct,sknt,p01i,alti,mslp,vsby,gust,skyc1,skyc2,skyc3,skyc4,skyl1,skyl2,skyl3,skyl4,wxcodes,ice_accretion_1hr,ice_accretion_3hr,ice_accretion_6hr,peak_wind_gust,peak_wind_drct,peak_wind_time,feel,metar,snowdepth
ENTC,1736900400,37.4,30.2,74.98,180.0,12.0,0.0,29.8,,6.21,,BKN,OVC,,,2600.0,3300.0,,,,,,,,,,28.87,ENTC 150020Z AUTO 18012KT 9999 BKN026/// OVC033/// 03/M01 Q1009 RMK WIND 2600FT 20017KT,
ENTC,1736902200,37.4,30.2,74.98,180.0,13.0,0.0,29.8,,6.21,,OVC,,,,2500.0,,,,,,,,,,,28.49,ENTC 150050Z AUTO 18013KT 9999 OVC025/// 03/M01 Q1009 RMK WIND 2600FT 19021KT,
ENTC,1736904000,37.4,30.2,74.98,180.0,14.0,0.0,29.77,,6.21,,OVC,,,,2400.0,,,,,,,,,,,28.12,ENTC 150120Z AUTO 18014KT 9999 OVC024/// 03/M01 Q1008 RMK WIND 2600FT 19027KT,
ENTC,1736905800,37.4,30.2,74.98,180.0,14.0,0.0,29.74,,6.21,,BKN,OVC,,,2600.0,3300.0,,,,,,,,,,28.12,ENTC 150150Z AUTO 18014KT 9999 BKN026/// OVC033/// 03/M01 Q1007 RMK WIND 2600FT 19030KT,
ENTC,1736907600,37.4,30.2,74.98,190.0,14.0,0.0,29.74,,6.21,,BKN,OVC,,,2900.0,3600.0,,,,,,,,,,28.12,ENTC 150220Z AUTO 19014KT 9999 BKN029/// OVC036/// 03/M01 Q1007 RMK WIND 2600FT 19030KT,
ENTC,1736909400,37.4,30.2,74.98,180.0,14.0,0.0,29.71,,6.21,,BKN,BKN,,,3000.0,3600.0,,,,,,,,,,28.12,ENTC 150250Z AUTO 18014KT 9999 BKN030/// BKN036/// 03/M01 Q1006 RMK WIND 2600FT 19030KT,
ENTC,1736911200,37.4,30.2,74.98,180.0,14.0,0.0,29.71,,6.21,,OVC,,,,3100.0,,,,,,,,,,,28.12,ENTC 150320Z AUTO 18014KT 9999 OVC031/// 03/M01 Q1006 RMK WIND 2600FT 18030KT,
ENTC,1736913000,37.4,30.2,74.98,180.0,13.0,0.0,29.68,,6.21,,OVC,,,,3500.0,,,,,,,,,,,28.49,ENTC 150350Z AUTO 18013KT 9999 OVC035/// 03/M01 Q1005 RMK WIND 2600FT 18030KT,
ENTC,1736914800,37.4,28.4,69.67,190.0,11.0,0.0,29.68,,6.21,,BKN,BKN,,,3400.0,4100.0,,,,,,,,,,29.29,ENTC 150420Z 19011KT 9999 BKN034 BKN041 03/M02 Q1005 RMK WIND 2600FT 17024KT,
ENTC,1736916600,37.4,28.4,69.67,190.0,15.0,0.0,29.65,,6.21,,BKN,BKN,,,3500.0,4400.0,,,,,,,,,,27.78,ENTC 150450Z 19015KT 9999 BKN035 BKN044 03/M02 Q1004 RMK WIND 2600FT 17024KT,
ENTC,1736918400,37.4,28.4,69.67,190.0,15.0,0.0,29.62,,6.21,,BKN,BKN,,,3600.0,6100.0,,,,,,,,,,27.78,ENTC 150520Z 19015KT 9999 BKN036 BKN061 03/M02 Q1003 RMK WIND 2600FT 16022KT,
ENTC,1736920200,37.4,28.4,69.67,180.0,12.0,0.0,29.59,,6.21,,BKN,,,,3800.0,,,,,,,,,,,28.87,ENTC 150550Z 18012KT 9999 BKN038 03/M02 Q1002 RMK WIND 2600FT 17036KT,
ENTC,1736922000,39.2,28.4,64.93,190.0,10.0,0.0,29.56,,6.21,,BKN,,,,3800.0,,,,,,,,,,,32.0,ENTC 150620Z 19010KT 9999 BKN038 04/M02 Q1001 TEMPO 21023G35KT 2500 +RA BKN004 RMK WIND 2600FT 18040KT,
ENTC,1736923800,39.2,28.4,64.93,180.0,15.0,0.0,29.53,,6.21,,FEW,BKN,,,1600.0,3100.0,,,-SHRA,,,,,,,30.11,ENTC 150650Z 18015KT 9999 -SHRA FEW016 BKN031 04/M02 Q1000 TEMPO 21023G35KT 2500 +RA BKN004 RMK WIND 2600FT 17035G46KT,
ENTC,1736925600,39.2,30.2,69.88,180.0,18.0,0.0,29.47,,6.21,,FEW,BKN,,,1600.0,3200.0,,,-SHRA,,,,,,,29.23,ENTC 150720Z 18018KT 9999 -SHRA FEW016 BKN032 04/M01 Q0998 TEMPO 21023G35KT 2500 +RA BKN004 RMK WIND 2600FT 17031KT,
ENTC,1736927400,39.2,30.2,69.88,190.0,19.0,0.0,29.47,,6.21,,BKN,,,,3200.0,,,,-SHRA,,,,,,,28.96,ENTC 150750Z 19019KT 9999 -SHRA BKN032 04/M01 Q0998 TEMPO RA BKN014 RMK WIND 2600FT 18037KT,
ENTC,1736929200,39.2,32.0,75.16,180.0,16.0,0.0,29.41,,6.21,,BKN,,,,2900.0,,,,-DZ,,,,,,,29.8,ENTC 150820Z 18016KT 9999 -DZ BKN029 04/M00 Q0996 TEMPO RA BKN014 RMK WIND 2600FT 18043G53KT,
ENTC,1736931000,39.2,32.0,75.16,190.0,16.0,0.0,29.38,,6.21,,FEW,BKN,,,1800.0,2500.0,,,-RA,,,,,,,29.8,ENTC 150850Z 19016KT 9999 -RA FEW018 BKN025 04/00 Q0995 TEMPO RA BKN014 RMK WIND 2600FT 17050KT,
ENTC,1736932800,37.4,33.8,86.69,180.0,17.0,0.0,29.35,,5.59,,FEW,BKN,,,1800.0,2500.0,,,-RA,,,,,,,27.15,ENTC 150920Z 18017KT 9000 -RA FEW018 BKN025 03/01 Q0994 TEMPO RA BKN014 RMK WIND 2600FT 17052KT,
ENTC,1736934600,37.4,33.8,86.69,190.0,18.0,0.0,29.32,,6.21,,FEW,BKN,,,1000.0,2400.0,,,RA,,,,,,,26.86,ENTC 150950Z 19018KT 9999 RA FEW010 BKN024 03/01 Q0993 TEMPO BKN014 RMK WIND 2600FT 17050G61KT,
ENTC,1736936400,37.4,33.8,86.69,190.0,17.0,0.0,29.29,,6.21,,FEW,BKN,,,1000.0,2400.0,,,RA,,,,,,,27.15,ENTC 151020Z 19017KT 9999 RA FEW010 BKN024 03/01 Q0992 TEMPO BKN014 RMK WIND 2600FT 17051G63KT,
ENTC,1736938200,37.4,33.8,86.69,180.0,21.0,0.0,29.26,,6.21,,FEW,BKN,,,1000.0,2400.0,,,-SHRA,,,,,,,26.06,ENTC 151050Z 18021KT 9999 -SHRA FEW010 BKN024 03/01 Q0991 TEMPO RA BKN014 RMK WIND 2600FT 17049G61KT,
ENTC,1736940000,37.4,33.8,86.69,180.0,20.0,0.0,29.21,,6.21,,FEW,BKN,,,1600.0,2400.0,,,-SHRA,,,,,,,26.31,ENTC 151120Z 18020KT 9999 -SHRA FEW016 BKN024 03/01 Q0989 TEMPO RA BKN014 RMK WIND 2600FT 18044KT,
ENTC,1736941800,37.4,33.8,86.69,180.0,18.0,0.0,29.21,,6.21,,FEW,BKN,,,1600.0,2400.0,,,-SHRA,,,,,,,26.86,ENTC 151150Z 18018KT 9999 -SHRA FEW016 BKN024 03/01 Q0989 TEMPO SHRA BKN014CB RMK WIND 2600FT 18049KT,
ENTC,1736943600,37.4,33.8,86.69,180.0,19.0,0.0,29.18,,6.21,29.0,BKN,,,,3300.0,,,,-SHRA,,,,,,,26.58,ENTC 151220Z 18019G29KT 9999 -SHRA BKN033 03/01 Q0988 TEMPO SHRA BKN014CB RMK WIND 2600FT 19048KT,
ENTC,1736945400,37.4,33.8,86.69,190.0,20.0,0.0,29.18,,6.21,,SCT,BKN,,,1700.0,2500.0,,,-SHRA,,,,,,,26.31,ENTC 151250Z 19020KT 9999 -SHRA SCT017 BKN025 03/01 Q0988 TEMPO 20020G35KT SHRA BKN014CB RMK WIND 2600FT 18042KT,
ENTC,1736947200,37.4,35.6,93.14,190.0,24.0,0.0,29.18,,6.21,,FEW,BKN,,,1700.0,2600.0,,,-SHRA,,,,,,,25.34,ENTC 151320Z 19024KT 9999 -SHRA FEW017 BKN026 03/02 Q0988 TEMPO SHRA BKN014CB RMK WIND 2600FT 19036KT,
ENTC,1736949000,37.4,33.8,86.69,180.0,23.0,0.0,29.15,,6.21,,BKN,,,,1600.0,,,,-SHRA,,,,,,,25.57,ENTC 151350Z 18023KT 9999 -SHRA BKN016 03/01 Q0987 TEMPO SHRA BKN014CB RMK WIND 2600FT 19029KT,
ENTC,1736950800,37.4,33.8,86.69,180.0,22.0,0.0,29.15,,6.21,,BKN,,,,3100.0,,,,-SHRA,,,,,,,25.81,ENTC 151420Z 18022KT 9999 -SHRA BKN031 03/01 Q0987 TEMPO SHRA BKN014CB RMK WIND 2600FT 19031KT,
ENTC,1736952600,37.4,33.8,86.69,190.0,23.0,0.0,29.15,,6.21,,BKN,,,,3700.0,,,,-SHSN,,,,,,,25.57,ENTC 151450Z 19023KT 9999 -SHSN BKN037 03/01 Q0987 TEMPO SHRA BKN012 SCT080CB RMK WIND 2600FT 19027KT,
ENTC,1736954400,37.4,35.6,93.14,180.0,23.0,0.0,29.15,,6.21,,BKN,,,,3700.0,,,,-SHRA,,,,,,,25.57,ENTC 151520Z 18023KT 9999 -SHRA BKN037 03/02 Q0987 TEMPO SHRA BKN012 SCT080CB RMK WIND 2600FT 19024KT,
ENTC,1736956200,37.4,33.8,86.69,200.0,21.0,0.0,29.15,,6.21,,FEW,SCT,BKN,,1300.0,1600.0,2800.0,,-SHRA,,,,,,,26.06,ENTC 151550Z 20021KT 9999 -SHRA FEW013 SCT016 BKN028 03/01 Q0987 TEMPO 4000 SHRA BKN012 SCT080CB RMK WIND 2600FT 19020KT,
ENTC,1736958000,39.2,35.6,86.79,190.0,17.0,0.0,29.18,,3.73,,BKN,,,,2800.0,,,,-SHRA,,,,,,,29.51,ENTC 151620Z 19017KT 6000 -SHRA BKN028 04/02 Q0988 TEMPO 4000 RADZ BKN010 RMK WIND 2600FT 20024KT,
ENTC,1736959800,39.2,35.6,86.79,190.0,18.0,0.0,29.18,,6.21,,BKN,,,,3700.0,,,,-SHRA,,,,,,,29.23,ENTC 151650Z 19018KT 9999 -SHRA BKN037 04/02 Q0988 TEMPO 4000 RADZ BKN010 RMK WIND 2600FT 20019KT,
ENTC,1736961600,41.0,37.4,86.89,190.0,17.0,0.0,29.18,,6.21,,BKN,,,,3800.0,,,,-SHRA,,,,,,,31.87,ENTC 151720Z 19017KT 9999 -SHRA BKN038 05/03 Q0988 TEMPO 4000 RADZ BKN010 RMK WIND 2600FT 21016KT,
ENTC,1736963400,41.0,37.4,86.89,200.0,15.0,0.0,29.18,,6.21,,BKN,,,,3400.0,,,,-SHRA,,,,,,,32.45,ENTC 151750Z 20015KT 9999 -SHRA BKN034 05/03 Q0988 TEMPO 4000 RADZ BKN010 RMK WIND 2600FT 22016KT,
ENTC,1736965200,41.0,37.4,86.89,200.0,17.0,0.0,29.18,,6.21,,FEW,SCT,BKN,,1600.0,2600.0,3500.0,,,,,,,,,31.87,ENTC 151820Z 20017KT 9999 FEW016 SCT026 BKN035 05/03 Q0988 TEMPO 4000 RADZ BKN010 RMK WIND 2600FT 22019KT,
ENTC,1736967000,41.0,39.2,93.24,210.0,20.0,0.0,29.18,,6.21,,FEW,SCT,BKN,,1600.0,2300.0,3900.0,,-SHRA,,,,,,,31.09,ENTC 151850Z 21020KT 9999 -SHRA FEW016 SCT023 BKN039 05/04 Q0988 RERA TEMPO 4000 RADZ BKN010 RMK WIND 2600FT 22018KT,
ENTC,1736968800,41.0,39.2,93.24,210.0,22.0,0.0,29.18,,6.21,,FEW,SCT,BKN,,2200.0,3200.0,4100.0,,,,,,,,,30.63,ENTC 151920Z 21022KT 9999 FEW022 SCT032 BKN041 05/04 Q0988 TEMPO 4000 RADZ BKN010 RMK WIND 2600FT 22022KT,
ENTC,1736970600,41.0,37.4,86.89,210.0,20.0,0.0,29.21,,6.21,,BKN,,,,3800.0,,,,-SHRA,,,,,,,31.09,ENTC 151950Z 21020KT 9999 -SHRA BKN038 05/03 Q0989 TEMPO 4000 RADZ BKN010 RMK WIND 2600FT 21025KT,
ENTC,1736972400,41.0,39.2,93.24,210.0,23.0,0.0,29.21,,6.21,,BKN,,,,3900.0,,,,-SHRA,,,,,,,30.41,ENTC 152020Z 21023KT 9999 -SHRA BKN039 05/04 Q0989 TEMPO 4000 RADZ BKN010 RMK WIND 2600FT 21026KT,
ENTC,1736974200,41.0,37.4,86.89,210.0,25.0,0.0,29.21,,6.21,,BKN,,,,4100.0,,,,-SHRA,,,,,,,30.0,ENTC 152050Z 21025KT 9999 -SHRA BKN041 05/03 Q0989 TEMPO RADZ BKN014 RMK WIND 2600FT 21032KT,
ENTC,1736976000,41.0,37.4,86.89,210.0,23.0,0.0,29.21,,6.21,,BKN,,,,4100.0,,,,-SHRA,,,,,,,30.41,ENTC 152120Z 21023KT 9999 -SHRA BKN041 05/03 Q0989 TEMPO RADZ BKN014 RMK WIND 2600FT 21031G45KT,
ENTC,1736977800,41.0,37.4,86.89,210.0,23.0,0.0,29.21,,6.21,,FEW,BKN,,,600.0,3500.0,,,-SHRA,,,,,,,30.41,ENTC 152150Z 21023KT 9999 -SHRA FEW006 BKN035 05/03 Q0989 TEMPO RADZ BKN014 RMK WIND 2600FT 21031KT,
ENTC,1736979600,41.0,37.4,86.89,200.0,24.0,0.0,29.21,,6.21,,FEW,BKN,,,3000.0,4000.0,,,-RA,,,,,,,30.2,ENTC 152220Z 20024KT 9999 -RA FEW030 BKN040 05/03 Q0989 RMK WIND 2600FT 21031KT,
ENTC,1736981400,41.0,37.4,86.89,210.0,26.0,0.0,29.21,,6.21,,FEW,BKN,BKN,,1000.0,3200.0,4100.0,,-DZ,,,,,,,29.8,ENTC 152250Z 21026KT 9999 -DZ FEW010 BKN032 BKN041 05/03 Q0989 RERA RMK WIND 2600FT 21035KT,
ENTC,1736983200,41.0,37.4,86.89,210.0,24.0,0.0,29.21,,6.21,,SCT,BKN,,,3500.0,5200.0,,,-DZ,,,,,,,30.2,ENTC 152320Z 21024KT 9999 -DZ SCT035 BKN052 05/03 Q0989 RERA RMK WIND 2600FT 21038KT,
ENTC,1736985000,41.0,37.4,86.89,210.0,25.0,0.0,29.21,,6.21,,FEW,BKN,BKN,,2600.0,3500.0,4200.0,,-DZRA,,,,,,,30.0,ENTC 152350Z 21025KT 9999 -DZRA FEW026 BKN035 BKN042 05/03 Q0989 REDZ RMK WIND 2600FT 21036KT,
ENTC,1736986800,41.0,37.4,86.89,200.0,23.0,0.0,29.21,,6.21,,BKN,BKN,BKN,,3300.0,4000.0,4600.0,,,,,,,,,30.41,ENTC 160020Z 20023KT 9999 BKN033 BKN040 BKN046 05/03 Q0989 RMK WIND 2600FT 21032KT,
ENTC,1736988600,42.8,37.4,81.07,210.0,26.0,0.0,29.18,,6.21,,///,,,,4500.0,,,,,,,,,,,32.25,ENTC 160050Z AUTO 21026KT 9999 ///045/// 06/03 Q0988 RMK WIND 2600FT 21029KT,
ENTC,1736990400,42.8,37.4,81.07,210.0,27.0,0.0,29.18,,6.21,,BKN,OVC,,,3400.0,4300.0,,,+DZRA,,,,,,,32.06,ENTC 160120Z AUTO 21027KT 9999 +DZRA BKN034/// OVC043/// 06/03 Q0988 RMK WIND 2600FT 22023KT,
ENTC,1736992200,39.2,35.6,86.79,210.0,23.0,0.0,29.18,,6.21,,///,,,,3600.0,,,,+DZRA,,,,,,,27.99,ENTC 160150Z AUTO 21023KT 9999 +DZRA ///036/// 04/02 Q0988 RMK WIND 2600FT 23019KT,
ENTC,1736994000,41.0,37.4,86.89,200.0,22.0,0.0,29.21,,6.21,,///,,,,3400.0,,,,+DZRA,,,,,,,30.63,ENTC 160220Z AUTO 20022KT 9999 +DZRA ///034/// 05/03 Q0989 RMK WIND 2600FT 22019KT,
ENTC,1736995800,41.0,37.4,86.89,210.0,21.0,0.0,29.18,,6.21,,///,,,,3400.0,,,,+DZRA,,,,,,,30.86,ENTC 160250Z AUTO 21021KT 9999 +DZRA ///034/// 05/03 Q0988 RMK WIND 2600FT 22018KT,
ENTC,1736997600,41.0,37.4,86.89,210.0,20.0,0.0,29.21,,5.59,,///,,,,3300.0,,,,-RA,,,,,,,31.09,ENTC 160320Z AUTO 21020KT 9000 -RA ///033/// 05/03 Q0989 RMK WIND 2600FT 24024G35KT,
ENTC,1736999400,41.0,37.4,86.89,220.0,17.0,0.0,29.18,,6.21,,///,,,,3100.0,,,,-RA,,,,,,,31.87,ENTC 160350Z AUTO 22017KT 9999 -RA ///031/// 05/03 Q0988 RMK WIND 2600FT 24030KT,
ENTC,1737001200,39.2,37.4,93.19,210.0,13.0,0.0,29.18,,4.35,,SCT,OVC,,,500.0,3000.0,,,+DZRA,,,,,,,30.79,ENTC 160420Z AUTO 21013KT 7000 +DZRA SCT005/// OVC030/// 04/03 Q0988 RMK WIND 2600FT 25035KT,
ENTC,1737003000,41.0,37.4,86.89,190.0,14.0,0.0,29.18,,6.21,,FEW,SCT,BKN,,500.0,1700.0,2000.0,,-DZ,,,,,,,32.76,ENTC 160450Z AUTO 19014KT 9999 -DZ FEW005/// SCT017/// BKN020/// 05/03 Q0988 RMK WIND 2600FT 25043G54KT,
ENTC,1737004800,41.0,37.4,86.89,190.0,14.0,0.0,29.18,,6.21,,BKN,,,,2900.0,,,,-RA,,,,,,,32.76,ENTC 160520Z 19014KT 9999 -RA BKN029 05/03 Q0988 RMK WIND 2600FT 25039G56KT,
ENTC,1737006600,41.0,37.4,86.89,230.0,10.0,0.0,29.21,,6.21,,SCT,BKN,,,2100.0,2800.0,,,-RA,,,,,,,34.25,ENTC 160550Z 23010KT 210V270 9999 -RA SCT021 BKN028 05/03 Q0989 RMK WIND 2600FT 25040G56KT,
ENTC,1737008400,41.0,37.4,86.89,210.0,14.0,0.0,29.21,,6.21,,FEW,SCT,BKN,,900.0,1800.0,2200.0,,-RA,,,,,,,32.76,ENTC 160620Z 21014KT 9999 -RA FEW009 SCT018 BKN022 05/03 Q0989 NOSIG RMK WIND 2600FT 25037G49KT,
ENTC,1737010200,41.0,37.4,86.89,210.0,16.0,0.0,29.21,,6.21,,FEW,SCT,BKN,,900.0,1900.0,2300.0,,-RA,,,,,,,32.15,ENTC 160650Z 21016KT 9999 -RA FEW009 SCT019 BKN023 05/03 Q0989 NOSIG RMK WIND 2600FT 26033G54KT,
ENTC,1737012000,39.2,37.4,93.19,210.0,16.0,0.0,29.23,,4.97,,FEW,SCT,BKN,,900.0,1900.0,2300.0,,-RA,,,,,,,29.8,ENTC 160720Z 21016KT 8000 -RA FEW009 SCT019 BKN023 04/03 Q0990 TEMPO FEW008 BKN012 RMK WIND 2600FT 26030G46KT,
ENTC,1737013800,39.2,37.4,93.19,200.0,15.0,0.0,29.23,,6.21,,FEW,SCT,BKN,,600.0,1300.0,2300.0,,-SHRA,,,,,,,30.11,ENTC 160750Z 20015KT 9999 -SHRA FEW006 SCT013 BKN023 04/03 Q0990 TEMPO BKN012 RMK WIND 2600FT 27026KT,
ENTC,1737015600,39.2,37.4,93.19,210.0,17.0,0.0,29.23,,4.35,,FEW,SCT,BKN,,700.0,1400.0,1900.0,,+DZ,,,,,,,29.51,ENTC 160820Z 21017KT 7000 +DZ FEW007 SCT014 BKN019 04/03 Q0990 TEMPO BKN014 RMK WIND 2600FT 27023KT,
ENTC,1737017400,39.2,37.4,93.19,210.0,15.0,0.0,29.26,,6.21,,FEW,SCT,BKN,,600.0,1400.0,1700.0,,-RA,,,,,,,30.11,ENTC 160850Z 21015KT 9999 -RA FEW006 SCT014 BKN017 04/03 Q0991 TEMPO BKN014 RMK WIND 2600FT 28025KT,
ENTC,1737019200,41.0,37.4,86.89,210.0,9.0,0.0,29.26,,6.21,,BKN,,,,2500.0,,,,-SHRA,,,,,,,34.7,ENTC 160920Z 21009KT 9999 -SHRA BKN025 05/03 Q0991 TEMPO BKN014 RMK WIND 2600FT 29021KT,
ENTC,1737021000,41.0,37.4,86.89,270.0,11.0,0.0,29.29,,6.21,,FEW,SCT,BKN,,1200.0,2000.0,2400.0,,-DZ,,,,,,,33.84,ENTC 160950Z 27011KT 9999 -DZ FEW012 SCT020 BKN024 05/03 Q0992 RMK WIND 2600FT 29033KT,
ENTC,1737022800,41.0,37.4,86.89,230.0,7.0,0.0,29.32,,6.21,,FEW,BKN,BKN,,2000.0,2400.0,2900.0,,-SHRA,,,,,,,35.75,ENTC 161020Z 23007KT 170V280 9999 -SHRA FEW020 BKN024 BKN029 05/03 Q0993 REDZ RERA TEMPO BKN014 RMK WIND 2600FT 28028G44KT,
ENTC,1737024600,42.8,35.6,75.5,250.0,6.0,0.0,29.32,,6.21,,FEW,BKN,BKN,,2000.0,2400.0,2900.0,,-SHRA,,,,,,,38.54,ENTC 161050Z 25006KT 220V290 9999 -SHRA FEW020 BKN024 BKN029 06/02 Q0993 TEMPO BKN014 RMK WIND 2600FT 28023G39KT,
ENTC,1737026400,42.8,37.4,81.07,240.0,12.0,0.0,29.32,,6.21,,BKN,,,,2200.0,,,,-DZ,,,,,,,35.75,ENTC 161120Z 24012KT 9999 -DZ BKN022 06/03 Q0993 NOSIG RMK WIND 2600FT 27023G34KT,
ENTC,1737028200,42.8,37.4,81.07,240.0,14.0,0.0,29.35,,6.21,,SCT,BKN,,,2100.0,2500.0,,,-RA,,,,,,,35.08,ENTC 161150Z 24014KT 9999 -RA SCT021 BKN025 06/03 Q0994 NOSIG RMK WIND 2600FT 26028G41KT,
ENTC,1737030000,41.0,37.4,86.89,230.0,9.0,0.0,29.35,,6.21,,FEW,SCT,BKN,,1300.0,2000.0,2500.0,,-DZ,,,,,,,34.7,ENTC 161220Z 23009KT 180V270 9999 -DZ FEW013 SCT020 BKN025 05/03 Q0994 NOSIG RMK WIND 2600FT 25034G50KT,
ENTC,1737031800,41.0,35.6,80.93,230.0,14.0,0.0,29.38,,6.21,,SCT,BKN,BKN,,2300.0,2600.0,3200.0,,-DZ,,,,,,,32.76,ENTC 161250Z 23014KT 9999 -DZ SCT023 BKN026 BKN032 05/02 Q0995 NOSIG RMK WIND 2600FT 27029G42KT,
ENTC,1737033600,41.0,37.4,86.89,210.0,13.0,0.0,29.38,,6.21,,SCT,BKN,,,1800.0,2200.0,,,,,,,,,,33.1,ENTC 161320Z 21013KT 170V240 9999 SCT018 BKN022 05/03 Q0995 NOSIG RMK WIND 2600FT 27029G40KT,
ENTC,1737035400,42.8,35.6,75.5,240.0,15.0,0.0,29.41,,6.21,,SCT,BKN,,,1900.0,2400.0,,,,,,,,,,34.78,ENTC 161350Z 24015KT 9999 SCT019 BKN024 06/02 Q0996 NOSIG RMK WIND 2600FT 27035G49KT,
ENTC,1737037200,42.8,35.6,75.5,230.0,17.0,0.0,29.41,,6.21,,SCT,BKN,,,1400.0,2400.0,,,-SHRA,,,,,,,34.22,ENTC 161420Z 23017KT 9999 -SHRA SCT014 BKN024 06/02 Q0996 TEMPO BKN014 RMK WIND 2600FT 26034KT,
ENTC,1737039000,42.8,35.6,75.5,240.0,19.0,0.0,29.44,,6.21,,SCT,BKN,,,1400.0,2400.0,,,-SHRA,,,,,,,33.72,ENTC 161450Z 24019KT 9999 -SHRA SCT014 BKN024 06/02 Q0997 TEMPO BKN014 RMK WIND 2600FT 26035G48KT,
ENTC,1737040800,42.8,35.6,75.5,250.0,13.0,0.0,29.44,,6.21,,BKN,OVC,,,2300.0,2800.0,,,-DZ,,,,,,,35.4,ENTC 161520Z 25013KT 9999 -DZ BKN023 OVC028 06/02 Q0997 TEMPO BKN014 RMK WIND 2600FT 26030G43KT,
ENTC,1737042600,41.0,35.6,80.93,260.0,11.0,0.0,29.47,,6.21,,SCT,BKN,,,2300.0,2900.0,,,,,,,,,,33.84,ENTC 161550Z 26011KT 240V300 9999 SCT023 BKN029 05/02 Q0998 NOSIG RMK WIND 2600FT 26025KT,
ENTC,1737044400,41.0,35.6,80.93,240.0,14.0,0.0,29.47,,6.21,,SCT,BKN,,,1800.0,2900.0,,,-SHRA,,,,,,,32.76,ENTC 161620Z 24014KT 9999 -SHRA SCT018 BKN029 05/02 Q0998 NOSIG RMK WIND 2600FT 26025G39KT,
ENTC,1737046200,39.2,35.6,86.79,210.0,13.0,0.0,29.5,,6.21,,SCT,BKN,,,500.0,1900.0,,,-SHRA,,,,,,,30.79,COR ENTC 161650Z 21013KT 9999 -SHRA SCT005 BKN019 04/02 Q0999 TEMPO BKN008 RMK WIND 2600FT 25030G44KT,
ENTC,1737048000,39.2,37.4,93.19,220.0,13.0,0.0,29.5,,6.21,,SCT,BKN,,,900.0,2100.0,,,-SHRA,,,,,,,30.79,ENTC 161720Z 22013KT 9999 -SHRA SCT009 BKN021 04/03 Q0999 TEMPO BKN009 RMK WIND 2600FT 25031G42KT,
ENTC,1737049800,39.2,37.4,93.19,250.0,7.0,0.0,29.5,,6.21,,SCT,BKN,,,900.0,2100.0,,,-SHRA,,,,,,,33.56,ENTC 161750Z 25007KT 9999 -SHRA SCT009 BKN021 04/03 Q0999 TEMPO BKN009 RMK WIND 2600FT 25030G44KT,
ENTC,1737051600,39.2,37.4,93.19,230.0,10.0,0.0,29.5,,6.21,,FEW,SCT,BKN,,500.0,800.0,1100.0,,-SHRA,,,,,,,32.0,ENTC 161820Z 23010KT 9999 -SHRA FEW005 SCT008 BKN011 04/03 Q0999 TEMPO BKN020 RMK WIND 2600FT 25031G44KT,
ENTC,1737053400,39.2,35.6,86.79,210.0,11.0,0.0,29.53,,6.21,,SCT,BKN,,,1100.0,2600.0,,,-DZ,,,,,,,31.57,ENTC 161850Z 21011KT 9999 -DZ SCT011 BKN026 04/02 Q1000 TEMPO BKN012 RMK WIND 2600FT 26034KT,
ENTC,1737055200,39.2,37.4,93.19,220.0,10.0,0.0,29.53,,6.21,,SCT,BKN,,,1100.0,2600.0,,,-SHRA,,,,,,,32.0,ENTC 161920Z 22010KT 9999 -SHRA SCT011 BKN026 04/03 Q1000 TEMPO BKN012 RMK WIND 2600FT 26031KT,
ENTC,1737057000,39.2,37.4,93.19,220.0,16.0,0.0,29.53,,6.21,,SCT,BKN,,,1100.0,2600.0,,,-SHRA,,,,,,,29.8,ENTC 161950Z 22016KT 9999 -SHRA SCT011 BKN026 04/03 Q1000 REDZ TEMPO BKN012 RMK WIND 2600FT 25028KT,
ENTC,1737058800,39.2,37.4,93.19,220.0,18.0,0.0,29.53,,6.21,,SCT,BKN,,,1100.0,2600.0,,,-SHRA,,,,,,,29.23,ENTC 162020Z 22018KT 9999 -SHRA SCT011 BKN026 04/03 Q1000 TEMPO BKN012 RMK WIND 2600FT 24020KT,
ENTC,1737060600,39.2,35.6,86.79,220.0,20.0,0.0,29.53,,6.21,,FEW,SCT,BKN,,2100.0,2800.0,3800.0,,,,,,,,,28.7,ENTC 162050Z 22020KT 9999 FEW021 SCT028 BKN038 04/02 Q1000 TEMPO BKN012 RMK WIND 2600FT 22017KT,
ENTC,1737062400,41.0,35.6,80.93,210.0,19.0,0.0,29.5,,6.21,,BKN,,,,3100.0,,,,,,,,,,,31.34,ENTC 162120Z 21019KT 9999 BKN031 05/02 Q0999 TEMPO BKN014 RMK WIND 2600FT 22016KT,
ENTC,1737064200,41.0,35.6,80.93,210.0,22.0,0.0,29.53,,6.21,,BKN,,,,3300.0,,,,,,,,,,,30.63,ENTC 162150Z 21022KT 9999 BKN033 05/02 Q1000 TEMPO BKN014 RMK WIND 2600FT 21017KT,
ENTC,1737066000,41.0,35.6,80.93,200.0,21.0,0.0,29.5,,6.21,,BKN,,,,3100.0,,,,-DZ,,,,,,,30.86,ENTC 162220Z 20021KT 9999 -DZ BKN031 05/02 Q0999 RMK WIND 2600FT 21016KT,
ENTC,1737067800,41.0,35.6,80.93,200.0,20.0,0.0,29.5,,6.21,,BKN,,,,4000.0,,,,DZ,,,,,,,31.09,ENTC 162250Z 20020KT 9999 DZ BKN040 05/02 Q0999 RMK WIND 2600FT 21016KT,
ENTC,1737069600,41.0,35.6,80.93,210.0,20.0,0.0,29.5,,6.21,,BKN,,,,3900.0,,,,-DZ,,,,,,,31.09,ENTC 162320Z 21020KT 9999 -DZ BKN039 05/02 Q0999 RMK WIND 2600FT 21019KT,
ENTC,1737071400,41.0,35.6,80.93,210.0,20.0,0.0,29.5,,6.21,,///,,,,4200.0,,,,DZ,,,,,,,31.09,ENTC 162350Z AUTO 21020KT 9999 DZ ///042/// 05/02 Q0999 RMK WIND 2600FT 20019KT,
ENTC,1737073200,41.0,35.6,80.93,220.0,20.0,0.0,29.5,,6.21,,///,,,,3900.0,,,,-DZRA,,,,,,,31.09,ENTC 170020Z AUTO 22020KT 9999 -DZRA ///039/// 05/02 Q0999 RMK WIND 2600FT 20019KT,
ENTC,1737075000,41.0,37.4,86.89,200.0,20.0,0.0,29.5,,6.21,,///,,,,3900.0,,,,-DZ,,,,,,,31.09,ENTC 170050Z AUTO 20020KT 9999 -DZ ///039/// 05/03 Q0999 RMK WIND 2600FT 19019KT,
ENTC,1737076800,41.0,37.4,86.89,210.0,19.0,0.0,29.47,,6.21,,FEW,SCT,OVC,,2100.0,2500.0,3700.0,,-DZ,,,,,,,31.34,ENTC 170120Z AUTO 21019KT 9999 -DZ FEW021/// SCT025/// OVC037/// 05/03 Q0998 RMK WIND 2600FT 19020KT,
ENTC,1737078600,41.0,37.4,86.89,220.0,20.0,0.0,29.44,,6.21,,SCT,SCT,BKN,,2000.0,2400.0,3000.0,,-DZ,,,,,,,31.09,ENTC 170150Z AUTO 22020KT 9999 -DZ SCT020/// SCT024/// BKN030/// 05/03 Q0997 RMK WIND 2600FT 19024KT,
ENTC,1737080400,42.8,35.6,75.5,220.0,20.0,0.0,29.44,,6.21,,BKN,BKN,,,2100.0,2500.0,,,,,,,,,,33.48,ENTC 170220Z AUTO 22020KT 9999 BKN021/// BKN025/// 06/02 Q0997 REDZ RMK WIND 2600FT 18034KT,
ENTC,1737082200,42.8,35.6,75.5,200.0,15.0,0.0,29.41,,6.21,,OVC,,,,2500.0,,,,-RA,,,,,,,34.78,ENTC 170250Z AUTO 20015KT 9999 -RA OVC025/// 06/02 Q0996 REDZ RMK WIND 2600FT 19034KT,
ENTC,1737084000,42.8,35.6,75.5,180.0,13.0,0.0,29.38,,6.21,,OVC,,,,2200.0,,,,-RA,,,,,,,35.4,ENTC 170320Z AUTO 18013KT 9999 -RA OVC022/// 06/02 Q0995 RMK WIND 2600FT 19037KT,
ENTC,1737087600,42.8,37.4,81.07,190.0,20.0,0.0,29.35,,6.21,,BKN,,,,2200.0,,,,-SHRA,,,,,,,33.48,ENTC 170420Z 19020KT 9999 -SHRA BKN022 06/03 Q0994 RMK WIND 2600FT 20042KT,
ENTC,1737089400,42.8,37.4,81.07,180.0,18.0,0.0,29.32,,6.21,,FEW,BKN,,,600.0,1400.0,,,-SHRA,,,,,,,33.97,ENTC 170450Z 18018KT 9999 -SHRA FEW006 BKN014 06/03 Q0993 RMK WIND 2600FT 21033KT,
ENTC,1737091200,42.8,37.4,81.07,190.0,20.0,0.0,29.32,,6.21,,SCT,BKN,,,1200.0,1400.0,,,-SHRA,,,,,,,33.48,ENTC 170520Z 19020KT 9999 -SHRA SCT012 BKN014 06/03 Q0993 RMK WIND 2600FT 20031KT,
ENTC,1737093000,42.8,39.2,86.99,200.0,19.0,0.0,29.32,,6.21,,FEW,SCT,BKN,,1300.0,2000.0,2700.0,,-DZ,,,,,,,33.72,ENTC 170550Z 20019KT 9999 -DZ FEW013 SCT020 BKN027 06/04 Q0993 RMK WIND 2600FT 22033KT,
ENTC,1737094800,44.6,39.2,81.2,220.0,24.0,0.0,29.32,,6.21,,FEW,SCT,BKN,,2300.0,4700.0,5700.0,,,,,,,,,35.06,ENTC 170620Z 22024KT 9999 FEW023 SCT047 BKN057 07/04 Q0993 RERA TEMPO RADZ BKN012 RMK WIND 2600FT 22030KT,
ENTC,1737096600,44.6,39.2,81.2,220.0,26.0,0.0,29.32,,6.21,37.0,SCT,BKN,,,2300.0,4000.0,,,-DZ,,,,,,,34.69,ENTC 170650Z 22026G37KT 9999 -DZ SCT023 BKN040 07/04 Q0993 RERA TEMPO RADZ BKN012 RMK WIND 2600FT 23025KT,
ENTC,1737098400,44.6,39.2,81.2,210.0,25.0,0.0,29.32,,6.21,,BKN,,,,3800.0,,,,,,,,,,,34.87,ENTC 170720Z 21025KT 9999 BKN038 07/04 Q0993 RMK WIND 2600FT 24018KT,
ENTC,1737100200,44.6,37.4,75.68,210.0,23.0,0.0,29.32,,6.21,,BKN,,,,4000.0,,,,,,,,,,,35.25,ENTC 170750Z 21023KT 9999 BKN040 07/03 Q0993 TEMPO 24020G30KT RMK WIND 2600FT 24014KT,
ENTC,1737102000,44.6,37.4,75.68,210.0,19.0,0.0,29.32,,6.21,,SCT,BKN,,,3200.0,4000.0,,,,,,,,,,36.1,ENTC 170820Z 21019KT 9999 SCT032 BKN040 07/03 Q0993 NOSIG RMK WIND 2600FT 20008KT,
ENTC,1737103800,44.6,37.4,75.68,210.0,18.0,0.0,29.32,,6.21,,FEW,BKN,,,3200.0,4100.0,,,,,,,,,,36.34,ENTC 170850Z 21018KT 9999 FEW032 BKN041 07/03 Q0993 NOSIG RMK WIND 2600FT 23016KT,
ENTC,1737105600,42.8,35.6,75.5,200.0,16.0,0.0,29.29,,6.21,,BKN,,,,4300.0,,,,,,,,,,,34.5,ENTC 170920Z 20016KT 9999 BKN043 06/02 Q0992 NOSIG RMK WIND 2600FT 21013KT,
ENTC,1737107400,42.8,37.4,81.07,210.0,18.0,0.0,29.29,,6.21,,SCT,SCT,BKN,,4600.0,11000.0,14000.0,,,,,,,,,33.97,ENTC 170950Z 21018KT 9999 SCT046 SCT110 BKN140 06/03 Q0992 NOSIG RMK WIND 2600FT 23013KT,
ENTC,1737109200,44.6,37.4,75.68,220.0,16.0,0.0,29.29,,6.21,,SCT,SCT,BKN,,4600.0,11000.0,14000.0,,,,,,,,,36.84,ENTC 171020Z 22016KT 9999 SCT046 SCT110 BKN140 07/03 Q0992 NOSIG RMK WIND 2600FT 23013KT,
ENTC,1737111000,42.8,37.4,81.07,230.0,12.0,0.0,29.29,,6.21,,SCT,BKN,,,1600.0,4300.0,,,-RA,,,,,,,35.75,ENTC 171050Z 23012KT 9999 -RA SCT016 BKN043 06/03 Q0992 TEMPO 7000 RA BKN014 RMK WIND 2600FT 20015KT,
ENTC,1737112800,42.8,37.4,81.07,190.0,12.0,0.0,29.26,,6.21,,SCT,BKN,,,1600.0,3600.0,,,-RA,,,,,,,35.75,ENTC 171120Z 19012KT 9999 -RA SCT016 BKN036 06/03 Q0991 TEMPO RA BKN014 RMK WIND 2600FT 20015KT,
ENTC,1737114600,42.8,37.4,81.07,190.0,13.0,0.0,29.26,,6.21,,SCT,BKN,,,1600.0,3600.0,,,-RA,,,,,,,35.4,ENTC 171150Z 19013KT 9999 -RA SCT016 BKN036 06/03 Q0991 TEMPO RA BKN014 RMK WIND 2600FT 20017KT,
ENTC,1737116400,41.0,37.4,86.89,210.0,14.0,0.0,29.23,,6.21,,SCT,BKN,,,1600.0,1900.0,,,-RA,,,,,,,32.76,ENTC 171220Z 21014KT 9999 -RA SCT016 BKN019 05/03 Q0990 TEMPO RA BKN014 RMK WIND 2600FT 19025KT,
ENTC,1737118200,41.0,39.2,93.24,200.0,14.0,0.0,29.21,,6.21,,SCT,BKN,,,1800.0,2500.0,,,-DZ,,,,,,,32.76,ENTC 171250Z 20014KT 9999 -DZ SCT018 BKN025 05/04 Q0989 TEMPO RA BKN014 RMK WIND 2600FT 19026KT,
ENTC,1737120000,41.0,37.4,86.89,200.0,15.0,0.0,29.18,,6.21,,SCT,BKN,,,1800.0,2500.0,,,-DZ,,,,,,,32.45,ENTC 171320Z 20015KT 9999 -DZ SCT018 BKN025 05/03 Q0988 TEMPO RA BKN014 RMK WIND 2600FT 18032KT,
ENTC,1737121800,41.0,37.4,86.89,190.0,15.0,0.0,29.15,,6.21,,SCT,BKN,,,1800.0,2500.0,,,-SHRA,,,,,,,32.45,ENTC 171350Z 19015KT 9999 -SHRA SCT018 BKN025 05/03 Q0987 TEMPO RA BKN014 RMK WIND 2600FT 18035KT,
ENTC,1737123600,41.0,39.2,93.24,180.0,16.0,0.0,29.12,,6.21,,SCT,BKN,BKN,,1700.0,2100.0,2800.0,,-RA,,,,,,,32.15,ENTC 171420Z 18016KT 9999 -RA SCT017 BKN021 BKN028 05/04 Q0986 TEMPO RA BKN014 RMK WIND 2600FT 19033KT,
ENTC,1737125400,42.8,37.4,81.07,180.0,18.0,0.0,29.12,,6.21,,FEW,BKN,,,800.0,2000.0,,,-SHRA,,,,,,,33.97,ENTC 171450Z 18018KT 9999 -SHRA FEW008 BKN020 06/03 Q0986 TEMPO 19018G28KT RA BKN009 RMK WIND 2600FT 19032KT,
ENTC,1737127200,42.8,39.2,86.99,210.0,20.0,0.0,29.09,,6.21,,FEW,BKN,,,1200.0,1900.0,,,-DZ,,,,,,,33.48,ENTC 171520Z 21020KT 170V240 9999 -DZ FEW012 BKN019 06/04 Q0985 TEMPO 19020G30KT RA BKN009 RMK WIND 2600FT 19037KT,
ENTC,1737129000,42.8,39.2,86.99,190.0,20.0,0.0,29.06,,6.21,,BKN,BKN,,,2100.0,2800.0,,,,,,,,,,33.48,ENTC 171550Z 19020KT 9999 BKN021 BKN028 06/04 Q0984 TEMPO 19020G30KT RA BKN009 RMK WIND 2600FT 20038G51KT,
ENTC,1737130800,42.8,39.2,86.99,180.0,15.0,0.0,29.03,,6.21,,SCT,BKN,BKN,,2300.0,2900.0,3800.0,,-DZ,,,,,,,34.78,ENTC 171620Z 18015KT 9999 -DZ SCT023 BKN029 BKN038 06/04 Q0983 TEMPO 19018G28KT RA BKN012 RMK WIND 2600FT 19032KT,
ENTC,1737132600,42.8,39.2,86.99,180.0,15.0,0.0,29.0,,6.21,,BKN,,,,2500.0,,,,,,,,,,,34.78,ENTC 171650Z 18015KT 9999 BKN025 06/04 Q0982 TEMPO 19018G28KT RA BKN012 RMK WIND 2600FT 19034KT,
ENTC,1737134400,42.8,37.4,81.07,180.0,15.0,0.0,29.0,,6.21,,BKN,,,,2500.0,,,,-RA,,,,,,,34.78,ENTC 171720Z 18015KT 9999 -RA BKN025 06/03 Q0982 TEMPO 19015G25KT RA BKN012 RMK WIND 2600FT 20035KT,
ENTC,1737136200,42.8,37.4,81.07,180.0,15.0,0.0,28.97,,6.21,,SCT,BKN,OVC,,2100.0,2500.0,3000.0,,-RA,,,,,,,34.78,ENTC 171750Z 18015KT 9999 -RA SCT021 BKN025 OVC030 06/03 Q0981 TEMPO 19015G25KT RA BKN012 RMK WIND 2600FT 19029KT,
ENTC,1737138000,44.6,37.4,75.68,190.0,22.0,0.0,28.97,,6.21,,SCT,BKN,,,1600.0,2900.0,,,-SHRA,,,,,,,35.45,ENTC 171820Z 19022KT 9999 -SHRA SCT016 BKN029 07/03 Q0981 RMK WIND 2600FT 20026KT,
ENTC,1737139800,42.8,35.6,75.5,220.0,22.0,0.0,28.97,,6.21,,FEW,SCT,BKN,,2700.0,4000.0,5400.0,,,,,,,,,33.04,ENTC 171850Z 22022KT 9999 FEW027 SCT040 BKN054 06/02 Q0981 RMK WIND 2600FT 20030G40KT,
ENTC,1737141600,42.8,37.4,81.07,200.0,18.0,0.0,28.97,,6.21,,BKN,,,,3100.0,,,,,,,,,,,33.97,ENTC 171920Z 20018KT 9999 BKN031 06/03 Q0981 RERA RMK WIND 2600FT 19035KT,
ENTC,1737143400,42.8,35.6,75.5,200.0,20.0,0.0,28.97,,6.21,,BKN,,,,2900.0,,,,,,,,,,,33.48,ENTC 171950Z 20020KT 9999 BKN029 06/02 Q0981 TEMPO 21020G30KT RA BKN012 RMK WIND 2600FT 18027KT,
ENTC,1737145200,41.0,35.6,80.93,200.0,18.0,0.0,28.97,,6.21,,FEW,OVC,,,2300.0,2900.0,,,,,,,,,,31.6,ENTC 172020Z 20018KT 9999 FEW023 OVC029 05/02 Q0981 TEMPO 23020G30KT RA BKN012 RMK WIND 2600FT 18029KT,
ENTC,1737147000,42.8,35.6,75.5,210.0,18.0,0.0,28.97,,6.21,,BKN,,,,2200.0,,,,-RA,,,,,,,33.97,ENTC 172050Z 21018KT 9999 -RA BKN022 06/02 Q0981 TEMPO 26020G30KT RA BKN012 RMK WIND 2600FT 19031KT,
ENTC,1737148800,41.0,35.6,80.93,210.0,23.0,0.0,28.97,,6.21,,BKN,,,,2200.0,,,,-RA,,,,,,,30.41,ENTC 172120Z 21023KT 9999 -RA BKN022 05/02 Q0981 TEMPO 26023G33KT RA BKN009 RMK WIND 2600FT 20023KT,
ENTC,1737150600,41.0,37.4,86.89,220.0,25.0,0.0,29.03,,4.97,,BKN,,,,3000.0,,,,-RA,,,,,,,30.0,ENTC 172150Z 22025KT 8000 -RA BKN030 05/03 Q0983 TEMPO 26025G335KT RA BKN009 RMK WIND 2600FT 25025KT,
ENTC,1737152400,39.2,35.6,86.79,260.0,18.0,0.0,29.06,,4.97,,BKN,,,,2300.0,,,,-RA,,,,,,,29.23,ENTC 172220Z 26018KT 8000 -RA BKN023 04/02 Q0984 RMK WIND 2600FT 26019G36KT,
ENTC,1737154200,39.2,35.6,86.79,210.0,12.0,0.0,29.09,,3.11,,BKN,,,,2800.0,,,,+DZRA,,,,,,,31.17,ENTC 172250Z 21012KT 150V290 5000 +DZRA BKN028 04/02 Q0985 RMK WIND 2600FT 29031G43KT,
ENTC,1737156000,41.0,37.4,86.89,260.0,22.0,0.0,29.12,,3.11,32.0,BKN,,,,2800.0,,,,+DZRA,,,,,,,30.63,ENTC 172320Z 26022G32KT 5000 +DZRA BKN028 05/03 Q0986 RMK WIND 2600FT 30035G49KT,
ENTC,1737157800,41.0,35.6,80.93,270.0,32.0,0.0,29.15,,3.11,46.0,///,,,,2600.0,,,,-RA SQ,,,,,,,28.74,ENTC 172350Z AUTO 27032G46KT 5000 -RA SQ ///026/// 05/02 Q0987 RMK WIND 2600FT 29035G47KT,
ENTC,1737159600,39.2,33.8,80.79,270.0,35.0,0.0,29.23,,2.8,48.0,///,,,,2100.0,,,,-RA,,,,,,,25.76,ENTC 180020Z AUTO 27035G48KT 4500 -RA ///021/// 04/01 Q0990 RMK WIND 2600FT 28038G49KT,
ENTC,1737161400,37.4,33.8,86.69,270.0,28.0,0.0,29.26,,2.42,,VV ,,,,1900.0,,,,-RA,,,,,,,24.5,ENTC 180050Z AUTO 27028KT 3900 -RA VV019 03/01 Q0991 RMK WIND 2600FT 27025KT,
ENTC,1737163200,37.4,32.0,80.65,250.0,21.0,0.0,29.32,,2.86,,VV ,,,,1700.0,,,,-RA,,,,,,,26.06,ENTC 180120Z AUTO 25021KT 4600 -RA VV017 03/00 Q0993 RMK WIND 2600FT 26034G49KT,
ENTC,1737165000,35.6,32.0,86.59,240.0,19.0,0.0,29.35,,3.73,31.0,VV ,,,,1600.0,,,,DZ,,,,,,,24.2,ENTC 180150Z AUTO 24019G31KT 6000 DZ VV016 02/M00 Q0994 RMK WIND 2600FT 26040G53KT,
ENTC,1737166800,35.6,30.2,80.51,250.0,24.0,0.0,29.38,,2.49,35.0,///,,,,2100.0,,,,+DZRA,,,,,,,22.92,ENTC 180220Z AUTO 25024G35KT 4000 +DZRA ///021/// 02/M01 Q0995 RMK WIND 2600FT 26042G62KT,
ENTC,1737168600,35.6,30.2,80.51,250.0,23.0,0.0,29.38,,3.04,35.0,///,,,,3000.0,,,,+DZRA,,,,,,,23.15,ENTC 180250Z AUTO 25023G35KT 4900 +DZRA ///030/// 02/M01 Q0995 RMK WIND 2600FT 26043G64KT,
ENTC,1737170400,33.8,30.2,86.49,240.0,24.0,0.0,29.41,,2.73,,///,,,,3000.0,,,,+DZRA,,,,,,,20.49,ENTC 180320Z AUTO 24024KT 4400 +DZRA ///030/// 01/M01 Q0996 RMK WIND 2600FT 26044G65KT,
ENTC,1737172200,35.6,30.2,80.51,240.0,23.0,0.0,29.41,,2.61,42.0,///,,,,2800.0,,,,+DZRA,,,,,,,23.15,ENTC 180350Z AUTO 24023G42KT 4200 +DZRA ///028/// 02/M01 Q0996 RMK WIND 2600FT 26038G56KT,
ENTC,1737174000,33.8,30.2,86.49,240.0,20.0,0.0,29.44,,3.11,,///,,,,2500.0,,,,+DZRA,,,,,,,21.53,ENTC 180420Z AUTO 24020KT 5000 +DZRA ///025/// 01/M01 Q0997 RMK WIND 2600FT 26039G58KT,
ENTC,1737175800,33.8,30.2,86.49,240.0,22.0,0.0,29.44,,2.3,,VV ,,,,1900.0,,,,-SN,,,,,,,20.99,ENTC 180450Z AUTO 24022KT 3700 -SN VV019 01/M01 Q0997 RMK WIND 2600FT 26042G68KT,
ENTC,1737177600,33.8,30.2,86.49,240.0,20.0,0.0,29.44,,2.8,,VV ,,,,1900.0,,,,-RASN,,,,,,,21.53,ENTC 180520Z 24020KT 4500 -RASN VV019 01/M01 Q0997 RMK WIND 2600FT 26041G54KT,
ENTC,1737179400,33.8,30.2,86.49,240.0,22.0,0.0,29.47,,4.35,,VV ,,,,1900.0,,,,SHRASN,,,,,,,20.99,ENTC 180550Z 24022KT 7000 SHRASN VV019 01/M01 Q0998 RMK WIND 2600FT 26036G48KT,
ENTC,1737181200,35.6,32.0,86.59,250.0,19.0,0.0,29.47,,4.35,,VV ,,,,1400.0,,,,SHRASN,,,,,,,24.2,ENTC 180620Z 25019KT 7000 SHRASN VV014 02/M00 Q0998 TEMPO 28025G35KT 2500 -SHSNRA VV012 RMK WIND 2600FT 28042G57KT,
ENTC,1737183000,35.6,32.0,86.59,260.0,20.0,0.0,29.5,,4.35,34.0,VV ,,,,1500.0,,,,-SHRASN,,,,,,,23.92,ENTC 180650Z 26020G34KT 7000 -SHRASN VV015 02/M00 Q0999 TEMPO 26018KT 2500 -SHSNRA VV012 RMK WIND 2600FT 28040KT,
ENTC,1737184800,37.4,32.0,80.65,270.0,28.0,0.0,29.53,,4.35,,VV ,,,,1500.0,,,,-SHRASN,,,,,,,24.5,ENTC 180720Z 27028KT 7000 -SHRASN VV015 03/M00 Q1000 TEMPO 26018KT 2500 -SHSNRA VV012 RMK WIND 2600FT 29039G51KT,
ENTC,1737186600,37.4,32.0,80.65,280.0,25.0,0.0,29.53,,2.61,,VV ,,,,1900.0,,,,-RA,,,,,,,25.12,ENTC 180750Z 28025KT 4200 -RA VV019 03/00 Q1000 TEMPO 2500 -SHSNRA VV012 RMK WIND 2600FT 30044KT,
ENTC,1737188400,37.4,32.0,80.65,280.0,25.0,0.0,29.56,,2.49,36.0,VV ,,,,1700.0,,,,-RA,,,,,,,25.12,ENTC 180820Z 28025G36KT 4000 -RA VV017 03/00 Q1001 TEMPO 2500 -SHSNRA VV012 RMK WIND 2600FT 30049G62KT,
ENTC,1737190200,37.4,32.0,80.65,280.0,25.0,0.0,29.59,,2.17,37.0,VV ,,,,1800.0,,,,-SHRA,,,,,,,25.12,ENTC 180850Z 28025G37KT 3500 -SHRA VV018 03/00 Q1002 TEMPO 2500 -SHSNRA VV012 RMK WIND 2600FT 30049G64KT,
ENTC,1737192000,37.4,32.0,80.65,280.0,24.0,0.0,29.59,,4.97,,FEW,BKN,,,1000.0,3000.0,,,-SHRA,,,,,,,25.34,ENTC 180920Z 28024KT 8000 -SHRA FEW010 BKN030 03/M00 Q1002 TEMPO 2500 -SHSNRA VV012 RMK WIND 2600FT 30042G55KT,
ENTC,1737193800,39.2,32.0,75.16,280.0,25.0,0.0,29.62,,4.97,,FEW,BKN,,,1000.0,3000.0,,,-SHRA,,,,,,,27.56,ENTC 180950Z 28025KT 8000 -SHRA FEW010 BKN030 04/M00 Q1003 TEMPO 2500 -SHSNRA VV012 RMK WIND 2600FT 29040G52KT,
ENTC,1737195600,39.2,30.2,69.88,270.0,26.0,0.0,29.62,,4.97,,FEW,BKN,,,1000.0,3000.0,,,-SHRA,,,,,,,27.36,ENTC 181020Z 27026KT 8000 -SHRA FEW010 BKN030 04/M01 Q1003 TEMPO 2500 -SHSNRA VV012 RMK WIND 2600FT 29033KT,
ENTC,1737197400,39.2,32.0,75.16,270.0,28.0,0.0,29.62,,6.21,,BKN,,,,3200.0,,,,-SHRA,,,,,,,26.97,ENTC 181050Z 27028KT 9999 -SHRA BKN032 04/M00 Q1003 TEMPO 2500 -SHSNRA VV012 RMK WIND 2600FT 29039G55KT,
ENTC,1737199200,37.4,32.0,80.65,270.0,25.0,0.0,29.65,,4.35,,BKN,,,,2400.0,,,,-RA,,,,,,,25.12,ENTC 181120Z 27025KT 7000 -RA BKN024 03/00 Q1004 TEMPO 3500 -SHSNRA VV012 RMK WIND 2600FT 28031G44KT,
ENTC,1737201000,35.6,32.0,86.59,270.0,26.0,0.0,29.68,,3.11,,VV ,,,,1700.0,,,,-RA,,,,,,,22.47,ENTC 181150Z 27026KT 5000 -RA VV017 02/00 Q1005 TEMPO 3500 -SHSNRA VV012 RMK WIND 2600FT 31038KT,
ENTC,1737202800,37.4,32.0,80.65,270.0,19.0,0.0,29.71,,6.21,,VV ,,,,1700.0,,,,-RA,,,,,,,26.58,ENTC 181220Z 27019KT 9999 -RA VV017 03/00 Q1006 TEMPO 3500 -SHSNRA VV012 RMK WIND 2600FT 31033KT,
ENTC,1737204600,37.4,33.8,86.69,260.0,11.0,0.0,29.71,,6.21,,FEW,SCT,BKN,,1800.0,3100.0,4200.0,,-RA,,,,,,,29.29,ENTC 181250Z 26011KT 9999 -RA FEW018 SCT031 BKN042 03/01 Q1006 TEMPO 3500 -SHSNRA VV012 RMK WIND 2600FT 31035G46KT,
ENTC,1737206400,37.4,33.8,86.69,290.0,12.0,0.0,29.71,,4.35,,SCT,BKN,,,1800.0,3100.0,,,-RA,,,,,,,28.87,ENTC 181320Z 29012KT 7000 -RA SCT018 BKN031 03/01 Q1006 TEMPO 3500 -SHSNRA VV012 RMK WIND 2600FT 32029KT,
ENTC,1737208200,37.4,33.8,86.69,270.0,11.0,0.0,29.74,,6.21,,FEW,SCT,BKN,,800.0,1800.0,3100.0,,-DZRA,,,,,,,29.29,ENTC 181350Z 27011KT 9999 -DZRA FEW008 SCT018 BKN031 03/01 Q1007 TEMPO 3500 -SHSNRA VV012 RMK WIND 2600FT 31028KT,
ENTC,1737210000,35.6,32.0,86.59,270.0,15.0,0.0,29.74,,6.21,,FEW,BKN,,,800.0,2600.0,,,-SHRA,,,,,,,25.45,ENTC 181420Z 27015KT 9999 -SHRA FEW008 BKN026 02/00 Q1007 TEMPO 3500 -SHSNRA VV012 RMK WIND 2600FT 32024KT,
ENTC,1737211800,33.8,32.0,93.03,270.0,16.0,0.0,29.74,,5.59,,SCT,BKN,,,1000.0,2100.0,,,-SHRASN,,,,,,,22.76,ENTC 181450Z 27016KT 9000 -SHRASN SCT010 BKN021 01/00 Q1007 TEMPO 3500 -SHSNRA VV012 RMK WIND 2600FT 32017KT,
ENTC,1737213600,33.8,32.0,93.03,200.0,7.0,0.0,29.77,,6.21,,FEW,SCT,BKN,,700.0,1500.0,2200.0,,-SHSNRA,,,,,,,26.97,ENTC 181520Z 20007KT 170V250 9999 -SHSNRA FEW007 SCT015 BKN022 01/M00 Q1008 TEMPO 1000 SHSN BKN008 SCT020CB RMK WIND 2600FT 32019KT,
ENTC,1737215400,33.8,32.0,93.03,180.0,4.0,0.0,29.77,,6.21,,FEW,SCT,BKN,,700.0,1500.0,2200.0,,-SHSNRA,,,,,,,29.52,ENTC 181550Z 18004KT 9999 -SHSNRA FEW007 SCT015 BKN022 01/M00 Q1008 TEMPO 1000 SHSN BKN008 SCT020CB RMK WIND 2600FT 30012KT,
ENTC,1737217200,33.8,32.0,93.03,,3.0,0.0,29.77,,3.73,,FEW,SCT,BKN,,700.0,1500.0,2200.0,,-SHSNRA,,,,,,,30.75,ENTC 181620Z VRB03KT 6000 -SHSNRA FEW007 SCT015 BKN022 01/M00 Q1008 TEMPO 1000 SHSN BKN008 SCT020CB RMK WIND 2600FT 32012KT,
ENTC,1737219000,32.0,32.0,100.0,200.0,4.0,0.0,29.77,,3.73,,VV ,,,,1700.0,,,,-SHSNRA,,,,,,,27.42,ENTC 181650Z 20004KT 6000 -SHSNRA VV017 00/M00 Q1008 TEMPO 1000 SHSN BKN008 SCT020CB RMK WIND 2600FT 30009KT,
ENTC,1737220800,32.0,32.0,100.0,190.0,3.0,0.0,29.77,,3.73,,VV ,,,,1400.0,,,,-SHSNRA,,,,,,,28.69,ENTC 181720Z 19003KT 150V210 6000 -SHSNRA VV014 00/M00 Q1008 TEMPO 1000 SHSN BKN008 SCT020CB RMK WIND 2600FT 28005KT,
ENTC,1737222600,32.0,30.2,92.97,0.0,0.0,0.0,29.77,,3.11,,VV ,,,,1300.0,,,,-SHSNRA,,,,,,,32.0,ENTC 181750Z 00000KT 5000 -SHSNRA VV013 00/M01 Q1008 TEMPO 1000 SHSN BKN008 SCT020CB RMK WIND 2600FT 32009KT,
ENTC,1737224400,32.0,30.2,92.97,,2.0,0.0,29.74,,0.62,,VV ,,,,1100.0,,,,-SN,,,,,,,32.0,ENTC 181820Z VRB02KT 1000 R36/P2000N R18/P2000N -SN VV011 00/M01 Q1007 TEMPO 9999 NSW BKN020 RMK WIND 2600FT VRB02KT,
ENTC,1737226200,32.0,30.2,92.97,,2.0,0.0,29.74,,1.43,,VV ,,,,1200.0,,,,-SN,,,,,,,32.0,ENTC 181850Z VRB02KT 2300 -SN VV012 00/M01 Q1007 TEMPO 1000 SHSN BKN008 SCT020CB RMK WIND 2600FT 04005KT,
ENTC,1737228000,32.0,30.2,92.97,190.0,8.0,0.0,29.74,,3.11,,VV ,,,,1000.0,,,,-SHSN,,,,,,,24.11,ENTC 181920Z 19008KT 5000 -SHSN VV010 00/M01 Q1007 RMK WIND 2600FT 05002KT,
ENTC,1737229800,32.0,30.2,92.97,200.0,2.0,0.0,29.74,,0.62,,VV ,,,,800.0,,,,-SHSN,,,,,,,32.0,ENTC 181950Z 20002KT 1000 -SHSN VV008 00/M01 Q1007 RMK WIND 2600FT 36004KT,
ENTC,1737231600,32.0,30.2,92.97,180.0,3.0,0.0,29.74,,0.93,,VV ,,,,700.0,,,,-SHSN,,,,,,,28.69,ENTC 182020Z 18003KT 1500 -SHSN VV007 M00/M01 Q1007 RMK WIND 2600FT 00000KT,
ENTC,1737233400,32.0,30.2,92.97,0.0,0.0,0.0,29.74,,0.34,,VV ,,,,700.0,,,,SN,,,,,,,32.0,ENTC 182050Z 00000KT 0550 R36/P2000D R18/1800D SN VV007 M00/M01 Q1007 RMK WIND 2600FT VRB02KT,
ENTC,1737235200,32.0,30.2,92.97,190.0,5.0,0.0,29.74,,0.81,,VV ,,,,900.0,,,,-SN,,,,,,,26.4,ENTC 182120Z AUTO 19005KT 1300 R36/P2000N R18/P2000N -SN VV009 00/M01 Q1007 RMK WIND 2600FT 17005KT,
ENTC,1737238800,32.0,30.2,92.97,180.0,11.0,0.0,29.71,,6.21,,FEW,SCT,BKN,,1400.0,1800.0,2200.0,,-SHSN,,,,,,,22.47,COR ENTC 182220Z 18011KT 9999 -SHSN FEW014 SCT018 BKN022 00/M01 Q1006 RMK WIND 2600FT 18013KT,
ENTC,1737240600,32.0,30.2,92.97,180.0,12.0,0.0,29.71,,6.21,,FEW,SCT,BKN,,1300.0,1800.0,3700.0,,-SHSN,,,,,,,22.0,ENTC 182250Z 18012KT 9999 -SHSN FEW013 SCT018 BKN037 00/M01 Q1006 RMK WIND 2600FT 19013KT,
ENTC,1737242400,32.0,30.2,92.97,190.0,11.0,0.0,29.71,,4.97,,FEW,SCT,BKN,,500.0,1700.0,2800.0,,-SHSN,,,,,,,22.47,ENTC 182320Z 19011KT 8000 -SHSN FEW005 SCT017 BKN028 00/M01 Q1006 RMK WIND 2600FT 18012KT,
ENTC,1737244200,32.0,30.2,92.97,190.0,12.0,0.0,29.68,,6.21,,FEW,SCT,BKN,,1100.0,1800.0,3400.0,,-SHSN,,,,,,,22.0,ENTC 182350Z 19012KT 9999 -SHSN FEW011 SCT018 BKN034 00/M01 Q1005 RMK WIND 2600FT 18014KT,
ENTC,1737246000,32.0,30.2,92.97,190.0,12.0,0.0,29.68,,5.59,,FEW,SCT,BKN,,1600.0,2200.0,3600.0,,-SHSN,,,,,,,22.0,ENTC 190020Z 19012KT 9000 -SHSN FEW016 SCT022 BKN036 00/M01 Q1005 RMK WIND 2600FT 18014KT,
ENTC,1737247800,32.0,30.2,92.97,190.0,12.0,0.0,29.68,,5.59,,FEW,BKN,,,1700.0,3100.0,,,-SHSN,,,,,,,22.0,ENTC 190050Z 19012KT 9000 -SHSN FEW017 BKN031 00/M01 Q1005 RMK WIND 2600FT 17013KT,
ENTC,1737249600,32.0,30.2,92.97,200.0,10.0,0.0,29.65,,6.21,,FEW,SCT,BKN,,800.0,1600.0,3200.0,,-SHSN,,,,,,,22.97,ENTC 190120Z 20010KT 9999 -SHSN FEW008 SCT016 BKN032 00/M01 Q1004 RMK WIND 2600FT 19011KT,
ENTC,1737251400,32.0,30.2,92.97,220.0,8.0,0.0,29.65,,1.8,,SCT,BKN,BKN,,500.0,1700.0,2500.0,,-SN,,,,,,,24.11,ENTC 190150Z AUTO 22008KT 2900 -SN SCT005/// BKN017/// BKN025/// 00/M01 Q1004 RMK WIND 2600FT 18010KT,
ENTC,1737253200,32.0,30.2,92.97,220.0,9.0,0.0,29.65,,1.49,,SCT,BKN,BKN,,500.0,600.0,800.0,,-SN,,,,,,,23.51,ENTC 190220Z AUTO 22009KT 2400 -SN SCT005/// BKN006/// BKN008/// 00/M01 Q1004 RMK WIND 2600FT 20010KT,
ENTC,1737255000,32.0,30.2,92.97,180.0,9.0,0.0,29.62,,4.35,,BKN,BKN,OVC,,500.0,800.0,2400.0,,-SN,,,,,,,23.51,ENTC 190250Z AUTO 18009KT 7000 -SN BKN005/// BKN008/// OVC024/// 00/M01 Q1003 RMK WIND 2600FT 20008KT,
ENTC,1737256800,32.0,30.2,92.97,190.0,8.0,0.0,29.62,,3.11,,SCT,BKN,BKN,,500.0,1700.0,4100.0,,-SN,,,,,,,24.11,ENTC 190320Z AUTO 19008KT 5000 -SN SCT005/// BKN017/// BKN041/// 00/M01 Q1003 RMK WIND 2600FT 22008KT,
ENTC,1737258600,32.0,30.2,92.97,180.0,6.0,0.0,29.62,,2.42,,///,,,,2600.0,,,,-SN,,,,,,,25.53,ENTC 190350Z AUTO 18006KT 3900 -SN ///026/// M00/M01 Q1003 RMK WIND 2600FT 24008KT,
ENTC,1737260400,32.0,30.2,92.97,190.0,5.0,0.0,29.59,,2.11,,BKN,BKN,BKN,,500.0,900.0,1900.0,,-SN,,,,,,,26.4,ENTC 190420Z AUTO 19005KT 3400 -SN BKN005/// BKN009/// BKN019/// 00/M01 Q1002 RMK WIND 2600FT 25008KT,
ENTC,1737262200,32.0,30.2,92.97,210.0,7.0,0.0,29.59,,1.8,,FEW,SCT,BKN,,400.0,1800.0,2300.0,,-SN,,,,,,,24.78,ENTC 190450Z 21007KT 2900 -SN FEW004 SCT018 BKN023 M00/M01 Q1002 RMK WIND 2600FT 24009KT,
ENTC,1737264000,32.0,30.2,92.97,210.0,6.0,0.0,29.59,,2.3,,FEW,SCT,BKN,,500.0,1000.0,3100.0,,-SN,,,,,,,25.53,ENTC 190520Z 21006KT 3700 -SN FEW005 SCT010 BKN031 M00/M01 Q1002 RMK WIND 2600FT 25009KT,
ENTC,1737265800,32.0,30.2,92.97,230.0,4.0,0.0,29.59,,2.49,,VV ,,,,1600.0,,,,-SHSN,,,,,,,27.42,ENTC 190550Z 23004KT 4000 -SHSN VV016 M00/M01 Q1002 RMK WIND 2600FT 31007KT,
ENTC,1737267600,32.0,30.2,92.97,10.0,4.0,0.0,29.62,,1.86,,VV ,,,,1000.0,,,,-SHSN,,,,,,,27.42,ENTC 190620Z 01004KT 330V050 3000 -SHSN VV010 M00/M01 Q1003 RMK WIND 2600FT 36033KT,
ENTC,1737269400,30.2,28.4,92.92,350.0,10.0,0.0,29.62,,1.43,,VV ,,,,1200.0,,,,-SN,,,,,,,20.71,ENTC 190650Z 35010KT 2300 -SN VV012 M01/M02 Q1003 RMK WIND 2600FT 36036KT,
ENTC,1737271200,30.2,28.4,92.92,360.0,18.0,0.0,29.65,,0.62,,VV ,,,,1000.0,,,,SN,,,,,,,17.38,ENTC 190720Z 36018KT 1000 R36/P2000N R18/P2000N SN VV010 M01/M02 Q1004 RMK WIND 2600FT 36031KT,
ENTC,1737273000,30.2,28.4,92.92,20.0,12.0,0.0,29.68,,6.21,,SCT,BKN,,,1100.0,2700.0,,,-SN,,,,,,,19.71,ENTC 190750Z 02012KT 9999 -SN SCT011 BKN027 M01/M02 Q1005 RMK WIND 2600FT 36034KT,
ENTC,1737274800,30.2,26.6,86.28,40.0,12.0,0.0,29.71,,6.21,,SCT,BKN,,,3100.0,7300.0,,,-SN,,,,,,,19.71,ENTC 190820Z 04012KT 9999 -SN SCT031 BKN073 M01/M03 Q1006 TEMPO 2000 -SHSN VV009 RMK WIND 2600FT 35033KT,
ENTC,1737276600,30.2,24.8,80.07,10.0,7.0,0.0,29.74,,2.49,19.0,VV ,,,,1100.0,,,,-SHSN,,,,,,,22.59,ENTC 190850Z 01007G19KT 320V050 4000 -SHSN VV011 M01/M04 Q1007 RMK WIND 2600FT 35034KT,
ENTC,1737278400,30.2,26.6,86.28,10.0,10.0,0.0,29.77,,2.49,,VV ,,,,1400.0,,,,-SHSN,,,,,,,20.71,ENTC 190920Z 01010KT 350V050 4000 -SHSN VV014 M01/M03 Q1008 TEMPO 2000 -SHSN VV009 RMK WIND 2600FT 35046G56KT,
ENTC,1737280200,30.2,24.8,80.07,350.0,16.0,0.0,29.8,,6.21,,FEW,SCT,BKN,,900.0,1700.0,2300.0,,-SHSN,,,,,,,18.07,ENTC 190950Z 35016KT 9999 -SHSN FEW009 SCT017 BKN023 M01/M04 Q1009 TEMPO 2000 -SHSN VV009 RMK WIND 2600FT 35044KT,
ENTC,1737282000,30.2,23.0,74.26,340.0,15.0,0.0,29.83,,5.59,,BKN,,,,2000.0,,,,-SHSN,,,,,,,18.45,ENTC 191020Z 34015KT 9000 -SHSN BKN020 M01/M05 Q1010 RMK WIND 2600FT 34041KT,
ENTC,1737283800,30.2,23.0,74.26,330.0,13.0,0.0,29.85,,4.97,,BKN,,,,2000.0,,,,-SHSN,,,,,,,19.26,ENTC 191050Z 33013KT 8000 -SHSN BKN020 M01/M05 Q1011 TEMPO 2000 SHSN VV009 RMK WIND 2600FT 33035KT,
ENTC,1737285600,28.4,23.0,79.92,330.0,15.0,0.0,29.88,,3.73,,BKN,,,,2600.0,,,,-SHSN,,,,,,,16.11,ENTC 191120Z 33015KT 6000 -SHSN BKN026 M02/M05 Q1012 TEMPO 1000 SHSN VV007 RMK WIND 2600FT 33036KT,
ENTC,1737287400,28.4,21.2,74.08,330.0,15.0,0.0,29.88,,4.35,,BKN,,,,3600.0,,,,-SN,,,,,,,16.11,COR ENTC 191150Z 33015KT 7000 -SN BKN036 M02/M06 Q1012 TEMPO 2000 -SHSN VV009 RMK WIND 2600FT 33042KT,
ENTC,1737289200,26.6,19.4,73.89,320.0,14.0,0.0,29.94,,3.11,,FEW,BKN,,,1000.0,2000.0,,,SHSN,,,,,,,14.2,ENTC 191220Z 32014KT 5000 SHSN FEW010 BKN020 M03/M07 Q1014 TEMPO 2000 -SHSN VV009 RMK WIND 2600FT 32039KT,
ENTC,1737291000,26.6,17.6,68.4,300.0,18.0,0.0,29.94,,6.21,,FEW,BKN,,,2000.0,3000.0,,,-SN,,,,,,,12.64,ENTC 191250Z 30018KT 9999 -SN FEW020 BKN030 M03/M08 Q1014 TEMPO 2000 -SHSN VV009 RMK WIND 2600FT 32039G50KT,
ENTC,1737292800,26.6,19.4,73.89,320.0,14.0,0.0,29.97,,3.73,,BKN,,,,2600.0,,,,-SN,,,,,,,14.2,ENTC 191320Z 32014KT 300V360 6000 -SN BKN026 M03/M07 Q1015 TEMPO 1000 SHSN VV007 RMK WIND 2600FT 33039KT,
ENTC,1737294600,24.8,19.4,79.62,320.0,15.0,0.0,30.0,,1.68,,BKN,,,,2600.0,,,,-SN,,,,,,,11.45,ENTC 191350Z 32015KT 2700 -SN BKN026 M04/M07 Q1016 TEMPO 1000 SHSN VV007 RMK WIND 2600FT 33038G51KT,
ENTC,1737296400,26.6,14.0,58.49,320.0,16.0,0.0,30.0,,1.24,,FEW,SCT,BKN,,2600.0,4100.0,6400.0,,-SHSNGS,,,,,,,13.38,ENTC 191420Z 32016KT 2000 -SHSNGS FEW026 SCT041 BKN064CB M03/M10 Q1016 TEMPO 1000 SHSN VV007 RMK WIND 2600FT 34045KT,
ENTC,1737298200,23.0,19.4,85.85,330.0,13.0,0.0,30.03,,4.35,,VV ,,,,1500.0,,,,-SHSNGS SQ,,,,,,,10.04,ENTC 191450Z 33013KT 7000 -SHSNGS SQ VV015 M05/M07 Q1017 TEMPO 1000 SHSN VV007 RMK WIND 2600FT 33042KT,
ENTC,1737300000,24.8,14.0,63.03,330.0,14.0,0.0,30.03,,6.21,,FEW,SCT,BKN,,3100.0,4200.0,7100.0,,,,,,,,,11.88,ENTC 191520Z 33014KT 9999 FEW031 SCT042 BKN071 M04/M10 Q1017 TEMPO 1000 SHSNGS VV007 RMK WIND 2600FT 33041KT,
ENTC,1737301800,24.8,14.0,63.03,310.0,15.0,0.0,30.06,,2.05,,VV ,,,,1500.0,,,,-SN,,,,,,,11.45,ENTC 191550Z 31015KT 3300 -SN VV015 M04/M10 Q1018 RESN RESG TEMPO 1000 SHSNGS VV007 RMK WIND 2600FT 31033KT,
ENTC,1737303600,24.8,15.8,68.18,330.0,13.0,0.0,30.06,,6.21,,FEW,SCT,,,700.0,1700.0,,,,,,,,,,12.34,ENTC 191620Z 33013KT 9999 FEW007 SCT017 M04/M09 Q1018 TEMPO 1000 SHSNGS VV007 RMK WIND 2600FT 33038KT,
ENTC,1737305400,24.8,12.2,58.22,310.0,15.0,0.0,30.06,,6.21,,FEW,SCT,,,2900.0,6000.0,,,,,,,,,,11.45,ENTC 191650Z 31015KT 9999 FEW029 SCT060 M04/M11 Q1018 TEMPO 1000 SHSNGS VV007 RMK WIND 2600FT 31034KT,
ENTC,1737307200,24.8,12.2,58.22,290.0,12.0,0.0,30.09,,6.21,,SCT,BKN,,,3400.0,6000.0,,,,,,,,,,12.84,ENTC 191720Z 29012KT 9999 SCT034 BKN060 M04/M11 Q1019 RESN TEMPO 31020G30KT 0800 SHSNGS VV005 RMK WIND 2600FT 33037KT,
ENTC,1737309000,24.8,14.0,63.03,310.0,19.0,0.0,30.09,,6.21,,SCT,BKN,,,4400.0,6000.0,,,-SN,,,,,,,9.92,ENTC 191750Z 31019KT 9999 -SN SCT044 BKN060 M04/M10 Q1019 TEMPO 31020G30KT 0800 SHSNGS VV005 RMK WIND 2600FT 34043KT,
ENTC,1737310800,24.8,14.0,63.03,330.0,11.0,0.0,30.12,,6.21,,FEW,SCT,BKN,,1400.0,3100.0,8300.0,,,,,,,,,13.37,ENTC 191820Z 33011KT 300V010 9999 FEW014 SCT031 BKN083 M04/M10 Q1020 TEMPO 31020G30KT 0800 SHSNGS VV005 RMK WIND 2600FT 32037KT,
ENTC,1737312600,23.0,17.6,79.47,290.0,11.0,0.0,30.12,,6.21,,BKN,,,,2500.0,,,,VCSH,,,,,,,11.09,ENTC 191850Z 29011KT 9999 VCSH BKN025 M05/M08 Q1020 TEMPO 31020G30KT 0800 SHSNGS VV005 RMK WIND 2600FT 32036KT,
ENTC,1737314400,24.8,12.2,58.22,300.0,17.0,0.0,30.12,,6.21,,FEW,BKN,,,1200.0,2400.0,,,-SN,,,,,,,10.64,ENTC 191920Z 30017KT 9999 -SN FEW012 BKN024 M04/M11 Q1020 RESN TEMPO 31020G30KT 0800 SHSNGS VV005 RMK WIND 2600FT 32032KT,
ENTC,1737316200,23.0,14.0,67.96,270.0,9.0,0.0,30.12,,6.21,,SCT,,,,4400.0,,,,,,,,,,,12.32,ENTC 191950Z 27009KT 240V340 9999 SCT044 M05/M10 Q1020 TEMPO 31025G35KT 0500 SHSNGS BLSN VV004 RMK WIND 2600FT 30030KT,
ENTC,1737318000,24.8,14.0,63.03,310.0,13.0,0.0,30.12,,6.21,25.0,SCT,BKN,,,2200.0,4400.0,,,,,,,,,,12.34,ENTC 192020Z 31013G25KT 9999 SCT022 BKN044 M04/M10 Q1020 TEMPO 31025G35KT BLSN BECMG 0500 SHSNGS VV004 RMK WIND 2600FT 32031KT,
ENTC,1737319800,23.0,19.4,85.85,10.0,11.0,0.0,30.15,,1.24,,VV ,,,,1200.0,,,,-SHSN,,,,,,,11.09,ENTC 192050Z 01011KT 2000 -SHSN VV012 M05/M07 Q1021 BECMG 0500 SHSNGS VV004 RMK WIND 2600FT 36020KT,
ENTC,1737321600,21.2,17.6,85.74,360.0,13.0,0.0,30.18,,4.97,,VV ,,,,1200.0,,,,-SHSN,,,,,,,7.73,ENTC 192120Z 36013KT 8000 -SHSN VV012 M06/M08 Q1022 BECMG SCT012CB RMK WIND 2600FT 02023KT,
ENTC,1737323400,21.2,17.6,85.74,360.0,12.0,0.0,30.18,,4.97,,VV ,,,,1200.0,,,,-SHSN,,,,,,,8.26,ENTC 192150Z 36012KT 8000 -SHSN VV012 M06/M08 Q1022 BECMG SCT012CB RMK WIND 2600FT 36025KT,
ENTC,1737325200,21.2,17.6,85.74,10.0,11.0,0.0,30.18,,6.21,,FEW,SCT,OVC,,2400.0,3200.0,4400.0,,,,,,,,,8.82,ENTC 192220Z 01011KT 9999 FEW024 SCT032 OVC044 M06/M08 Q1022 RMK WIND 2600FT 01017KT,
ENTC,1737327000,21.2,15.8,79.31,40.0,8.0,0.0,30.21,,6.21,,SCT,BKN,,,3800.0,4700.0,,,,,,,,,,10.81,ENTC 192250Z 04008KT 010V070 9999 SCT038 BKN047 M06/M09 Q1023 RESN RMK WIND 2600FT 02019KT,
ENTC,1737328800,21.2,12.2,67.73,20.0,7.0,0.0,30.21,,6.21,,FEW,SCT,,,4800.0,5800.0,,,,,,,,,,11.61,ENTC 192320Z AUTO 02007KT 9999 FEW048/// SCT058/// M06/M11 Q1023 RMK WIND 2600FT 02016KT,
ENTC,1737330600,21.2,12.2,67.73,360.0,9.0,0.0,30.24,,6.21,,BKN,BKN,BKN,,4800.0,5600.0,7700.0,,,,,,,,,10.08,ENTC 192350Z AUTO 36009KT 9999 BKN048/// BKN056/// BKN077/// M06/M11 Q1024 RMK WIND 2600FT 02016KT,
ENTC,1737332400,21.2,10.4,62.53,40.0,5.0,0.0,30.24,,3.11,,BKN,OVC,,,4200.0,4900.0,,,HZ,,,,,,,13.57,ENTC 200020Z AUTO 04005KT 360V070 5000 HZ BKN042/// OVC049/// M06/M12 Q1024 RMK WIND 2600FT 02016KT,
ENTC,1737334200,21.2,10.4,62.53,30.0,5.0,0.0,30.24,,6.21,,SCT,OVC,,,3900.0,4900.0,,,,,,,,,,13.57,ENTC 200050Z AUTO 03005KT 9999 SCT039/// OVC049/// M06/M12 Q1024 RMK WIND 2600FT 03014KT,
ENTC,1737336000,23.0,12.2,62.78,50.0,5.0,0.0,30.27,,6.21,,FEW,SCT,BKN,,3200.0,4000.0,4900.0,,,,,,,,,15.71,ENTC 200120Z AUTO 05005KT 9999 FEW032/// SCT040/// BKN049/// M05/M11 Q1025 RMK WIND 2600FT 03013KT,
ENTC,1737337800,21.2,12.2,67.73,,2.0,0.0,30.27,,6.21,,FEW,SCT,,,3500.0,4300.0,,,,,,,,,,21.2,ENTC 200150Z AUTO VRB02KT 9999 FEW035/// SCT043/// M06/M11 Q1025 RMK WIND 2600FT 03014KT,
ENTC,1737339600,19.4,12.2,73.13,,3.0,0.0,30.27,,6.21,,FEW,BKN,BKN,,4000.0,6000.0,7000.0,,,,,,,,,14.28,ENTC 200220Z AUTO VRB03KT 9999 FEW040/// BKN060/// BKN070/// M07/M11 Q1025 RMK WIND 2600FT 03010KT,
ENTC,1737341400,21.2,12.2,67.73,40.0,8.0,0.0,30.3,,6.21,,SCT,BKN,OVC,,3700.0,4500.0,5800.0,,,,,,,,,10.81,ENTC 200250Z AUTO 04008KT 010V070 9999 SCT037/// BKN045/// OVC058/// M06/M11 Q1026 RMK WIND 2600FT 03013KT,
ENTC,1737343200,21.2,15.8,79.31,60.0,5.0,0.0,30.3,,2.92,,VV ,,,,1800.0,,,,-SN,,,,,,,13.57,ENTC 200320Z AUTO 06005KT 4700 -SN VV018 M06/M09 Q1026 RMK WIND 2600FT 02010KT,
ENTC,1737345000,21.2,14.0,73.32,70.0,3.0,0.0,30.3,,6.21,,FEW,SCT,BKN,,2000.0,2400.0,3100.0,,,,,,,,,16.34,ENTC 200350Z AUTO 07003KT 9999 FEW020/// SCT024/// BKN031/// M06/M10 Q1026 RESN RMK WIND 2600FT 01010KT,
ENTC,1737346800,21.2,14.0,73.32,40.0,7.0,0.0,30.3,,6.21,,FEW,SCT,BKN,,800.0,1600.0,2500.0,,-SHSN,,,,,,,11.61,ENTC 200420Z 04007KT 9999 -SHSN FEW008 SCT016 BKN025 M06/M10 Q1026 RMK WIND 2600FT 03011KT,
ENTC,1737348600,21.2,15.8,79.31,10.0,4.0,0.0,30.33,,1.18,,VV ,,,,1600.0,,,,SHSN,,,,,,,14.81,ENTC 200450Z 01004KT 1900 SHSN VV016 M06/M09 Q1027 RMK WIND 2600FT 02012KT,
ENTC,1737350400,19.4,17.6,92.57,360.0,5.0,0.0,30.33,,1.3,,BKN,,,,3100.0,,,,-SN,,,,,,,11.43,ENTC 200520Z 36005KT 2100 -SN BKN031 M07/M08 Q1027 RMK WIND 2600FT 03010KT,
ENTC,1737352200,19.4,15.8,85.63,340.0,3.0,0.0,30.33,,6.21,,BKN,,,,1800.0,,,,-SHSN,,,,,,,14.28,ENTC 200550Z 34003KT 9999 -SHSN BKN018 M07/M09 Q1027 RMK WIND 2600FT 04010KT,
ENTC,1737354000,17.6,14.0,85.51,,2.0,0.0,30.36,,6.21,,SCT,,,,6500.0,,,,,,,,,,,17.6,ENTC 200620Z VRB02KT 9999 SCT065 M08/M10 Q1028 TEMPO 2000 SHSN BKN012 FEW020CB RMK WIND 2600FT 04010KT,
ENTC,1737355800,17.6,14.0,85.51,,1.0,0.0,30.36,,6.21,,FEW,SCT,,,3800.0,7300.0,,,,,,,,,,17.6,ENTC 200650Z VRB01KT 9999 FEW038 SCT073 M08/M10 Q1028 TEMPO 2000 SHSN BKN012 FEW020CB RMK WIND 2600FT 05010KT,
ENTC,1737357600,15.8,12.2,85.4,40.0,3.0,0.0,30.36,,6.21,,FEW,SCT,,,7300.0,8600.0,,,,,,,,,,10.17,ENTC 200720Z 04003KT 9999 FEW073 SCT086 M09/M11 Q1028 TEMPO 2000 SHSN BKN012 FEW020CB RMK WIND 2600FT 05010KT,
ENTC,1737359400,15.8,12.2,85.4,,2.0,0.0,30.39,,6.21,,FEW,SCT,,,1900.0,2500.0,,,,,,,,,,15.8,ENTC 200750Z VRB02KT 9999 FEW019 SCT025 M09/M11 Q1029 TEMPO 2000 SHSN VV009 RMK WIND 2600FT 06009KT,
ENTC,1737361200,15.8,12.2,85.4,,2.0,0.0,30.39,,6.21,,FEW,SCT,,,900.0,1600.0,,,VCSH,,,,,,,15.8,ENTC 200820Z VRB02KT 9999 VCSH FEW009 SCT016 M09/M11 Q1029 TEMPO 2000 SHSN VV009 RMK WIND 2600FT 08005KT,
ENTC,1737363000,15.8,12.2,85.4,60.0,4.0,0.0,30.39,,6.21,,FEW,,,,600.0,,,,,,,,,,,8.5,ENTC 200850Z 06004KT 030V090 9999 FEW006 M09/M11 Q1029 NOSIG RMK WIND 2600FT 05009KT,
ENTC,1737364800,15.8,12.2,85.4,90.0,3.0,0.0,30.39,,6.21,,FEW,,,,600.0,,,,,,,,,,,10.17,ENTC 200920Z 09003KT 040V120 9999 FEW006 M09/M11 Q1029 NOSIG RMK WIND 2600FT 04010KT,
ENTC,1737366600,15.8,12.2,85.4,100.0,4.0,0.0,30.42,,6.21,,FEW,,,,1000.0,,,,VCSH,,,,,,,8.5,ENTC 200950Z 10004KT 040V110 9999 VCSH FEW010 M09/M11 Q1030 NOSIG RMK WIND 2600FT 05009KT,
ENTC,1737368400,14.0,10.4,85.28,,3.0,0.0,30.42,,6.21,,FEW,,,,3100.0,,,,,,,,,,,8.11,ENTC 201020Z VRB03KT 9999 FEW031 M10/M12 Q1030 RMK WIND 2600FT 04007KT,
ENTC,1737370200,14.0,12.2,92.38,40.0,4.0,0.0,30.42,,6.21,,FEW,,,,3000.0,,,,,,,,,,,6.4,ENTC 201050Z 04004KT 020V080 9999 FEW030 M10/M11 Q1030 NOSIG RMK WIND 2600FT 06007KT,
ENTC,1737372000,14.0,10.4,85.28,360.0,1.0,0.0,30.42,,6.21,,FEW,,,,1200.0,,,,,,,,,,,14.0,ENTC 201120Z 36001KT 9999 FEW012 M10/M12 Q1030 NOSIG RMK WIND 2600FT 06007KT,
ENTC,1737373800,14.0,10.4,85.28,,2.0,0.0,30.45,,6.21,,FEW,,,,3500.0,,,,,,,,,,,14.0,ENTC 201150Z VRB02KT 9999 FEW035 M10/M12 Q1031 NOSIG RMK WIND 2600FT 09004KT,
ENTC,1737375600,14.0,12.2,92.38,,3.0,0.0,30.45,,6.21,,FEW,SCT,,,2100.0,2700.0,,,VCSH,,,,,,,8.11,ENTC 201220Z VRB03KT 9999 VCSH FEW021 SCT027 M10/M11 Q1031 TEMPO 4000 -SHSN VV014 RMK WIND 2600FT 08003KT,
ENTC,1737377400,15.8,12.2,85.4,100.0,2.0,0.0,30.45,,6.21,,FEW,SCT,,,2000.0,2700.0,,,VCSH,,,,,,,15.8,ENTC 201250Z 10002KT 9999 VCSH FEW020 SCT027 M09/M11 Q1031 TEMPO 4000 -SHSN VV014 RMK WIND 2600FT 11004KT,
ENTC,1737379200,14.0,10.4,85.28,,2.0,0.0,30.45,,6.21,,FEW,,,,1500.0,,,,VCSH,,,,,,,14.0,ENTC 201320Z VRB02KT 9999 VCSH FEW015 M10/M12 Q1031 TEMPO 4000 -SHSN VV014 RMK WIND 2600FT 07006KT,
ENTC,1737381000,14.0,10.4,85.28,,2.0,0.0,30.45,,6.21,,FEW,SCT,BKN,,1400.0,2000.0,2400.0,,-SHSN,,,,,,,14.0,ENTC 201350Z VRB02KT 9999 -SHSN FEW014 SCT020 BKN024 M10/M12 Q1031 TEMPO 4000 -SHSN VV014 RMK WIND 2600FT 07005KT,
ENTC,1737382800,15.8,12.2,85.4,,3.0,0.0,30.42,,6.21,,FEW,,,,1100.0,,,,,,,,,,,10.17,ENTC 201420Z VRB03KT 9999 FEW011 M09/M11 Q1030 NOSIG RMK WIND 2600FT 08006KT,
ENTC,1737384600,14.0,10.4,85.28,,2.0,0.0,30.45,,6.21,,FEW,,,,1400.0,,,,,,,,,,,14.0,ENTC 201450Z VRB02KT 9999 FEW014 M10/M12 Q1031 NOSIG RMK WIND 2600FT 10007KT,
ENTC,1737386400,14.0,12.2,92.38,0.0,0.0,0.0,30.45,,6.21,,FEW,SCT,BKN,,900.0,1200.0,1500.0,,,,,,,,,14.0,ENTC 201520Z 00000KT 9999 FEW009 SCT012 BKN015 M10/M11 Q1031 NOSIG RMK WIND 2600FT 10008KT,
ENTC,1737388200,14.0,12.2,92.38,,2.0,0.0,30.45,,6.21,,SCT,,,,1200.0,,,,,,,,,,,14.0,ENTC 201550Z VRB02KT 9999 SCT012 M10/M11 Q1031 NOSIG RMK WIND 2600FT 11007KT,
ENTC,1737390000,15.8,12.2,85.4,150.0,3.0,0.0,30.45,,6.21,,FEW,BKN,,,800.0,1200.0,,,,,,,,,,10.17,ENTC 201620Z 15003KT 120V180 9999 FEW008 BKN012 M09/M11 Q1031 TEMPO FEW008 SCT012 RMK WIND 2600FT 11009KT,
ENTC,1737391800,15.8,10.4,78.84,110.0,1.0,0.0,30.42,,6.21,,SCT,,,,1100.0,,,,,,,,,,,15.8,ENTC 201650Z 11001KT 9999 SCT011 M09/M12 Q1030 TEMPO FEW008 BKN012 RMK WIND 2600FT 11010KT,
ENTC,1737393600,15.8,12.2,85.4,,2.0,0.0,30.45,,6.21,,SCT,,,,1100.0,,,,,,,,,,,15.8,ENTC 201720Z VRB02KT 9999 SCT011 M09/M11 Q1031 RMK WIND 2600FT 10011KT,
ENTC,1737395400,17.6,14.0,85.51,200.0,4.0,0.0,30.45,,6.21,,FEW,SCT,,,500.0,1000.0,,,-SHSN,,,,,,,10.6,ENTC 201750Z 20004KT 150V250 9999 -SHSN FEW005 SCT010 M08/M10 Q1031 TEMPO FEW008 BKN012 RMK WIND 2600FT 11011KT,
ENTC,1737397200,17.6,14.0,85.51,250.0,5.0,0.0,30.42,,6.21,,SCT,,,,1100.0,,,,,,,,,,,9.29,ENTC 201820Z 25005KT 200V290 9999 SCT011 M08/M10 Q1030 TEMPO FEW008 BKN012 RMK WIND 2600FT 11009KT,
ENTC,1737399000,17.6,12.2,79.0,0.0,0.0,0.0,30.42,,6.21,,FEW,,,,1100.0,,,,,,,,,,,17.6,ENTC 201850Z 00000KT 9999 FEW011 M08/M11 Q1030 NOSIG RMK WIND 2600FT 12009KT,
ENTC,1737400800,14.0,10.4,85.28,110.0,1.0,0.0,30.42,,6.21,,FEW,,,,1300.0,,,,,,,,,,,14.0,ENTC 201920Z 11001KT 9999 FEW013 M10/M12 Q1030 NOSIG RMK WIND 2600FT 13010KT,
ENTC,1737402600,14.0,10.4,85.28,100.0,2.0,0.0,30.42,,6.21,,FEW,,,,1400.0,,,,,,,,,,,14.0,ENTC 201950Z 10002KT 9999 FEW014 M10/M12 Q1030 NOSIG RMK WIND 2600FT 13009KT,
ENTC,1737404400,12.2,10.4,92.32,60.0,3.0,0.0,30.42,,6.21,,FEW,,,,1400.0,,,,,,,,,,,6.05,ENTC 202020Z 06003KT 030V090 9999 FEW014 M11/M12 Q1030 NOSIG RMK WIND 2600FT 12012KT,
ENTC,1737406200,12.2,8.6,85.17,,3.0,0.0,30.42,,6.21,,FEW,,,,1400.0,,,,,,,,,,,6.05,ENTC 202050Z VRB03KT 9999 FEW014 M11/M13 Q1030 NOSIG RMK WIND 2600FT 11011KT,
ENTC,1737408000,12.2,10.4,92.32,,1.0,0.0,30.42,,6.21,,SCT,,,,5500.0,,,,,,,,,,,12.2,ENTC 202120Z VRB01KT 9999 SCT055 M11/M12 Q1030 NOSIG RMK WIND 2600FT 11010KT,
ENTC,1737409800,12.2,8.6,85.17,40.0,2.0,0.0,30.42,,6.21,,,,,,,,,,,,,,,,,12.2,ENTC 202150Z 04002KT CAVOK M11/M13 Q1030 NOSIG RMK WIND 2600FT 12013KT,
ENTC,1737411600,10.4,8.6,92.25,40.0,3.0,0.0,30.39,,6.21,,FEW,,,,5500.0,,,,,,,,,,,4.0,ENTC 202220Z 04003KT 9999 FEW055 M12/M13 Q1029 RMK WIND 2600FT 11015KT,
ENTC,1737413400,10.4,8.6,92.25,0.0,0.0,0.0,30.39,,6.21,,,,,,,,,,,,,,,,,10.4,ENTC 202250Z 00000KT CAVOK M12/M13 Q1029 RMK WIND 2600FT 12017KT,
ENTC,1737415200,10.4,8.6,92.25,0.0,0.0,0.0,30.39,,6.21,,,,,,,,,,,,,,,,,10.4,ENTC 202320Z 00000KT CAVOK M12/M13 Q1029 RMK WIND 2600FT 13017KT,
ENTC,1737417000,10.4,6.8,85.05,70.0,4.0,0.0,30.39,,6.21,,NCD,,,,,,,,,,,,,,,2.2,ENTC 202350Z AUTO 07004KT 9999 NCD M12/M14 Q1029 RMK WIND 2600FT 15017KT,
ENTC,1737418800,10.4,8.6,92.25,40.0,4.0,0.0,30.36,,6.21,,NCD,,,,,,,,,,,,,,,2.2,ENTC 210020Z AUTO 04004KT 9999 NCD M12/M13 Q1028 RMK WIND 2600FT 14015KT,
ENTC,1737420600,14.0,10.4,85.28,50.0,6.0,0.0,30.36,,6.21,,NCD,,,,,,,,,,,,,,,3.85,ENTC 210050Z AUTO 05006KT 9999 NCD M10/M12 Q1028 RMK WIND 2600FT 13013KT,
ENTC,1737422400,15.8,6.8,67.05,40.0,10.0,0.0,30.33,,6.21,,NCD,,,,,,,,,,,,,,,2.65,ENTC 210120Z AUTO 04010KT 9999 NCD M09/M14 Q1027 RMK WIND 2600FT 12018KT,
ENTC,1737424200,17.6,5.0,57.14,90.0,6.0,0.0,30.33,,6.21,,NCD,,,,,,,,,,,,,,,8.19,ENTC 210150Z AUTO 09006KT 050V130 9999 NCD M08/M15 Q1027 RMK WIND 2600FT 12017KT,
ENTC,1737426000,19.4,6.8,57.41,80.0,7.0,0.0,30.33,,6.21,,NCD,,,,,,,,,,,,,,,9.42,ENTC 210220Z AUTO 08007KT 9999 NCD M07/M14 Q1027 RMK WIND 2600FT 12018KT,
ENTC,1737427800,17.6,6.8,62.02,100.0,3.0,0.0,30.33,,6.21,,,,,,,,,,,,,,,,,12.23,ENTC 210250Z 10003KT CAVOK M08/M14 Q1027 RMK WIND 2600FT 13017KT,
ENTC,1737429600,12.2,6.8,78.51,60.0,3.0,0.0,30.3,,6.21,,NCD,,,,,,,,,,,,,,,6.05,ENTC 210320Z AUTO 06003KT 040V110 9999 NCD M11/M14 Q1026 RMK WIND 2600FT 14017KT,
ENTC,1737431400,12.2,5.0,72.33,70.0,4.0,0.0,30.3,,6.21,,,,,,,,,,,,,,,,,4.3,ENTC 210350Z 07004KT CAVOK M11/M15 Q1026 RMK WIND 2600FT 14017KT,
ENTC,1737433200,12.2,5.0,72.33,70.0,4.0,0.0,30.3,,6.21,,,,,,,,,,,,,,,,,4.3,ENTC 210420Z 07004KT 040V130 CAVOK M11/M15 Q1026 RMK WIND 2600FT 14018KT,
ENTC,1737435000,12.2,6.8,78.51,90.0,4.0,0.0,30.27,,6.21,,,,,,,,,,,,,,,,,4.3,ENTC 210450Z 09004KT 070V150 CAVOK M11/M14 Q1025 RMK WIND 2600FT 14017KT,
ENTC,1737436800,14.0,6.8,72.53,0.0,0.0,0.0,30.27,,6.21,,,,,,,,,,,,,,,,,14.0,ENTC 210520Z 00000KT CAVOK M10/M14 Q1025 RMK WIND 2600FT 14015KT,
ENTC,1737438600,12.2,5.0,72.33,,3.0,0.0,30.27,,6.21,,,,,,,,,,,,,,,,,6.05,ENTC 210550Z VRB03KT CAVOK M11/M15 Q1025 RMK WIND 2600FT 15017KT,
ENTC,1737440400,14.0,6.8,72.53,20.0,3.0,0.0,30.27,,6.21,,,,,,,,,,,,,,,,,8.11,ENTC 210620Z 02003KT 350V110 CAVOK M10/M14 Q1025 NOSIG RMK WIND 2600FT 15017KT,
ENTC,1737442200,14.0,6.8,72.53,,3.0,0.0,30.24,,6.21,,,,,,,,,,,,,,,,,8.11,ENTC 210650Z VRB03KT CAVOK M10/M14 Q1024 NOSIG RMK WIND 2600FT 14017KT,
ENTC,1737444000,14.0,6.8,72.53,50.0,3.0,0.0,30.24,,6.21,,,,,,,,,,,,,,,,,8.11,ENTC 210720Z 05003KT 360V120 CAVOK M10/M14 Q1024 NOSIG RMK WIND 2600FT 14020KT,
ENTC,1737445800,14.0,6.8,72.53,60.0,3.0,0.0,30.21,,6.21,,,,,,,,,,,,,,,,,8.11,ENTC 210750Z 06003KT CAVOK M10/M14 Q1023 RMK WIND 2600FT 16018KT,
ENTC,1737447600,14.0,6.8,72.53,,2.0,0.0,30.21,,6.21,,,,,,,,,,,,,,,,,14.0,ENTC 210820Z VRB02KT CAVOK M10/M14 Q1023 NOSIG RMK WIND 2600FT 16014KT,
ENTC,1737449400,14.0,8.6,78.68,40.0,3.0,0.0,30.21,,6.21,,,,,,,,,,,,,,,,,8.11,ENTC 210850Z 04003KT CAVOK M10/M13 Q1023 NOSIG RMK WIND 2600FT 16016KT,
ENTC,1737451200,14.0,8.6,78.68,30.0,3.0,0.0,30.21,,6.21,,,,,,,,,,,,,,,,,8.11,ENTC 210920Z 03003KT CAVOK M10/M13 Q1023 NOSIG RMK WIND 2600FT 16024KT,
ENTC,1737453000,14.0,6.8,72.53,,3.0,0.0,30.21,,6.21,,,,,,,,,,,,,,,,,8.11,ENTC 210950Z VRB03KT CAVOK M10/M14 Q1023 NOSIG RMK WIND 2600FT 18021KT,
ENTC,1737454800,15.8,8.6,72.73,0.0,0.0,0.0,30.21,,6.21,,,,,,,,,,,,,,,,,15.8,ENTC 211020Z 00000KT CAVOK M09/M13 Q1023 NOSIG RMK WIND 2600FT 17026KT,
ENTC,1737456600,17.6,8.6,67.28,150.0,4.0,0.0,30.21,,6.21,,,,,,,,,,,,,,,,,10.6,ENTC 211050Z 15004KT CAVOK M08/M13 Q1023 NOSIG RMK WIND 2600FT 16028KT,
ENTC,1737458400,19.4,8.6,62.28,150.0,6.0,0.0,30.18,,6.21,,,,,,,,,,,,,,,,,10.36,ENTC 211120Z 15006KT CAVOK M07/M13 Q1022 TEMPO 17015G25KT RMK WIND 2600FT 17028KT,
ENTC,1737460200,19.4,8.6,62.28,150.0,5.0,0.0,30.18,,6.21,,,,,,,,,,,,,,,,,11.43,ENTC 211150Z 15005KT 110V170 CAVOK M07/M13 Q1022 TEMPO 17015G25KT RMK WIND 2600FT 17031KT,
ENTC,1737462000,19.4,8.6,62.28,150.0,5.0,0.0,30.15,,6.21,,,,,,,,,,,,,,,,,11.43,ENTC 211220Z 15005KT CAVOK M07/M13 Q1021 TEMPO 17015G25KT RMK WIND 2600FT 17032KT,
ENTC,1737463800,21.2,10.4,62.53,160.0,8.0,0.0,30.15,,6.21,,,,,,,,,,,,,,,,,10.81,ENTC 211250Z 16008KT CAVOK M06/M12 Q1021 TEMPO 17015G25KT RMK WIND 2600FT 17033KT,
ENTC,1737465600,21.2,10.4,62.53,170.0,12.0,0.0,30.15,,6.21,,,,,,,,,,,,,,,,,8.26,ENTC 211320Z 17012KT CAVOK M06/M12 Q1021 TEMPO 17015G25KT RMK WIND 2600FT 17031KT,
ENTC,1737467400,21.2,10.4,62.53,180.0,14.0,0.0,30.15,,6.21,,,,,,,,,,,,,,,,,7.24,ENTC 211350Z 18014KT CAVOK M06/M12 Q1021 TEMPO 17015G25KT RMK WIND 2600FT 17028KT,
ENTC,1737469200,21.2,10.4,62.53,180.0,12.0,0.0,30.12,,6.21,,,,,,,,,,,,,,,,,8.26,ENTC 211420Z 18012KT CAVOK M06/M12 Q1020 TEMPO 17015G25KT RMK WIND 2600FT 17024KT,
ENTC,1737471000,21.2,10.4,62.53,180.0,11.0,0.0,30.12,,6.21,,,,,,,,,,,,,,,,,8.82,ENTC 211450Z 18011KT CAVOK M06/M12 Q1020 NOSIG RMK WIND 2600FT 17020KT,
ENTC,1737472800,21.2,10.4,62.53,180.0,12.0,0.0,30.12,,6.21,,,,,,,,,,,,,,,,,8.26,ENTC 211520Z 18012KT CAVOK M06/M12 Q1020 NOSIG RMK WIND 2600FT 17024KT,
ENTC,1737474600,21.2,8.6,57.69,170.0,10.0,0.0,30.12,,6.21,,,,,,,,,,,,,,,,,9.42,ENTC 211550Z 17010KT CAVOK M06/M13 Q1020 NOSIG RMK WIND 2600FT 17022KT,
ENTC,1737476400,21.2,8.6,57.69,170.0,8.0,0.0,30.09,,6.21,,,,,,,,,,,,,,,,,10.81,ENTC 211620Z 17008KT 140V200 CAVOK M06/M13 Q1019 NOSIG RMK WIND 2600FT 17023KT,
ENTC,1737478200,21.2,8.6,57.69,170.0,11.0,0.0,30.09,,6.21,,,,,,,,,,,,,,,,,8.82,ENTC 211650Z 17011KT CAVOK M06/M13 Q1019 NOSIG RMK WIND 2600FT 17021KT,
ENTC,1737480000,19.4,8.6,62.28,170.0,10.0,0.0,30.09,,6.21,,,,,,,,,,,,,,,,,7.17,ENTC 211720Z 17010KT CAVOK M07/M13 Q1019 NOSIG RMK WIND 2600FT 17022KT,
ENTC,1737481800,19.4,8.6,62.28,180.0,10.0,0.0,30.09,,6.21,,,,,,,,,,,,,,,,,7.17,ENTC 211750Z 18010KT CAVOK M07/M13 Q1019 NOSIG NOSIG RMK WIND 2600FT 17022KT,
ENTC,1737483600,19.4,6.8,57.41,180.0,11.0,0.0,30.06,,6.21,,,,,,,,,,,,,,,,,6.54,ENTC 211820Z 18011KT CAVOK M07/M14 Q1018 NOSIG RMK WIND 2600FT 17020KT,
ENTC,1737485400,19.4,6.8,57.41,170.0,10.0,0.0,30.06,,6.21,,,,,,,,,,,,,,,,,7.17,ENTC 211850Z 17010KT 150V210 CAVOK M07/M14 Q1018 NOSIG RMK WIND 2600FT 17018KT,
ENTC,1737487200,19.4,8.6,62.28,180.0,12.0,0.0,30.06,,6.21,,,,,,,,,,,,,,,,,5.97,ENTC 211920Z 18012KT CAVOK M07/M13 Q1018 NOSIG RMK WIND 2600FT 17014KT,
ENTC,1737489000,19.4,6.8,57.41,180.0,13.0,0.0,30.06,,6.21,,,,,,,,,,,,,,,,,5.43,ENTC 211950Z 18013KT CAVOK M07/M14 Q1018 NOSIG RMK WIND 2600FT 17015KT,
ENTC,1737490800,17.6,6.8,62.02,180.0,11.0,0.0,30.06,,6.21,,,,,,,,,,,,,,,,,4.27,ENTC 212020Z 18011KT CAVOK M08/M14 Q1018 NOSIG RMK WIND 2600FT 17012KT,
ENTC,1737492600,19.4,6.8,57.41,180.0,10.0,0.0,30.06,,6.21,,,,,,,,,,,,,,,,,7.17,ENTC 212050Z 18010KT CAVOK M07/M14 Q1018 NOSIG RMK WIND 2600FT 17015KT,
ENTC,1737494400,19.4,6.8,57.41,180.0,11.0,0.0,30.06,,6.21,,,,,,,,,,,,,,,,,6.54,ENTC 212120Z 18011KT CAVOK M07/M14 Q1018 NOSIG RMK WIND 2600FT 17015KT,
ENTC,1737496200,17.6,6.8,62.02,180.0,12.0,0.0,30.03,,6.21,,,,,,,,,,,,,,,,,3.67,ENTC 212150Z 18012KT CAVOK M08/M14 Q1017 NOSIG RMK WIND 2600FT 17014KT,
ENTC,1737498000,17.6,6.8,62.02,180.0,12.0,0.0,30.03,,6.21,,,,,,,,,,,,,,,,,3.67,ENTC 212220Z 18012KT CAVOK M08/M14 Q1017 RMK WIND 2600FT 17015KT,
ENTC,1737499800,17.6,6.8,62.02,170.0,11.0,0.0,30.03,,6.21,,,,,,,,,,,,,,,,,4.27,ENTC 212250Z 17011KT CAVOK M08/M14 Q1017 RMK WIND 2600FT 17016KT,
ENTC,1737501600,17.6,6.8,62.02,180.0,11.0,0.0,30.03,,6.21,,,,,,,,,,,,,,,,,4.27,ENTC 212320Z 18011KT CAVOK M08/M14 Q1017 RMK WIND 2600FT 17013KT,
ENTC,1737503400,17.6,6.8,62.02,180.0,10.0,0.0,30.0,,6.21,,NCD,,,,,,,,,,,,,,,4.91,ENTC 212350Z AUTO 18010KT 9999 NCD M08/M14 Q1016 RMK WIND 2600FT 17011KT,
