station,valid,tmpf,dwpf,relh,drct,sknt,p01i,alti,mslp,vsby,gust,skyc1,skyc2,skyc3,skyc4,skyl1,skyl2,skyl3,skyl4,wxcodes,ice_accretion_1hr,ice_accretion_3hr,ice_accretion_6hr,peak_wind_gust,peak_wind_drct,peak_wind_time,feel,metar,snowdepth
ESSA,1737246000,39.2,39.2,100.0,250.0,10.0,0.0,30.12,,6.21,,OVC,,,,300.0,,,,,,,,,,,32.0,ESSA 190020Z 25010KT 9999 OVC003 04/04 Q1020 NOSIG,
ESSA,1737247800,39.2,39.2,100.0,260.0,10.0,0.0,30.12,,6.21,,OVC,,,,400.0,,,,,,,,,,,32.0,ESSA 190050Z 26010KT 9999 OVC004 04/04 Q1020 NOSIG,
ESSA,1737249600,39.2,39.2,100.0,260.0,10.0,0.0,30.12,,6.21,,OVC,,,,600.0,,,,,,,,,,,32.0,ESSA 190120Z 26010KT 9999 OVC006 04/04 Q1020 NOSIG,
ESSA,1737251400,39.2,39.2,100.0,260.0,11.0,0.0,30.12,,6.21,,OVC,,,,700.0,,,,,,,,,,,31.57,ESSA 190150Z 26011KT 9999 OVC007 04/04 Q1020 NOSIG,
ESSA,1737253200,39.2,37.4,93.19,250.0,13.0,0.0,30.12,,6.21,,OVC,,,,800.0,,,,,,,,,,,30.79,ESSA 190220Z 25013KT 9999 OVC008 04/03 Q1020 NOSIG,
ESSA,1737255000,39.2,37.4,93.19,250.0,14.0,0.0,30.09,,6.21,,OVC,,,,900.0,,,,,,,,,,,30.44,ESSA 190250Z 25014KT 9999 OVC009 04/03 Q1019 NOSIG,
ESSA,1737256800,39.2,35.6,86.79,250.0,14.0,0.0,30.09,,6.21,,BKN,,,,900.0,,,,,,,,,,,30.44,ESSA 190320Z 25014KT 9999 BKN009 04/02 Q1019 TEMPO BKN010,
ESSA,1737258600,39.2,35.6,86.79,260.0,15.0,0.0,30.09,,6.21,,BKN,,,,1000.0,,,,,,,,,,,30.11,ESSA 190350Z 26015KT 9999 BKN010 04/02 Q1019 TEMPO BKN010,
ESSA,1737260400,37.4,35.6,93.14,250.0,15.0,0.0,30.09,,6.21,,BKN,,,,900.0,,,,,,,,,,,27.78,ESSA 190420Z 25015KT 9999 BKN009 03/02 Q1019 TEMPO BKN010,
ESSA,1737262200,39.2,35.6,86.79,250.0,13.0,0.0,30.06,,6.21,,OVC,,,,900.0,,,,,,,,,,,30.79,ESSA 190450Z 25013KT 9999 OVC009 04/02 Q1018 TEMPO BKN010,
ESSA,1737264000,37.4,35.6,93.14,250.0,14.0,0.0,30.06,,6.21,,BKN,,,,900.0,,,,,,,,,,,28.12,ESSA 190520Z 25014KT 9999 BKN009 03/02 Q1018 TEMPO BKN010,
ESSA,1737265800,37.4,35.6,93.14,250.0,15.0,0.0,30.06,,6.21,,BKN,,,,900.0,,,,,,,,,,,27.78,ESSA 190550Z 25015KT 9999 BKN009 03/02 Q1018 TEMPO BKN010,
ESSA,1737267600,37.4,35.6,93.14,250.0,14.0,0.0,30.06,,6.21,,BKN,,,,800.0,,,,,,,,,,,28.12,ESSA 190620Z 25014KT 9999 BKN008 03/02 Q1018 TEMPO BKN010,
ESSA,1737269400,39.2,35.6,86.79,250.0,16.0,0.0,30.06,,6.21,,BKN,,,,800.0,,,,,,,,,,,29.8,ESSA 190650Z 25016KT 9999 BKN008 04/02 Q1018 TEMPO BKN010,
ESSA,1737271200,39.2,35.6,86.79,250.0,16.0,0.0,30.06,,6.21,,OVC,,,,800.0,,,,,,,,,,,29.8,ESSA 190720Z 25016KT 9999 OVC008 04/02 Q1018 TEMPO BKN010,
ESSA,1737273000,39.2,37.4,93.19,260.0,17.0,0.0,30.06,,6.21,,BKN,,,,800.0,,,,,,,,,,,29.51,ESSA 190750Z 26017KT 9999 BKN008 04/03 Q1018 TEMPO BKN010,
ESSA,1737274800,39.2,37.4,93.19,270.0,12.0,0.0,30.06,,6.21,,BKN,,,,800.0,,,,,,,,,,,31.17,ESSA 190820Z 27012KT 9999 BKN008 04/03 Q1018 TEMPO BKN010,
ESSA,1737276600,39.2,35.6,86.79,270.0,15.0,0.0,30.06,,6.21,,BKN,,,,800.0,,,,,,,,,,,30.11,ESSA 190850Z 27015KT 9999 BKN008 04/02 Q1018 TEMPO BKN010,
ESSA,1737278400,37.4,35.6,93.14,270.0,13.0,0.0,30.06,,6.21,,BKN,,,,800.0,,,,,,,,,,,28.49,ESSA 190920Z 27013KT 9999 BKN008 03/02 Q1018 TEMPO BKN010,
ESSA,1737280200,37.4,35.6,93.14,270.0,15.0,0.0,30.06,,6.21,,OVC,,,,900.0,,,,,,,,,,,27.78,ESSA 190950Z 27015KT 9999 OVC009 03/02 Q1018 TEMPO BKN010,
ESSA,1737282000,39.2,35.6,86.79,270.0,13.0,0.0,30.06,,6.21,,OVC,,,,900.0,,,,,,,,,,,30.79,ESSA 191020Z 27013KT 9999 OVC009 04/02 Q1018 TEMPO BKN010,
ESSA,1737283800,39.2,35.6,86.79,270.0,12.0,0.0,30.06,,6.21,,BKN,,,,900.0,,,,,,,,,,,31.17,ESSA 191050Z 27012KT 9999 BKN009 04/02 Q1018 TEMPO BKN010,
ESSA,1737285600,39.2,35.6,86.79,260.0,14.0,0.0,30.06,,6.21,,BKN,,,,900.0,,,,,,,,,,,30.44,ESSA 191120Z 26014KT 9999 BKN009 04/02 Q1018 TEMPO BKN010,
ESSA,1737287400,39.2,33.8,80.79,280.0,11.0,0.0,30.09,,6.21,,BKN,,,,1000.0,,,,,,,,,,,31.57,ESSA 191150Z 28011KT 9999 BKN010 04/01 Q1019 TEMPO SCT010,
ESSA,1737289200,39.2,33.8,80.79,280.0,12.0,0.0,30.06,,6.21,,BKN,,,,1100.0,,,,,,,,,,,31.17,ESSA 191220Z 28012KT 9999 BKN011 04/01 Q1018 TEMPO SCT010,
ESSA,1737291000,39.2,35.6,86.79,280.0,11.0,0.0,30.06,,6.21,,SCT,,,,1200.0,,,,,,,,,,,31.57,ESSA 191250Z 28011KT 9999 SCT012 04/02 Q1018 TEMPO SCT010,
ESSA,1737292800,37.4,33.8,86.69,260.0,10.0,0.0,30.06,,6.21,,FEW,,,,1200.0,,,,,,,,,,,29.74,ESSA 191320Z 26010KT 9999 FEW012 03/01 Q1018 TEMPO SCT010,
ESSA,1737294600,37.4,33.8,86.69,270.0,9.0,0.0,30.06,,6.21,,,,,,,,,,,,,,,,,30.23,ESSA 191350Z 27009KT CAVOK 03/01 Q1018 NOSIG,
ESSA,1737296400,35.6,33.8,93.08,270.0,8.0,0.0,30.09,,6.21,,,,,,,,,,,,,,,,,28.55,ESSA 191420Z 27008KT CAVOK 02/01 Q1019 NOSIG,
ESSA,1737298200,37.4,33.8,86.69,260.0,7.0,0.0,30.09,,6.21,,,,,,,,,,,,,,,,,31.36,ESSA 191450Z 26007KT CAVOK 03/01 Q1019 NOSIG,
ESSA,1737300000,35.6,32.0,86.59,260.0,7.0,0.0,30.09,,6.21,,,,,,,,,,,,,,,,,29.17,ESSA 191520Z 26007KT CAVOK 02/00 Q1019 NOSIG,
ESSA,1737301800,35.6,33.8,93.08,260.0,6.0,0.0,30.12,,6.21,,,,,,,,,,,,,,,,,29.87,ESSA 191550Z 26006KT CAVOK 02/01 Q1020 NOSIG,
ESSA,1737303600,33.8,32.0,93.03,270.0,6.0,0.0,30.12,,6.21,,,,,,,,,,,,,,,,,27.7,ESSA 191620Z 27006KT CAVOK 01/M00 Q1020 NOSIG,
ESSA,1737305400,32.0,32.0,100.0,270.0,5.0,0.0,30.12,,6.21,,,,,,,,,,,,,,,,,26.4,ESSA 191650Z 27005KT CAVOK 00/M00 Q1020 NOSIG,
ESSA,1737307200,32.0,32.0,100.0,270.0,6.0,0.0,30.12,,6.21,,,,,,,,,,,,,,,,,25.53,ESSA 191720Z 27006KT CAVOK 00/M00 Q1020 NOSIG,
ESSA,1737309000,32.0,32.0,100.0,250.0,7.0,0.0,30.15,,6.21,,,,,,,,,,,,,,,,,24.78,ESSA 191750Z 25007KT CAVOK M00/M00 Q1021 NOSIG,
ESSA,1737310800,32.0,32.0,100.0,280.0,5.0,0.0,30.15,,6.21,,,,,,,,,,,,,,,,,26.4,ESSA 191820Z 28005KT CAVOK 00/M00 Q1021 NOSIG,
ESSA,1737312600,33.8,32.0,93.03,280.0,6.0,0.0,30.15,,6.21,,,,,,,,,,,,,,,,,27.7,ESSA 191850Z 28006KT CAVOK 01/00 Q1021 NOSIG,
ESSA,1737314400,32.0,32.0,100.0,260.0,6.0,0.0,30.15,,6.21,,,,,,,,,,,,,,,,,25.53,ESSA 191920Z 26006KT CAVOK M00/M00 Q1021 NOSIG,
ESSA,1737316200,32.0,32.0,100.0,260.0,7.0,0.0,30.18,,6.21,,,,,,,,,,,,,,,,,24.78,ESSA 191950Z 26007KT CAVOK M00/M00 Q1022 NOSIG,
ESSA,1737318000,32.0,30.2,92.97,270.0,6.0,0.0,30.18,,6.21,,,,,,,,,,,,,,,,,25.53,ESSA 192020Z 27006KT CAVOK M00/M01 Q1022 NOSIG,
ESSA,1737319800,32.0,30.2,92.97,280.0,4.0,0.0,30.18,,6.21,,,,,,,,,,,,,,,,,27.42,ESSA 192050Z 28004KT CAVOK M00/M01 Q1022 NOSIG,
ESSA,1737321600,30.2,28.4,92.92,270.0,5.0,0.0,30.18,,6.21,,,,,,,,,,,,,,,,,24.26,ESSA 192120Z 27005KT CAVOK M01/M02 Q1022 NOSIG,
ESSA,1737323400,28.4,28.4,100.0,270.0,5.0,0.0,30.18,,6.21,,,,,,,,,,,,,,,,,22.12,ESSA 192150Z 27005KT CAVOK M02/M02 Q1022 NOSIG,
ESSA,1737325200,30.2,30.2,100.0,290.0,4.0,0.0,30.18,,6.21,,,,,,,,,,,,,,,,,25.32,ESSA 192220Z 29004KT CAVOK M01/M01 Q1022 NOSIG,
ESSA,1737327000,28.4,26.6,92.86,,2.0,0.0,30.18,,6.21,,,,,,,,,,,,,,,,,28.4,ESSA 192250Z VRB02KT CAVOK M02/M03 Q1022 TEMPO 0800 FZFG,
ESSA,1737328800,26.6,26.6,100.0,,1.0,0.0,30.18,,6.21,,,,,,,,,,,,,,,,,26.6,ESSA 192320Z VRB01KT CAVOK M03/M03 Q1022 TEMPO 0800 FZFG,
ESSA,1737330600,26.6,26.6,100.0,250.0,3.0,0.0,30.18,,6.21,,,,,,,,,,,,,,,,,22.52,ESSA 192350Z 25003KT CAVOK M03/M03 Q1022 TEMPO 0800 FZFG,
ESSA,1737332400,26.6,26.6,100.0,260.0,3.0,0.0,30.18,,0.62,,NSC,,,,,,,,BCFG,,,,,,,22.52,ESSA 200020Z 26003KT 1000 R01L/P2000N R19R/P2000D R01R/P2000D R19L/P2000N BCFG NSC M03/M03 Q1022 TEMPO 0800 FZFG,
ESSA,1737334200,26.6,26.6,100.0,260.0,3.0,0.0,30.21,,0.62,,NSC,,,,,,,,BCFG,,,,,,,22.52,ESSA 200050Z 26003KT 1000 R01L/P2000N R19R/P2000N R01R/P2000N R19L/P2000N BCFG NSC M03/M03 Q1023 TEMPO 0500 FZFG VV002,
ESSA,1737336000,24.8,24.8,100.0,250.0,3.0,0.0,30.21,,0.62,,NSC,,,,,,,,BCFG,,,,,,,20.46,ESSA 200120Z 25003KT 1000 R01L/P2000N R19R/1300N R01R/P2000N R19L/P2000N BCFG NSC M04/M04 Q1023 TEMPO 0500 FZFG VV002,
ESSA,1737337800,24.8,24.8,100.0,0.0,0.0,0.0,30.21,,0.62,,NSC,,,,,,,,BCFG,,,,,,,24.8,ESSA 200150Z 00000KT 1000 R01L/P2000N R19R/P2000N R01R/0900N R19L/1900D BCFG NSC M04/M04 Q1023 TEMPO 0500 FZFG VV002,
ESSA,1737339600,24.8,24.8,100.0,250.0,2.0,0.0,30.21,,0.43,,NSC,,,,,,,,BR,,,,,,,24.8,ESSA 200220Z 25002KT 0700 R01L/P2000N R19R/P2000N R01R/P2000N R19L/1900N BR NSC M04/M04 Q1023 TEMPO 0500 FZFG VV002,
ESSA,1737341400,24.8,24.8,100.0,260.0,2.0,0.0,30.21,,0.16,,NSC,,,,,,,,BR,,,,,,,24.8,ESSA 200250Z 26002KT 0250 R01L/P2000N R19R/P2000N R01R/1000D R19L/1400N BR NSC M04/M04 Q1023 TEMPO 0500 FZFG VV002,
ESSA,1737343200,24.8,24.8,100.0,240.0,4.0,0.0,30.21,,0.25,,NSC,,,,,,,,FZFG,,,,,,,19.01,ESSA 200320Z 24004KT 0400 R01L/P2000N R19R/P2000N R01R/P2000N R19L/P2000N FZFG NSC M04/M04 Q1023 NOSIG,
ESSA,1737345000,24.8,24.8,100.0,240.0,3.0,0.0,30.21,,0.75,,NSC,,,,,,,,FZFG,,,,,,,20.46,ESSA 200350Z 24003KT 1200 R01L/P2000N R19R/P2000N R01R/P2000N R19L/P2000N FZFG NSC M04/M04 Q1023 NOSIG,
ESSA,1737346800,23.0,23.0,100.0,0.0,0.0,0.0,30.21,,0.56,,NSC,,,,,,,,BR,,,,,,,23.0,ESSA 200420Z 00000KT 0900 BR NSC M05/M05 Q1023 NOSIG,
ESSA,1737348600,23.0,23.0,100.0,,1.0,0.0,30.21,,6.21,,,,,,,,,,,,,,,,,23.0,ESSA 200450Z VRB01KT CAVOK M05/M05 Q1023 NOSIG,
ESSA,1737350400,23.0,23.0,100.0,20.0,4.0,0.0,30.21,,6.21,,,,,,,,,,,,,,,,,16.91,ESSA 200520Z 02004KT CAVOK M05/M05 Q1023 NOSIG,
ESSA,1737352200,23.0,23.0,100.0,90.0,3.0,0.0,30.21,,6.21,,,,,,,,,,,,,,,,,18.4,ESSA 200550Z 09003KT CAVOK M05/M05 Q1023 NOSIG,
ESSA,1737354000,23.0,23.0,100.0,0.0,0.0,0.0,30.21,,6.21,,,,,,,,,,,,,,,,,23.0,ESSA 200620Z 00000KT CAVOK M05/M05 Q1023 NOSIG,
ESSA,1737355800,23.0,23.0,100.0,0.0,0.0,0.0,30.21,,6.21,,,,,,,,,,,,,,,,,23.0,ESSA 200650Z 00000KT CAVOK M05/M05 Q1023 NOSIG,
ESSA,1737357600,23.0,23.0,100.0,100.0,2.0,0.0,30.21,,4.97,,NSC,,,,,,,,,,,,,,,23.0,ESSA 200720Z 10002KT 8000 NSC M05/M05 Q1023 BECMG 0300 FZFG VV002,
ESSA,1737359400,23.0,21.2,92.69,80.0,4.0,0.0,30.21,,6.21,,,,,,,,,,,,,,,,,16.91,ESSA 200750Z 08004KT CAVOK M05/M06 Q1023 BECMG 0300 FZFG VV002,
ESSA,1737361200,23.0,23.0,100.0,90.0,3.0,0.0,30.21,,6.21,,FEW,,,,300.0,,,,VCFG,,,,,,,18.4,ESSA 200820Z 09003KT 9999 VCFG FEW003 M05/M05 Q1023 BECMG 0300 FZFG VV002,
ESSA,1737363000,24.8,24.8,100.0,80.0,6.0,0.0,30.21,,6.21,,SCT,,,,200.0,,,,,,,,,,,16.86,ESSA 200850Z 08006KT 9999 SCT002 M04/M04 Q1023 BECMG 0300 FZFG VV002,
ESSA,1737364800,28.4,28.4,100.0,80.0,7.0,0.0,30.21,,2.24,,OVC,,,,200.0,,,,BR,,,,,,,20.39,ESSA 200920Z 08007KT 3600 BR OVC002 M02/M02 Q1023 BECMG 0300 FZFG VV002,
ESSA,1737366600,28.4,28.4,100.0,80.0,6.0,0.0,30.21,,0.25,,VV ,,,,200.0,,,,FZFG,,,,,,,21.19,ESSA 200950Z 08006KT 0400 R01L/1000D R19R/0800N R01R/1300N R19L/0900N FZFG VV002 M02/M02 Q1023 TEMPO 0200,
ESSA,1737368400,28.4,28.4,100.0,80.0,6.0,0.0,30.21,,0.25,,OVC,,,,200.0,,,,,,,,,,,21.19,ESSA 201020Z 08006KT 0400 R01L/0800N R19R/0900N R01R/0800N R19L/1200N OVC002 M02/M02 Q1023 TEMPO 0200,
ESSA,1737370200,30.2,30.2,100.0,80.0,6.0,0.0,30.21,,0.28,,VV ,,,,200.0,,,,FZFG,,,,,,,23.36,ESSA 201050Z 08006KT 0450 R01L/0700N R19R/0800N R01R/0700N R19L/0900N FZFG VV002 M01/M01 Q1023 TEMPO 0200,
ESSA,1737372000,30.2,30.2,100.0,120.0,5.0,0.0,30.21,,0.19,,VV ,,,,200.0,,,,FZFG,,,,,,,24.26,ESSA 201120Z 12005KT 0300 R01L/0700N R19R/0650N R01R/0700N R19L/0800N FZFG VV002 M01/M01 Q1023 NOSIG,
ESSA,1737373800,32.0,32.0,100.0,100.0,4.0,0.0,30.21,,0.19,,VV ,,,,200.0,,,,FG,,,,,,,27.42,ESSA 201150Z 10004KT 0300 R01L/0650N R19R/0650N R01R/0700N R19L/0750N FG VV002 00/00 Q1023 BECMG FG,
ESSA,1737375600,32.0,32.0,100.0,80.0,4.0,0.0,30.18,,0.16,,VV ,,,,200.0,,,,FG,,,,,,,27.42,ESSA 201220Z 08004KT 0250 R01L/0700N R19R/0800N R01R/0800N R19L/0800N FG VV002 M00/M00 Q1022 NOSIG,
ESSA,1737377400,32.0,32.0,100.0,90.0,5.0,0.0,30.18,,0.16,,VV ,,,,200.0,,,,FG,,,,,,,26.4,ESSA 201250Z 09005KT 0250 R01L/0700N R19R/0750N R01R/0750N R19L/0900U FG VV002 00/00 Q1022 NOSIG,
ESSA,1737379200,33.8,33.8,100.0,90.0,5.0,0.0,30.18,,0.37,,VV ,,,,200.0,,,,FG,,,,,,,28.53,ESSA 201320Z 09005KT 0600 FG VV002 01/01 Q1022 NOSIG,
ESSA,1737381000,33.8,33.8,100.0,110.0,4.0,0.0,30.15,,0.22,,VV ,,,,200.0,,,,FG,,,,,,,29.52,ESSA 201350Z 11004KT 0350 R01L/0900N R19R/1200D R01R/1000D R19L/1900N FG VV002 01/01 Q1021 NOSIG,
ESSA,1737382800,35.6,35.6,100.0,150.0,6.0,0.0,30.15,,0.19,,VV ,,,,200.0,,,,-DZ,,,,,,,29.87,ESSA 201420Z 15006KT 0300 R01L/0900U R19R/1300N R01R/1100U R19L/1700N -DZ VV002 02/02 Q1021 TEMPO 2000 BR,
ESSA,1737384600,33.8,33.8,100.0,130.0,6.0,0.0,30.15,,0.5,,VV ,,,,200.0,,,,-DZ FG,,,,,,,27.7,ESSA 201450Z 13006KT 0800 R01L/P2000N R19R/1900N R01R/P2000N R19L/P2000N -DZ FG VV002 01/01 Q1021 TEMPO 2000 BR,
ESSA,1737386400,33.8,33.8,100.0,150.0,7.0,0.0,30.15,,0.68,,BKN,,,,300.0,,,,-DZ BR,,,,,,,26.97,ESSA 201520Z 15007KT 1100 R01L/P2000N R19R/P2000N R01R/P2000N R19L/P2000N -DZ BR BKN003 01/01 Q1021 TEMPO 3000 BR,
ESSA,1737388200,33.8,33.8,100.0,140.0,8.0,0.0,30.15,,1.37,,BKN,,,,300.0,,,,BR,,,,,,,26.33,ESSA 201550Z 14008KT 2200 BR BKN003 01/01 Q1021 TEMPO 6000,
ESSA,1737390000,33.8,33.8,100.0,120.0,9.0,0.0,30.15,,4.35,,OVC,,,,300.0,,,,-DZ,,,,,,,25.75,ESSA 201620Z 12009KT 7000 -DZ OVC003 01/01 Q1021 TEMPO 6000,
ESSA,1737391800,33.8,33.8,100.0,130.0,9.0,0.0,30.15,,4.97,,OVC,,,,400.0,,,,-DZ,,,,,,,25.75,ESSA 201650Z 13009KT 8000 -DZ OVC004 01/01 Q1021 TEMPO 4000,
ESSA,1737393600,33.8,33.8,100.0,120.0,9.0,0.0,30.15,,4.97,,OVC,,,,400.0,,,,-DZ,,,,,,,25.75,ESSA 201720Z 12009KT 080V140 8000 -DZ OVC004 01/01 Q1021 TEMPO 4000 BKN005,
ESSA,1737395400,35.6,33.8,93.08,120.0,9.0,0.0,30.12,,2.49,,OVC,,,,400.0,,,,-DZ,,,,,,,27.99,ESSA 201750Z 12009KT 4000 -DZ OVC004 02/01 Q1020 REDZ TEMPO 6000 BKN005,
ESSA,1737397200,35.6,35.6,100.0,120.0,9.0,0.0,30.12,,2.17,,BKN,,,,300.0,,,,BR,,,,,,,27.99,ESSA 201820Z 12009KT 3500 BR BKN003 02/02 Q1020 TEMPO 6000 BKN005,
ESSA,1737399000,35.6,35.6,100.0,120.0,9.0,0.0,30.12,,2.17,,BKN,,,,300.0,,,,BR,,,,,,,27.99,ESSA 201850Z 12009KT 3500 BR BKN003 02/02 Q1020 TEMPO 6000 BKN005,
ESSA,1737400800,35.6,35.6,100.0,120.0,10.0,0.0,30.12,,3.11,,OVC,,,,400.0,,,,,,,,,,,27.48,ESSA 201920Z 12010KT 5000 OVC004 02/02 Q1020 TEMPO 6000 BKN005,
ESSA,1737402600,35.6,35.6,100.0,120.0,9.0,0.0,30.12,,3.11,,OVC,,,,300.0,,,,,,,,,,,27.99,ESSA 201950Z 12009KT 5000 OVC003 02/02 Q1020 TEMPO 4000 BKN005,
ESSA,1737404400,37.4,35.6,93.14,120.0,9.0,0.0,30.09,,4.35,,BKN,,,,500.0,,,,,,,,,,,30.23,ESSA 202020Z 12009KT 7000 BKN005 03/02 Q1019 TEMPO 4000 BKN005,
ESSA,1737406200,37.4,35.6,93.14,130.0,10.0,0.0,30.09,,3.73,,BKN,,,,400.0,,,,BR,,,,,,,29.74,ESSA 202050Z 13010KT 6000 BR BKN004 03/02 Q1019 TEMPO 4000 BKN005,
ESSA,1737408000,37.4,35.6,93.14,130.0,9.0,0.0,30.09,,2.49,,OVC,,,,400.0,,,,BR,,,,,,,30.23,ESSA 202120Z 13009KT 4000 BR OVC004 03/02 Q1019 TEMPO 4000 BKN005,
ESSA,1737409800,35.6,35.6,100.0,130.0,7.0,0.0,30.09,,3.11,,OVC,,,,300.0,,,,BR,,,,,,,29.17,ESSA 202150Z 13007KT 5000 BR OVC003 02/02 Q1019 TEMPO 4000 BKN005,
ESSA,1737411600,33.8,33.8,100.0,140.0,8.0,0.0,30.09,,2.05,,OVC,,,,300.0,,,,-DZ BR,,,,,,,26.33,ESSA 202220Z 14008KT 3300 -DZ BR OVC003 01/01 Q1019 TEMPO 5000 BKN005,
ESSA,1737413400,33.8,33.8,100.0,130.0,9.0,0.0,30.09,,2.67,,OVC,,,,400.0,,,,BR,,,,,,,25.75,ESSA 202250Z 13009KT 4300 BR OVC004 01/01 Q1019 TEMPO 5000 BKN005,
ESSA,1737415200,33.8,33.8,100.0,120.0,9.0,0.0,30.09,,2.36,,OVC,,,,400.0,,,,-DZ BR,,,,,,,25.75,ESSA 202320Z 12009KT 3800 -DZ BR OVC004 01/01 Q1019 TEMPO 5000 BKN005,
ESSA,1737417000,33.8,33.8,100.0,110.0,9.0,0.0,30.06,,2.17,,OVC,,,,400.0,,,,BR,,,,,,,25.75,ESSA 202350Z 11009KT 3500 BR OVC004 01/01 Q1018 TEMPO 5000 BKN005,
ESSA,1737418800,33.8,33.8,100.0,110.0,9.0,0.0,30.06,,1.55,,OVC,,,,300.0,,,,BR,,,,,,,25.75,ESSA 210020Z 11009KT 2500 BR OVC003 01/01 Q1018 TEMPO 5000 BKN005,
ESSA,1737420600,33.8,33.8,100.0,110.0,8.0,0.0,30.06,,1.86,,OVC,,,,300.0,,,,BR,,,,,,,26.33,ESSA 210050Z 11008KT 3000 BR OVC003 01/01 Q1018 TEMPO 5000 BKN005,
ESSA,1737422400,33.8,33.8,100.0,90.0,7.0,0.0,30.06,,2.36,,OVC,,,,300.0,,,,BR,,,,,,,26.97,ESSA 210120Z 09007KT 3800 BR OVC003 01/01 Q1018 TEMPO 5000 BKN005,
ESSA,1737424200,33.8,33.8,100.0,90.0,8.0,0.0,30.03,,1.62,,OVC,,,,300.0,,,,BR,,,,,,,26.33,ESSA 210150Z 09008KT 2600 BR OVC003 01/01 Q1017 TEMPO 5000 BKN005,
ESSA,1737426000,33.8,33.8,100.0,90.0,7.0,0.0,30.03,,1.86,,OVC,,,,300.0,,,,BR,,,,,,,26.97,ESSA 210220Z 09007KT 3000 BR OVC003 01/01 Q1017 TEMPO 5000 BKN005,
ESSA,1737427800,33.8,33.8,100.0,80.0,7.0,0.0,30.03,,3.73,,OVC,,,,300.0,,,,BR,,,,,,,26.97,ESSA 210250Z 08007KT 6000 BR OVC003 01/01 Q1017 TEMPO 5000 BKN005,
ESSA,1737429600,33.8,33.8,100.0,100.0,7.0,0.0,30.03,,6.21,,OVC,,,,300.0,,,,,,,,,,,26.97,ESSA 210320Z 10007KT 060V120 9999 OVC003 01/01 Q1017 TEMPO BKN005,
ESSA,1737431400,33.8,33.8,100.0,110.0,8.0,0.0,30.0,,6.21,,OVC,,,,400.0,,,,,,,,,,,26.33,ESSA 210350Z 11008KT 9999 OVC004 01/01 Q1016 TEMPO BKN005,
ESSA,1737433200,33.8,33.8,100.0,90.0,6.0,0.0,30.0,,3.11,,OVC,,,,400.0,,,,BR,,,,,,,27.7,ESSA 210420Z 09006KT 5000 BR OVC004 01/01 Q1016 TEMPO BKN005,
ESSA,1737435000,33.8,33.8,100.0,100.0,9.0,0.0,30.0,,3.11,,OVC,,,,400.0,,,,-DZ,,,,,,,25.75,ESSA 210450Z 10009KT 5000 -DZ OVC004 01/01 Q1016 TEMPO BKN005,
ESSA,1737436800,33.8,33.8,100.0,100.0,10.0,0.0,29.97,,2.49,,OVC,,,,400.0,,,,-DZ,,,,,,,25.23,ESSA 210520Z 10010KT 4000 -DZ OVC004 01/01 Q1015 TEMPO BKN005,
ESSA,1737438600,33.8,33.8,100.0,100.0,11.0,0.0,29.97,,1.86,,BKN,OVC,,,400.0,600.0,,,-DZ,,,,,,,24.74,ESSA 210550Z 10011KT 3000 -DZ BKN004 OVC006 01/01 Q1015 TEMPO BKN005,
ESSA,1737440400,33.8,33.8,100.0,100.0,10.0,0.0,29.97,,1.86,,BKN,OVC,,,400.0,600.0,,,-DZ,,,,,,,25.23,ESSA 210620Z 10010KT 3000 -DZ BKN004 OVC006 01/01 Q1015 TEMPO BKN005,
ESSA,1737442200,33.8,33.8,100.0,100.0,11.0,0.0,29.94,,3.73,,OVC,,,,400.0,,,,DZ,,,,,,,24.74,ESSA 210650Z 10011KT 6000 DZ OVC004 01/01 Q1014 TEMPO BKN005,
ESSA,1737444000,33.8,33.8,100.0,100.0,10.0,0.0,29.97,,2.98,,OVC,,,,400.0,,,,DZ,,,,,,,25.23,ESSA 210720Z 10010KT 4800 DZ OVC004 01/01 Q1015 TEMPO BKN005,
ESSA,1737445800,33.8,33.8,100.0,100.0,9.0,0.0,29.97,,3.73,,OVC,,,,400.0,,,,-DZ,,,,,,,25.75,ESSA 210750Z 10009KT 6000 -DZ OVC004 01/01 Q1015 REDZ TEMPO BKN005,
ESSA,1737447600,33.8,33.8,100.0,100.0,9.0,0.0,29.97,,4.35,,OVC,,,,400.0,,,,-DZ,,,,,,,25.75,ESSA 210820Z 10009KT 7000 -DZ OVC004 01/01 Q1015 TEMPO BKN005,
ESSA,1737449400,33.8,33.8,100.0,100.0,9.0,0.0,29.94,,3.11,,BKN,,,,400.0,,,,-DZ,,,,,,,25.75,ESSA 210850Z 10009KT 5000 -DZ BKN004 01/01 Q1014 TEMPO BKN005,
ESSA,1737451200,33.8,33.8,100.0,90.0,9.0,0.0,29.94,,3.11,,OVC,,,,500.0,,,,DZ,,,,,,,25.75,ESSA 210920Z 09009KT 5000 DZ OVC005 01/01 Q1014 TEMPO BKN005,
ESSA,1737453000,33.8,33.8,100.0,90.0,9.0,0.0,29.94,,3.73,,BKN,,,,500.0,,,,-DZ,,,,,,,25.75,ESSA 210950Z 09009KT 6000 -DZ BKN005 01/01 Q1014 TEMPO 2000 BR BKN004,
ESSA,1737454800,33.8,33.8,100.0,90.0,6.0,0.0,29.94,,2.24,,BKN,BKN,OVC,,400.0,600.0,800.0,,-RA,,,,,,,27.7,ESSA 211020Z 09006KT 3600 -RA BKN004 BKN006 OVC008 01/01 Q1014 TEMPO 2000 BR BKN004,
ESSA,1737456600,33.8,33.8,100.0,90.0,8.0,0.0,29.91,,3.73,,BKN,BKN,OVC,,500.0,900.0,1000.0,,-DZ,,,,,,,26.33,ESSA 211050Z 09008KT 6000 -DZ BKN005 BKN009 OVC010 01/01 Q1013 TEMPO 2000 BR BKN006,
ESSA,1737458400,33.8,33.8,100.0,120.0,6.0,0.0,29.91,,4.35,,OVC,,,,500.0,,,,-DZ,,,,,,,27.7,ESSA 211120Z 12006KT 7000 -DZ OVC005 01/01 Q1013 NOSIG,
ESSA,1737460200,33.8,33.8,100.0,130.0,7.0,0.0,29.91,,4.97,,BKN,,,,600.0,,,,,,,,,,,26.97,ESSA 211150Z 13007KT 8000 BKN006 01/01 Q1013 NOSIG,
ESSA,1737462000,35.6,33.8,93.08,130.0,7.0,0.0,29.91,,4.35,,SCT,BKN,OVC,,600.0,1400.0,1900.0,,-DZ,,,,,,,29.17,ESSA 211220Z 13007KT 7000 -DZ SCT006 BKN014 OVC019 02/01 Q1013 NOSIG,
ESSA,1737463800,35.6,33.8,93.08,100.0,6.0,0.0,29.88,,2.11,,OVC,,,,500.0,,,,DZ,,,,,,,29.87,ESSA 211250Z 10006KT 3400 DZ OVC005 02/01 Q1012 NOSIG,
ESSA,1737465600,35.6,35.6,100.0,100.0,6.0,0.0,29.88,,5.59,,BKN,,,,500.0,,,,,,,,,,,29.87,ESSA 211320Z 10006KT 9000 BKN005 02/02 Q1012 NOSIG,
ESSA,1737467400,35.6,33.8,93.08,100.0,5.0,0.0,29.85,,3.73,,BKN,,,,400.0,,,,-DZ,,,,,,,30.67,ESSA 211350Z 10005KT 6000 -DZ BKN004 02/01 Q1011 NOSIG,
ESSA,1737469200,33.8,33.8,100.0,80.0,6.0,0.0,29.85,,3.73,,BKN,,,,400.0,,,,-RASN,,,,,,,27.7,ESSA 211420Z 08006KT 6000 -RASN BKN004 01/01 Q1011 NOSIG,
ESSA,1737471000,33.8,33.8,100.0,80.0,6.0,0.0,29.85,,3.73,,VV ,,,,300.0,,,,-DZ,,,,,,,27.7,ESSA 211450Z 08006KT 6000 -DZ VV003 01/01 Q1011 NOSIG,
ESSA,1737472800,35.6,35.6,100.0,80.0,7.0,0.0,29.85,,3.11,,OVC,,,,300.0,,,,-DZ,,,,,,,29.17,ESSA 211520Z 08007KT 5000 -DZ OVC003 02/02 Q1011 NOSIG,
ESSA,1737474600,35.6,33.8,93.08,90.0,8.0,0.0,29.83,,3.11,,OVC,,,,300.0,,,,-DZ,,,,,,,28.55,ESSA 211550Z 09008KT 5000 -DZ OVC003 02/01 Q1010 NOSIG,
ESSA,1737476400,33.8,33.8,100.0,90.0,7.0,0.0,29.83,,3.73,,OVC,,,,300.0,,,,-DZ,,,,,,,26.97,ESSA 211620Z 09007KT 6000 -DZ OVC003 01/01 Q1010 NOSIG,
ESSA,1737478200,33.8,33.8,100.0,90.0,6.0,0.0,29.83,,3.11,,OVC,,,,400.0,,,,-DZ,,,,,,,27.7,ESSA 211650Z 09006KT 5000 -DZ OVC004 01/01 Q1010 NOSIG,
ESSA,1737480000,33.8,33.8,100.0,90.0,6.0,0.0,29.83,,3.11,,OVC,,,,300.0,,,,-DZ,,,,,,,27.7,ESSA 211720Z 09006KT 5000 -DZ OVC003 01/01 Q1010 NOSIG,
ESSA,1737481800,35.6,35.6,100.0,100.0,4.0,0.0,29.83,,2.86,,OVC,,,,300.0,,,,DZ,,,,,,,31.62,ESSA 211750Z 10004KT 4600 DZ OVC003 02/02 Q1010 NOSIG,
ESSA,1737483600,33.8,33.8,100.0,110.0,4.0,0.0,29.8,,3.11,,OVC,,,,300.0,,,,-DZ,,,,,,,29.52,ESSA 211820Z 11004KT 5000 -DZ OVC003 01/01 Q1009 NOSIG,
ESSA,1737485400,33.8,33.8,100.0,110.0,3.0,0.0,29.8,,3.11,,OVC,,,,300.0,,,,DZ,,,,,,,30.75,ESSA 211850Z 11003KT 5000 DZ OVC003 01/01 Q1009 NOSIG,
ESSA,1737487200,33.8,33.8,100.0,140.0,3.0,0.0,29.8,,3.11,,OVC,,,,300.0,,,,-DZ,,,,,,,30.75,ESSA 211920Z 14003KT 5000 -DZ OVC003 01/01 Q1009 NOSIG,
ESSA,1737489000,33.8,33.8,100.0,160.0,3.0,0.0,29.8,,2.49,,OVC,,,,300.0,,,,-DZ BR,,,,,,,30.75,ESSA 211950Z 16003KT 4000 -DZ BR OVC003 01/01 Q1009 NOSIG,
ESSA,1737490800,33.8,33.8,100.0,210.0,5.0,0.0,29.8,,1.86,,FEW,BKN,BKN,,300.0,600.0,2000.0,,,,,,,,,28.53,ESSA 212020Z 21005KT 3000 FEW003 BKN006 BKN020 01/01 Q1009 NOSIG,
ESSA,1737492600,35.6,33.8,93.08,230.0,6.0,0.0,29.8,,6.21,,BKN,,,,600.0,,,,,,,,,,,29.87,ESSA 212050Z 23006KT 9999 BKN006 02/01 Q1009 NOSIG,
ESSA,1737494400,33.8,33.8,100.0,230.0,5.0,0.0,29.8,,6.21,,BKN,,,,500.0,,,,,,,,,,,28.53,ESSA 212120Z 23005KT 9999 BKN005 01/01 Q1009 NOSIG,
ESSA,1737496200,33.8,32.0,93.03,240.0,8.0,0.0,29.8,,6.21,,OVC,,,,300.0,,,,,,,,,,,26.33,ESSA 212150Z 24008KT 9999 OVC003 01/00 Q1009 NOSIG,
ESSA,1737498000,33.8,32.0,93.03,240.0,8.0,0.0,29.8,,6.21,,OVC,,,,300.0,,,,,,,,,,,26.33,ESSA 212220Z 24008KT 9999 OVC003 01/00 Q1009 NOSIG,
ESSA,1737499800,33.8,32.0,93.03,240.0,8.0,0.0,29.8,,6.21,,OVC,,,,300.0,,,,,,,,,,,26.33,ESSA 212250Z 24008KT 9999 OVC003 01/00 Q1009 NOSIG,
ESSA,1737501600,32.0,32.0,100.0,240.0,8.0,0.0,29.8,,6.21,,OVC,,,,300.0,,,,,,,,,,,24.11,ESSA 212320Z 24008KT 9999 OVC003 00/00 Q1009 NOSIG,
ESSA,1737503400,32.0,32.0,100.0,230.0,9.0,0.0,29.8,,6.21,,OVC,,,,300.0,,,,,,,,,,,23.51,ESSA 212350Z 23009KT 9999 OVC003 00/00 Q1009 NOSIG,
ESSA,1737505200,32.0,32.0,100.0,240.0,7.0,0.0,29.8,,6.21,,BKN,OVC,,,500.0,4200.0,,,,,,,,,,24.78,ESSA 220020Z 24007KT 9999 BKN005 OVC042 M00/M00 Q1009 NOSIG,
ESSA,1737507000,32.0,32.0,100.0,230.0,7.0,0.0,29.8,,6.21,,BKN,OVC,,,400.0,4300.0,,,,,,,,,,24.78,ESSA 220050Z 23007KT 9999 BKN004 OVC043 M00/M00 Q1009 NOSIG,
ESSA,1737508800,32.0,30.2,92.97,230.0,7.0,0.0,29.8,,6.21,,BKN,OVC,,,1000.0,4300.0,,,,,,,,,,24.78,ESSA 220120Z 23007KT 9999 BKN010 OVC043 M00/M01 Q1009 NOSIG,
ESSA,1737510600,32.0,32.0,100.0,230.0,5.0,0.0,29.8,,6.21,,OVC,,,,400.0,,,,,,,,,,,26.4,ESSA 220150Z 23005KT 9999 OVC004 M00/M00 Q1009 NOSIG,
ESSA,1737512400,32.0,32.0,100.0,210.0,4.0,0.0,29.77,,4.97,,OVC,,,,300.0,,,,,,,,,,,27.42,ESSA 220220Z 21004KT 8000 OVC003 M00/M00 Q1008 NOSIG,
ESSA,1737514200,32.0,32.0,100.0,210.0,5.0,0.0,29.77,,2.24,,OVC,,,,200.0,,,,BR,,,,,,,26.4,ESSA 220250Z 21005KT 3600 BR OVC002 M00/M00 Q1008 NOSIG,
ESSA,1737516000,32.0,32.0,100.0,190.0,5.0,0.0,29.77,,1.06,,OVC,,,,200.0,,,,BR,,,,,,,26.4,ESSA 220320Z 19005KT 1700 R01L/P2000N R19R/P2000N R01R/P2000N R19L/P2000N BR OVC002 00/00 Q1008 NOSIG,
ESSA,1737517800,32.0,32.0,100.0,210.0,5.0,0.0,44.29,,0.4,,OVC,,,,200.0,,,,FG,,,,,,,26.4,ESSA 220350Z 21005KT 0650 R01L/P2000N R19R/P2000N R01R/P2000N R19L/P2000N FG OVC002 00/M00 Q1008 1500 BR,
ESSA,1737519600,32.0,32.0,100.0,200.0,5.0,0.0,44.29,,0.34,,OVC,,,,200.0,,,,FG,,,,,,,26.4,ESSA 220420Z 20005KT 0550 R01L/P2000N R19R/P2000N R01R/P2000N R19L/P2000N FG OVC002 00/00 Q1008 1500 BR,
ESSA,1737521400,32.0,32.0,100.0,180.0,5.0,0.0,44.29,,0.4,,VV ,,,,200.0,,,,FG,,,,,,,26.4,ESSA 220450Z 18005KT 0650 FG VV002 00/00 Q1008 1500 BR,
ESSA,1737523200,33.8,33.8,100.0,200.0,5.0,0.0,44.29,,0.62,,OVC,,,,200.0,,,,-DZ,,,,,,,28.53,ESSA 220520Z 20005KT 1000 -DZ OVC002 01/01 Q1008 1500 BR,
ESSA,1737525000,33.8,33.8,100.0,210.0,7.0,0.0,44.29,,2.24,,OVC,,,,200.0,,,,,,,,,,,26.97,ESSA 220550Z 21007KT 3600 BR OVC002 01/01 Q1008 1500 BR,
ESSA,1737526800,33.8,33.8,100.0,220.0,7.0,0.0,44.29,,4.35,,OVC,,,,300.0,,,,-DZ,,,,,,,26.97,ESSA 220620Z 22007KT 7000 -DZ OVC003 01/01 Q1008 1500 BR,
ESSA,1737528600,33.8,33.8,100.0,230.0,7.0,0.0,29.77,,2.3,,BKN,OVC,,,300.0,500.0,,,BR,,,,,,,26.97,ESSA 220650Z 23007KT 3700 BR BKN003 OVC005 01/01 Q1008 REDZ 5000,
ESSA,1737530400,33.8,33.8,100.0,240.0,5.0,0.0,29.77,,3.11,,OVC,,,,400.0,,,,BR,,,,,,,28.53,ESSA 220720Z 24005KT 5000 BR OVC004 01/01 Q1008 NOSIG,
ESSA,1737532200,33.8,33.8,100.0,230.0,6.0,0.0,29.77,,3.11,,OVC,,,,300.0,,,,,,,,,,,27.7,ESSA 220750Z 23006KT 5000 OVC003 01/01 Q1008 NOSIG,
ESSA,1737534000,33.8,33.8,100.0,210.0,6.0,0.0,29.77,,2.73,,OVC,,,,300.0,,,,BR,,,,,,,27.7,ESSA 220820Z 21006KT 4400 BR OVC003 01/01 Q1008 NOSIG,
ESSA,1737535800,35.6,33.8,93.08,210.0,6.0,0.0,29.77,,2.42,,OVC,,,,300.0,,,,BR,,,,,,,29.87,ESSA 220850Z 21006KT 3900 BR OVC003 02/01 Q1008 NOSIG,
ESSA,1737537600,35.6,35.6,100.0,210.0,6.0,0.0,29.77,,2.98,,OVC,,,,300.0,,,,BR,,,,,,,29.87,ESSA 220920Z 21006KT 4800 BR OVC003 02/02 Q1008 NOSIG,
ESSA,1737539400,35.6,35.6,100.0,210.0,6.0,0.0,29.77,,2.98,,OVC,,,,300.0,,,,BR,,,,,,,29.87,COR ESSA 220950Z 21006KT 4800 BR OVC003 02/02 Q1008 NOSIG,
ESSA,1737541200,35.6,35.6,100.0,220.0,8.0,0.0,29.77,,3.11,,OVC,,,,300.0,,,,BR,,,,,,,28.55,ESSA 221020Z 22008KT 5000 BR OVC003 02/02 Q1008 NOSIG,
ESSA,1737543000,37.4,35.6,93.14,210.0,7.0,0.0,29.77,,2.92,,OVC,,,,300.0,,,,BR,,,,,,,31.36,ESSA 221050Z 21007KT 4700 BR OVC003 03/02 Q1008 NOSIG,
ESSA,1737544800,37.4,35.6,93.14,220.0,6.0,0.0,29.77,,4.97,,OVC,,,,400.0,,,,,,,,,,,32.03,ESSA 221120Z 22006KT 8000 OVC004 03/02 Q1008 NOSIG,
ESSA,1737546600,35.6,35.6,100.0,210.0,7.0,0.0,29.77,,6.21,,OVC,,,,500.0,,,,,,,,,,,29.17,ESSA 221150Z 21007KT 9999 OVC005 02/02 Q1008 NOSIG,
ESSA,1737548400,35.6,35.6,100.0,210.0,6.0,0.0,29.77,,6.21,,BKN,,,,500.0,,,,,,,,,,,29.87,ESSA 221220Z 21006KT 9999 BKN005 02/02 Q1008 NOSIG,
ESSA,1737550200,35.6,35.6,100.0,210.0,6.0,0.0,29.74,,6.21,,BKN,,,,400.0,,,,,,,,,,,29.87,ESSA 221250Z 21006KT 9999 BKN004 02/02 Q1007 NOSIG,
ESSA,1737552000,37.4,35.6,93.14,200.0,7.0,0.0,29.74,,6.21,,OVC,,,,400.0,,,,,,,,,,,31.36,ESSA 221320Z 20007KT 9999 OVC004 03/02 Q1007 NOSIG,
ESSA,1737553800,35.6,33.8,93.08,190.0,5.0,0.0,29.74,,4.97,,BKN,,,,400.0,,,,-DZ,,,,,,,30.67,ESSA 221350Z 19005KT 8000 -DZ BKN004 02/01 Q1007 NOSIG,
ESSA,1737555600,35.6,35.6,100.0,190.0,6.0,0.0,29.74,,4.35,,OVC,,,,400.0,,,,,,,,,,,29.87,ESSA 221420Z 19006KT 7000 OVC004 02/02 Q1007 NOSIG,
ESSA,1737557400,35.6,33.8,93.08,210.0,7.0,0.0,29.74,,3.11,,OVC,,,,300.0,,,,BR,,,,,,,29.17,ESSA 221450Z 21007KT 5000 BR OVC003 02/01 Q1007 NOSIG,
ESSA,1737559200,35.6,33.8,93.08,200.0,7.0,0.0,29.74,,2.8,,OVC,,,,300.0,,,,BR,,,,,,,29.17,ESSA 221520Z 20007KT 4500 BR OVC003 02/01 Q1007 NOSIG,
ESSA,1737561000,35.6,35.6,100.0,210.0,6.0,0.0,29.74,,6.21,,OVC,,,,500.0,,,,,,,,,,,29.87,ESSA 221550Z 21006KT 9999 OVC005 02/02 Q1007 NOSIG,
ESSA,1737562800,35.6,33.8,93.08,210.0,7.0,0.0,29.74,,2.36,,OVC,,,,300.0,,,,BR,,,,,,,29.17,ESSA 221620Z 21007KT 3800 BR OVC003 02/01 Q1007 NOSIG,
ESSA,1737564600,35.6,35.6,100.0,190.0,7.0,0.0,29.74,,2.11,,OVC,,,,300.0,,,,BR,,,,,,,29.17,ESSA 221650Z 19007KT 3400 BR OVC003 02/02 Q1007 NOSIG,
ESSA,1737566400,37.4,35.6,93.14,220.0,7.0,0.0,29.74,,1.49,,OVC,,,,200.0,,,,BR,,,,,,,31.36,ESSA 221720Z 22007KT 2400 BR OVC002 03/02 Q1007 NOSIG,
ESSA,1737568200,35.6,33.8,93.08,200.0,6.0,0.0,29.74,,1.8,,OVC,,,,200.0,,,,BR,,,,,,,29.87,ESSA 221750Z 20006KT 2900 BR OVC002 02/01 Q1007 NOSIG,
ESSA,1737570000,35.6,35.6,100.0,200.0,7.0,0.0,29.74,,2.05,,OVC,,,,200.0,,,,BR,,,,,,,29.17,ESSA 221820Z 20007KT 3300 BR OVC002 02/02 Q1007 NOSIG,
ESSA,1737571800,35.6,35.6,100.0,200.0,7.0,0.0,29.74,,3.73,,OVC,,,,300.0,,,,,,,,,,,29.17,ESSA 221850Z 20007KT 6000 OVC003 02/02 Q1007 NOSIG,
ESSA,1737573600,35.6,33.8,93.08,210.0,8.0,0.0,29.74,,4.97,,OVC,,,,400.0,,,,,,,,,,,28.55,ESSA 221920Z 21008KT 8000 OVC004 02/01 Q1007 NOSIG,
ESSA,1737575400,35.6,35.6,100.0,200.0,8.0,0.0,29.74,,3.73,,OVC,,,,400.0,,,,,,,,,,,28.55,ESSA 221950Z 20008KT 6000 OVC004 02/02 Q1007 NOSIG,
ESSA,1737577200,35.6,33.8,93.08,220.0,7.0,0.0,29.74,,3.73,,OVC,,,,400.0,,,,,,,,,,,29.17,ESSA 222020Z 22007KT 6000 OVC004 02/01 Q1007 NOSIG,
ESSA,1737579000,35.6,33.8,93.08,180.0,7.0,0.0,29.74,,3.73,,OVC,,,,400.0,,,,,,,,,,,29.17,ESSA 222050Z 18007KT 6000 OVC004 02/01 Q1007 NOSIG,
ESSA,1737580800,35.6,33.8,93.08,210.0,7.0,0.0,29.74,,4.35,,OVC,,,,400.0,,,,,,,,,,,29.17,ESSA 222120Z 21007KT 7000 OVC004 02/01 Q1007 NOSIG,
ESSA,1737582600,35.6,33.8,93.08,210.0,7.0,0.0,29.74,,6.21,,OVC,,,,500.0,,,,,,,,,,,29.17,ESSA 222150Z 21007KT 9999 OVC005 02/01 Q1007 NOSIG,
ESSA,1737584400,35.6,33.8,93.08,220.0,6.0,0.0,29.74,,6.21,,OVC,,,,600.0,,,,,,,,,,,29.87,ESSA 222220Z 22006KT 9999 OVC006 02/01 Q1007 NOSIG,
ESSA,1737586200,35.6,33.8,93.08,210.0,6.0,0.0,29.74,,6.21,,OVC,,,,500.0,,,,,,,,,,,29.87,ESSA 222250Z 21006KT 9999 OVC005 02/01 Q1007 NOSIG,
ESSA,1737588000,35.6,33.8,93.08,200.0,6.0,0.0,29.74,,6.21,,OVC,,,,500.0,,,,,,,,,,,29.87,ESSA 222320Z 20006KT 9999 OVC005 02/01 Q1007 NOSIG,
ESSA,1737589800,33.8,33.8,100.0,190.0,6.0,0.0,29.74,,6.21,,OVC,,,,400.0,,,,,,,,,,,27.7,ESSA 222350Z 19006KT 9999 OVC004 01/01 Q1007 NOSIG,
ESSA,1737591600,35.6,33.8,93.08,210.0,7.0,0.0,29.74,,6.21,,OVC,,,,400.0,,,,,,,,,,,29.17,ESSA 230020Z 21007KT 9999 OVC004 02/01 Q1007 NOSIG,
ESSA,1737593400,33.8,33.8,100.0,210.0,9.0,0.0,29.74,,6.21,,OVC,,,,300.0,,,,,,,,,,,25.75,ESSA 230050Z 21009KT 9999 OVC003 01/01 Q1007 NOSIG,
ESSA,1737595200,33.8,33.8,100.0,210.0,8.0,0.0,29.71,,6.21,,OVC,,,,300.0,,,,,,,,,,,26.33,ESSA 230120Z 21008KT 9999 OVC003 01/01 Q1006 NOSIG,
ESSA,1737597000,35.6,33.8,93.08,190.0,7.0,0.0,29.71,,2.55,,OVC,,,,300.0,,,,BR,,,,,,,29.17,ESSA 230150Z 19007KT 4100 BR OVC003 02/01 Q1006 TEMPO 8000,
ESSA,1737598800,33.8,33.8,100.0,190.0,7.0,0.0,29.71,,3.73,,OVC,,,,300.0,,,,-DZ,,,,,,,26.97,ESSA 230220Z 19007KT 6000 -DZ OVC003 01/01 Q1006 TEMPO 4000 BR,
ESSA,1737600600,33.8,33.8,100.0,170.0,5.0,0.0,29.71,,3.11,,OVC,,,,200.0,,,,-RA,,,,,,,28.53,ESSA 230250Z 17005KT 5000 -RA OVC002 01/01 Q1006 TEMPO 4000,
ESSA,1737602400,33.8,32.0,93.03,170.0,4.0,0.0,29.71,,6.21,,OVC,,,,300.0,,,,DZ,,,,,,,29.52,ESSA 230320Z 17004KT 9999 DZ OVC003 01/00 Q1006 NOSIG,
ESSA,1737604200,33.8,33.8,100.0,170.0,4.0,0.0,29.68,,4.35,,OVC,,,,300.0,,,,DZ,,,,,,,29.52,ESSA 230350Z 17004KT 7000 DZ OVC003 01/01 Q1005 NOSIG,
ESSA,1737606000,33.8,32.0,93.03,130.0,3.0,0.0,29.68,,6.21,,OVC,,,,300.0,,,,-DZ,,,,,,,30.75,ESSA 230420Z 13003KT 9999 -DZ OVC003 01/00 Q1005 NOSIG,
ESSA,1737607800,33.8,32.0,93.03,140.0,4.0,0.0,29.68,,4.35,,OVC,,,,300.0,,,,-RADZ,,,,,,,29.52,ESSA 230450Z 14004KT 7000 -RADZ OVC003 01/00 Q1005 NOSIG,
ESSA,1737609600,33.8,32.0,93.03,130.0,4.0,0.0,29.68,,4.97,,OVC,,,,300.0,,,,-RA,,,,,,,29.52,ESSA 230520Z 13004KT 8000 -RA OVC003 01/00 Q1005 NOSIG,
ESSA,1737611400,32.0,32.0,100.0,120.0,3.0,0.0,29.68,,4.35,,VV ,,,,500.0,,,,,,,,,,,28.69,ESSA 230550Z 12003KT 7000 VV005 00/M00 Q1005 NOSIG,
ESSA,1737613200,33.8,32.0,93.03,100.0,3.0,0.0,29.68,,3.11,,VV ,,,,400.0,,,,DZRA,,,,,,,30.75,ESSA 230620Z 10003KT 5000 DZRA VV004 01/00 Q1005 NOSIG,
ESSA,1737615000,32.0,32.0,100.0,100.0,4.0,0.0,29.68,,1.86,,OVC,,,,300.0,,,,-RADZ,,,,,,,27.42,ESSA 230650Z 10004KT 3000 -RADZ OVC003 00/00 Q1005 TEMPO 2000 DZ,
ESSA,1737616800,33.8,33.8,100.0,130.0,4.0,0.0,29.68,,1.55,,VV ,,,,300.0,,,,-RADZ BR,,,,,,,29.52,ESSA 230720Z 13004KT 2500 -RADZ BR VV003 01/01 Q1005 TEMPO 4000 DZ,
ESSA,1737618600,35.6,33.8,93.08,140.0,5.0,0.0,29.68,,3.11,,VV ,,,,300.0,,,,-DZ,,,,,,,30.67,ESSA 230750Z 14005KT 5000 -DZ VV003 02/01 Q1005 TEMPO 4000 DZ,
ESSA,1737620400,33.8,33.8,100.0,140.0,7.0,0.0,29.68,,3.73,,OVC,,,,300.0,,,,-RA,,,,,,,26.97,ESSA 230820Z 14007KT 6000 -RA OVC003 01/01 Q1005 TEMPO 4000 DZ BKN005,
ESSA,1737622200,33.8,33.8,100.0,140.0,7.0,0.0,29.68,,3.73,,OVC,,,,400.0,,,,-RADZ,,,,,,,26.97,ESSA 230850Z 14007KT 6000 -RADZ OVC004 01/01 Q1005 TEMPO 4000 DZ BKN005,
ESSA,1737624000,35.6,33.8,93.08,130.0,8.0,0.0,29.65,,4.35,,OVC,,,,400.0,,,,-RADZ,,,,,,,28.55,ESSA 230920Z 13008KT 7000 -RADZ OVC004 02/01 Q1004 TEMPO 4000 DZ BKN005,
ESSA,1737625800,33.8,33.8,100.0,130.0,7.0,0.0,29.65,,5.59,,OVC,,,,500.0,,,,-DZ,,,,,,,26.97,ESSA 230950Z 13007KT 9000 -DZ OVC005 01/01 Q1004 NOSIG,
ESSA,1737627600,35.6,33.8,93.08,130.0,8.0,0.0,29.65,,6.21,,OVC,,,,500.0,,,,-DZ,,,,,,,28.55,ESSA 231020Z 13008KT 9999 -DZ OVC005 02/01 Q1004 NOSIG,
ESSA,1737629400,35.6,33.8,93.08,140.0,9.0,0.0,29.62,,6.21,,OVC,,,,500.0,,,,-DZ,,,,,,,27.99,ESSA 231050Z 14009KT 9999 -DZ OVC005 02/01 Q1003 NOSIG,
ESSA,1737631200,35.6,35.6,100.0,130.0,9.0,0.0,29.62,,6.21,,OVC,,,,600.0,,,,,,,,,,,27.99,ESSA 231120Z 13009KT 9999 OVC006 02/02 Q1003 NOSIG,
ESSA,1737633000,35.6,33.8,93.08,130.0,9.0,0.0,29.62,,6.21,,OVC,,,,600.0,,,,,,,,,,,27.99,ESSA 231150Z 13009KT 9999 OVC006 02/01 Q1003 NOSIG,
ESSA,1737634800,35.6,35.6,100.0,120.0,11.0,0.0,29.59,,6.21,,OVC,,,,600.0,,,,,,,,,,,27.02,ESSA 231220Z 12011KT 9999 OVC006 02/02 Q1002 NOSIG,
ESSA,1737636600,35.6,33.8,93.08,130.0,11.0,0.0,29.59,,6.21,,OVC,,,,600.0,,,,,,,,,,,27.02,ESSA 231250Z 13011KT 9999 OVC006 02/01 Q1002 NOSIG,
ESSA,1737638400,37.4,35.6,93.14,130.0,10.0,0.0,29.56,,6.21,,OVC,,,,700.0,,,,,,,,,,,29.74,ESSA 231320Z 13010KT 9999 OVC007 03/02 Q1001 NOSIG,
ESSA,1737640200,37.4,33.8,86.69,110.0,11.0,0.0,29.56,,6.21,,BKN,OVC,,,800.0,900.0,,,,,,,,,,29.29,ESSA 231350Z 11011KT 9999 BKN008 OVC009 03/01 Q1001 NOSIG,
ESSA,1737642000,35.6,33.8,93.08,110.0,11.0,0.0,29.53,,6.21,,BKN,OVC,,,800.0,900.0,,,,,,,,,,27.02,ESSA 231420Z 11011KT 9999 BKN008 OVC009 02/01 Q1000 NOSIG,
ESSA,1737643800,35.6,33.8,93.08,110.0,12.0,0.0,29.53,,6.21,,OVC,,,,800.0,,,,,,,,,,,26.58,ESSA 231450Z 11012KT 9999 OVC008 02/01 Q1000 NOSIG,
ESSA,1737645600,35.6,33.8,93.08,110.0,12.0,0.0,29.5,,6.21,,OVC,,,,800.0,,,,,,,,,,,26.58,ESSA 231520Z 11012KT 9999 OVC008 02/01 Q0999 NOSIG,
ESSA,1737647400,35.6,33.8,93.08,100.0,12.0,0.0,29.5,,6.21,,OVC,,,,800.0,,,,,,,,,,,26.58,ESSA 231550Z 10012KT 9999 OVC008 02/01 Q0999 NOSIG,
ESSA,1737649200,35.6,33.8,93.08,110.0,11.0,0.0,29.5,,6.21,,BKN,OVC,,,800.0,900.0,,,,,,,,,,27.02,ESSA 231620Z 11011KT 9999 BKN008 OVC009 02/01 Q0999 TEMPO 4000 RADZ,
ESSA,1737651000,35.6,33.8,93.08,110.0,11.0,0.0,29.5,,6.21,,BKN,OVC,,,900.0,1100.0,,,,,,,,,,27.02,ESSA 231650Z 11011KT 9999 BKN009 OVC011 02/01 Q0999 TEMPO 4000 RADZ,
ESSA,1737652800,35.6,33.8,93.08,110.0,13.0,0.0,29.47,,6.21,,OVC,,,,900.0,,,,-RA,,,,,,,26.18,ESSA 231720Z 11013KT 9999 -RA OVC009 02/01 Q0998 TEMPO 4000 RADZ,
ESSA,1737654600,35.6,33.8,93.08,130.0,12.0,0.0,29.47,,5.59,,OVC,,,,800.0,,,,-RA,,,,,,,26.58,ESSA 231750Z 13012KT 100V160 9000 -RA OVC008 02/01 Q0998 TEMPO 4000 RADZ,
ESSA,1737656400,35.6,33.8,93.08,120.0,13.0,0.0,29.47,,4.35,,OVC,,,,700.0,,,,-RA,,,,,,,26.18,ESSA 231820Z 12013KT 7000 -RA OVC007 02/01 Q0998 TEMPO 4000 RADZ,
ESSA,1737658200,35.6,33.8,93.08,130.0,12.0,0.0,29.47,,4.35,,OVC,,,,700.0,,,,-RA,,,,,,,26.58,ESSA 231850Z 13012KT 7000 -RA OVC007 02/01 Q0998 TEMPO 4000 RADZ,
ESSA,1737660000,35.6,33.8,93.08,130.0,13.0,0.0,29.44,,3.04,,BKN,OVC,,,700.0,1100.0,,,-RA,,,,,,,26.18,ESSA 231920Z 13013KT 4900 -RA BKN007 OVC011 02/01 Q0997 TEMPO 4000 RADZ,
ESSA,1737661800,33.8,32.0,93.03,130.0,13.0,0.0,29.44,,6.21,,BKN,OVC,,,600.0,1100.0,,,-RA,,,,,,,23.87,ESSA 231950Z 13013KT 9999 -RA BKN006 OVC011 01/00 Q0997 TEMPO 4000 RASN,
ESSA,1737663600,33.8,32.0,93.03,120.0,12.0,0.0,29.44,,5.59,,BKN,OVC,,,500.0,1000.0,,,-RA,,,,,,,24.29,ESSA 232020Z 12012KT 9000 -RA BKN005 OVC010 01/00 Q0997 TEMPO 4000 RASN,
ESSA,1737665400,33.8,32.0,93.03,130.0,12.0,0.0,29.41,,3.11,,OVC,,,,600.0,,,,-RA,,,,,,,24.29,ESSA 232050Z 13012KT 5000 -RA OVC006 01/00 Q0996 TEMPO 4000 RASN,
ESSA,1737667200,33.8,32.0,93.03,130.0,11.0,0.0,29.41,,3.11,,BKN,OVC,,,500.0,800.0,,,DZ,,,,,,,24.74,ESSA 232120Z 13011KT 5000 DZ BKN005 OVC008 01/00 Q0996 TEMPO 2000 SNRA BKN004,
ESSA,1737669000,33.8,32.0,93.03,130.0,9.0,0.0,29.41,,2.86,,OVC,,,,400.0,,,,-RA,,,,,,,25.75,ESSA 232150Z 13009KT 4600 -RA OVC004 01/00 Q0996 TEMPO 2000 SNRA BKN004,
ESSA,1737670800,33.8,32.0,93.03,160.0,10.0,0.0,29.41,,6.21,,OVC,,,,600.0,,,,-RA,,,,,,,25.23,ESSA 232220Z 16010KT 9999 -RA OVC006 01/00 Q0996 TEMPO 4000 RASN BKN004,
ESSA,1737672600,33.8,32.0,93.03,150.0,11.0,0.0,29.41,,6.21,,OVC,,,,600.0,,,,-RA,,,,,,,24.74,ESSA 232250Z 15011KT 9999 -RA OVC006 01/00 Q0996 TEMPO 4000 RASN BKN004,
ESSA,1737674400,33.8,32.0,93.03,150.0,9.0,0.0,29.41,,6.21,,OVC,,,,500.0,,,,,,,,,,,25.75,ESSA 232320Z 15009KT 9999 OVC005 01/00 Q0996 NOSIG,
ESSA,1737676200,33.8,32.0,93.03,160.0,9.0,0.0,29.41,,6.21,,OVC,,,,500.0,,,,,,,,,,,25.75,ESSA 232350Z 16009KT 9999 OVC005 01/00 Q0996 NOSIG,
ESSA,1737678000,33.8,32.0,93.03,160.0,10.0,0.0,29.41,,6.21,,OVC,,,,400.0,,,,,,,,,,,25.23,ESSA 240020Z 16010KT 9999 OVC004 01/00 Q0996 NOSIG,
ESSA,1737679800,33.8,32.0,93.03,170.0,9.0,0.0,29.41,,6.21,,OVC,,,,500.0,,,,,,,,,,,25.75,ESSA 240050Z 17009KT 9999 OVC005 01/00 Q0996 NOSIG,
ESSA,1737681600,33.8,32.0,93.03,170.0,9.0,0.0,29.41,,6.21,,OVC,,,,500.0,,,,,,,,,,,25.75,ESSA 240120Z 17009KT 9999 OVC005 01/00 Q0996 NOSIG,
ESSA,1737683400,33.8,33.8,100.0,170.0,10.0,0.0,29.41,,6.21,,OVC,,,,600.0,,,,,,,,,,,25.23,ESSA 240150Z 17010KT 9999 OVC006 01/01 Q0996 NOSIG,
ESSA,1737685200,33.8,32.0,93.03,180.0,10.0,0.0,29.44,,6.21,,FEW,SCT,OVC,,800.0,1200.0,1600.0,,,,,,,,,25.23,ESSA 240220Z 18010KT 9999 FEW008 SCT012 OVC016 01/00 Q0997 NOSIG,
ESSA,1737687000,33.8,32.0,93.03,180.0,10.0,0.0,29.44,,6.21,,BKN,OVC,,,1000.0,1400.0,,,,,,,,,,25.23,ESSA 240250Z 18010KT 9999 BKN010 OVC014 01/00 Q0997 NOSIG,
ESSA,1737688800,33.8,32.0,93.03,210.0,10.0,0.0,29.44,,6.21,,OVC,,,,1000.0,,,,,,,,,,,25.23,ESSA 240320Z 21010KT 9999 OVC010 01/00 Q0997 NOSIG,
ESSA,1737690600,33.8,32.0,93.03,220.0,11.0,0.0,29.44,,6.21,,OVC,,,,1000.0,,,,,,,,,,,24.74,ESSA 240350Z 22011KT 9999 OVC010 01/M00 Q0997 NOSIG,
ESSA,1737692400,33.8,30.2,86.49,220.0,10.0,0.0,29.47,,6.21,,FEW,BKN,,,700.0,1400.0,,,,,,,,,,25.23,ESSA 240420Z 22010KT 9999 FEW007 BKN014 01/M01 Q0998 NOSIG,
ESSA,1737694200,32.0,30.2,92.97,220.0,11.0,0.0,29.47,,6.21,,SCT,,,,2000.0,,,,,,,,,,,22.47,ESSA 240450Z 22011KT 9999 SCT020 00/M01 Q0998 NOSIG,
ESSA,1737696000,32.0,30.2,92.97,200.0,10.0,0.0,29.47,,6.21,,,,,,,,,,,,,,,,,22.97,ESSA 240520Z 20010KT CAVOK 00/M01 Q0998 NOSIG,
ESSA,1737697800,32.0,30.2,92.97,210.0,9.0,0.0,29.5,,6.21,,BKN,,,,2100.0,,,,,,,,,,,23.51,ESSA 240550Z 21009KT 9999 BKN021 M00/M01 Q0999 NOSIG,
ESSA,1737699600,32.0,30.2,92.97,180.0,9.0,0.0,29.5,,6.21,,FEW,BKN,BKN,,400.0,1000.0,1400.0,,,,,,,,,23.51,ESSA 240620Z 18009KT 9999 FEW004 BKN010 BKN014 00/M01 Q0999 TEMPO 2500 -SN BKN008,
ESSA,1737701400,32.0,32.0,100.0,210.0,10.0,0.0,29.5,,6.21,,BKN,OVC,,,600.0,1000.0,,,,,,,,,,22.97,ESSA 240650Z 21010KT 9999 BKN006 OVC010 00/M00 Q0999 TEMPO 400 -SNRA BKN012,
ESSA,1737703200,33.8,33.8,100.0,210.0,11.0,0.0,29.5,,6.21,,BKN,OVC,,,700.0,1300.0,,,,,,,,,,24.74,ESSA 240720Z 21011KT 9999 BKN007 OVC013 01/01 Q0999 TEMPO 4000 -SNRA BKN012,
ESSA,1737705000,35.6,33.8,93.08,220.0,11.0,0.0,29.53,,6.21,,BKN,,,,900.0,,,,,,,,,,,27.02,ESSA 240750Z 22011KT 9999 BKN009 02/01 Q1000 TEMPO BKN012,
ESSA,1737706800,33.8,32.0,93.03,210.0,11.0,0.0,29.53,,6.21,,BKN,,,,900.0,,,,,,,,,,,24.74,ESSA 240820Z 21011KT 9999 BKN009 01/00 Q1000 TEMPO BKN012,
ESSA,1737708600,33.8,32.0,93.03,210.0,11.0,0.0,29.53,,6.21,,BKN,BKN,OVC,,900.0,1200.0,1400.0,,-DZ,,,,,,,24.74,ESSA 240850Z 21011KT 9999 -DZ BKN009 BKN012 OVC014 01/00 Q1000 TEMPO BKN012,
ESSA,1737710400,35.6,33.8,93.08,190.0,11.0,0.0,29.56,,6.21,,FEW,BKN,,,1100.0,3100.0,,,,,,,,,,27.02,ESSA 240920Z 19011KT 9999 FEW011 BKN031 02/01 Q1001 TEMPO BKN012,
ESSA,1737712200,37.4,35.6,93.14,190.0,12.0,0.0,29.56,,6.21,,BKN,,,,1300.0,,,,,,,,,,,28.87,ESSA 240950Z 19012KT 9999 BKN013 03/02 Q1001 TEMPO BKN015,
ESSA,1737714000,35.6,33.8,93.08,200.0,12.0,0.0,29.56,,6.21,,BKN,,,,1200.0,,,,,,,,,,,26.58,ESSA 241020Z 20012KT 9999 BKN012 02/01 Q1001 TEMPO BKN015,
ESSA,1737715800,35.6,32.0,86.59,190.0,12.0,0.0,29.56,,6.21,,BKN,,,,1100.0,,,,,,,,,,,26.58,ESSA 241050Z 19012KT 9999 BKN011 02/00 Q1001 TEMPO BKN015,
ESSA,1737717600,35.6,33.8,93.08,190.0,12.0,0.0,29.56,,6.21,,BKN,,,,1200.0,,,,,,,,,,,26.58,ESSA 241120Z 19012KT 9999 BKN012 02/01 Q1001 TEMPO BKN015,
ESSA,1737719400,35.6,32.0,86.59,190.0,12.0,0.0,29.56,,6.21,,BKN,,,,1400.0,,,,,,,,,,,26.58,ESSA 241150Z 19012KT 9999 BKN014 02/00 Q1001 TEMPO BKN015,
ESSA,1737721200,37.4,33.8,86.69,200.0,12.0,0.0,29.56,,6.21,,BKN,,,,1500.0,,,,,,,,,,,28.87,ESSA 241220Z 20012KT 9999 BKN015 03/01 Q1001 TEMPO BKN015,
ESSA,1737723000,39.2,35.6,86.79,180.0,12.0,0.0,29.56,,6.21,,BKN,,,,1600.0,,,,,,,,,,,31.17,ESSA 241250Z 18012KT 9999 BKN016 04/02 Q1001 TEMPO BKN013,
ESSA,1737724800,37.4,33.8,86.69,170.0,11.0,0.0,29.56,,6.21,,BKN,,,,1200.0,,,,,,,,,,,29.29,ESSA 241320Z 17011KT 9999 BKN012 03/01 Q1001 TEMPO BKN013,
ESSA,1737726600,37.4,33.8,86.69,170.0,13.0,0.0,29.56,,6.21,,BKN,,,,1100.0,,,,,,,,,,,28.49,ESSA 241350Z 17013KT 9999 BKN011 03/01 Q1001 TEMPO BKN015,
ESSA,1737728400,37.4,33.8,86.69,180.0,12.0,0.0,29.53,,6.21,,BKN,,,,1300.0,,,,,,,,,,,28.87,ESSA 241420Z 18012KT 9999 BKN013 03/01 Q1000 TEMPO BKN015,
ESSA,1737730200,37.4,33.8,86.69,170.0,14.0,0.0,29.53,,6.21,,BKN,,,,1300.0,,,,,,,,,,,28.12,ESSA 241450Z 17014KT 9999 BKN013 03/01 Q1000 TEMPO BKN015,
ESSA,1737732000,37.4,33.8,86.69,170.0,14.0,0.0,29.53,,6.21,,SCT,BKN,,,1500.0,1800.0,,,,,,,,,,28.12,ESSA 241520Z 17014KT 9999 SCT015 BKN018 03/01 Q1000 TEMPO BKN013,
ESSA,1737733800,37.4,33.8,86.69,180.0,14.0,0.0,29.53,,6.21,,BKN,,,,1200.0,,,,,,,,,,,28.12,ESSA 241550Z 18014KT 9999 BKN012 03/01 Q1000 TEMPO BKN015,
ESSA,1737735600,37.4,35.6,93.14,180.0,14.0,0.0,29.5,,6.21,,BKN,,,,1200.0,,,,,,,,,,,28.12,ESSA 241620Z 18014KT 9999 BKN012 03/02 Q0999 TEMPO BKN015,
ESSA,1737737400,37.4,33.8,86.69,170.0,14.0,0.0,29.5,,6.21,,BKN,,,,1100.0,,,,,,,,,,,28.12,ESSA 241650Z 17014KT 9999 BKN011 03/01 Q0999 TEMPO BKN015,
ESSA,1737739200,37.4,33.8,86.69,160.0,14.0,0.0,29.47,,6.21,,BKN,,,,1200.0,,,,,,,,,,,28.12,ESSA 241720Z 16014KT 9999 BKN012 03/01 Q0998 TEMPO BKN015,
ESSA,1737741000,37.4,33.8,86.69,170.0,14.0,0.0,29.47,,6.21,,BKN,,,,1200.0,,,,,,,,,,,28.12,ESSA 241750Z 17014KT 9999 BKN012 03/01 Q0998 TEMPO BKN015,
ESSA,1737742800,37.4,33.8,86.69,170.0,15.0,0.0,29.47,,6.21,,BKN,,,,1000.0,,,,,,,,,,,27.78,ESSA 241820Z 17015KT 9999 BKN010 03/01 Q0998 TEMPO BKN015,
ESSA,1737744600,37.4,33.8,86.69,180.0,17.0,0.0,29.44,,6.21,29.0,OVC,,,,900.0,,,,,,,,,,,27.15,ESSA 241850Z 18017G29KT 9999 OVC009 03/01 Q0997 TEMPO BKN015,
ESSA,1737746400,37.4,35.6,93.14,170.0,19.0,0.0,29.44,,6.21,,OVC,,,,900.0,,,,,,,,,,,26.58,ESSA 241920Z 17019KT 9999 OVC009 03/02 Q0997 TEMPO BKN012,
ESSA,1737748200,39.2,35.6,86.79,170.0,19.0,0.0,29.41,,6.21,,BKN,,,,1000.0,,,,,,,,,,,28.96,ESSA 241950Z 17019KT 9999 BKN010 04/02 Q0996 TEMPO BKN012,
ESSA,1737750000,37.4,35.6,93.14,170.0,19.0,0.0,29.41,,6.21,,OVC,,,,1000.0,,,,,,,,,,,26.58,ESSA 242020Z 17019KT 9999 OVC010 03/02 Q0996 TEMPO BKN012,
ESSA,1737751800,37.4,33.8,86.69,170.0,19.0,0.0,29.38,,6.21,,OVC,,,,900.0,,,,-RA,,,,,,,26.58,ESSA 242050Z 17019KT 9999 -RA OVC009 03/01 Q0995 TEMPO BKN012,
ESSA,1737753600,35.6,33.8,93.08,170.0,18.0,0.0,29.38,,6.21,,BKN,OVC,,,900.0,1100.0,,,-RA,,,,,,,24.49,ESSA 242120Z 17018KT 9999 -RA BKN009 OVC011 02/01 Q0995 TEMPO BKN012,
ESSA,1737755400,37.4,35.6,93.14,160.0,19.0,0.0,29.35,,6.21,,BKN,OVC,,,900.0,1600.0,,,-RA,,,,,,,26.58,ESSA 242150Z 16019KT 9999 -RA BKN009 OVC016 03/02 Q0994 TEMPO BKN012,
ESSA,1737757200,37.4,35.6,93.14,160.0,18.0,0.0,29.32,,6.21,,BKN,,,,1000.0,,,,,,,,,,,26.86,ESSA 242220Z 16018KT 9999 BKN010 03/02 Q0993 TEMPO BKN012,
ESSA,1737759000,35.6,33.8,93.08,170.0,21.0,0.0,29.32,,6.21,,OVC,,,,900.0,,,,-RA,,,,,,,23.65,ESSA 242250Z 17021KT 9999 -RA OVC009 02/01 Q0993 TEMPO BKN012,
ESSA,1737760800,37.4,35.6,93.14,170.0,18.0,0.0,29.32,,6.21,,BKN,OVC,,,800.0,1200.0,,,-RA,,,,,,,26.86,ESSA 242320Z 17018KT 9999 -RA BKN008 OVC012 03/02 Q0993 TEMPO BKN012,
ESSA,1737762600,37.4,35.6,93.14,170.0,16.0,0.0,29.32,,6.21,,BKN,,,,900.0,,,,,,,,,,,27.46,ESSA 242350Z 17016KT 9999 BKN009 03/02 Q0993 TEMPO BKN012,
