station,valid,tmpf,dwpf,relh,drct,sknt,p01i,alti,mslp,vsby,gust,skyc1,skyc2,skyc3,skyc4,skyl1,skyl2,skyl3,skyl4,wxcodes,ice_accretion_1hr,ice_accretion_3hr,ice_accretion_6hr,peak_wind_gust,peak_wind_drct,peak_wind_time,feel,metar,snowdepth
HESH,2024-08-16 00:00,89.60,68.00,49.10,340.00,13.00,0.00,29.62,,6.21,,,,,,,,,,,,,,,,,93.47,HESH 160000Z 34013KT CAVOK 32/20 Q1003 NOSIG,
HESH,2024-08-16 01:00,89.60,68.00,49.10,340.00,12.00,0.00,29.62,,6.21,,,,,,,,,,,,,,,,,93.47,HESH 160100Z 34012KT CAVOK 32/20 Q1003 NOSIG,
HESH,2024-08-16 02:00,87.80,68.00,51.98,350.00,14.00,0.00,29.62,,6.21,,,,,,,,,,,,,,,,,91.43,HESH 160200Z 35014KT CAVOK 31/20 Q1003 NOSIG,
HESH,2024-08-16 03:00,87.80,64.40,45.88,350.00,12.00,0.00,29.62,,6.21,,,,,,,,,,,,,,,,,89.33,HESH 160300Z 35012KT CAVOK 31/18 Q1003 NOSIG,
HESH,2024-08-16 04:00,87.80,64.40,45.88,340.00,13.00,0.00,29.65,,6.21,,,,,,,,,,,,,,,,,89.33,HESH 160400Z 34013KT CAVOK 31/18 Q1004 NOSIG,
HESH,2024-08-16 05:00,89.60,64.40,43.34,350.00,12.00,0.00,29.65,,6.21,,,,,,,,,,,,,,,,,91.23,HESH 160500Z 35012KT CAVOK 32/18 Q1004 NOSIG,
HESH,2024-08-16 06:00,91.40,66.20,43.61,360.00,14.00,0.00,29.65,,6.21,,,,,,,,,,,,,,,,,94.29,HESH 160600Z 36014KT CAVOK 33/19 Q1004 NOSIG,
HESH,2024-08-16 07:00,93.20,66.20,41.23,350.00,14.00,0.00,29.65,,6.21,,,,,,,,,,,,,,,,,96.35,HESH 160700Z 35014KT CAVOK 34/19 Q1004 NOSIG,
HESH,2024-08-16 08:00,93.20,64.40,38.73,360.00,15.00,0.00,29.65,,6.21,,,,,,,,,,,,,,,,,95.20,HESH 160800Z 36015KT CAVOK 34/18 Q1004 NOSIG,
HESH,2024-08-16 09:00,98.60,62.60,30.80,20.00,9.00,0.00,29.65,,6.21,,,,,,,,,,,,,,,,,100.38,HESH 160900Z 02009KT CAVOK 37/17 Q1004 NOSIG,
HESH,2024-08-16 10:00,100.40,62.60,29.17,10.00,10.00,0.00,29.65,,6.21,,,,,,,,,,,,,,,,,102.50,HESH 161000Z 01010KT CAVOK 38/17 Q1004 NOSIG,
HESH,2024-08-16 11:00,100.40,60.80,27.37,20.00,10.00,0.00,29.65,,6.21,,,,,,,,,,,,,,,,,101.47,HESH 161100Z 02010KT CAVOK 38/16 Q1004 NOSIG,
HESH,2024-08-16 12:00,102.20,55.40,21.36,20.00,10.00,0.00,29.59,,6.21,,,,,,,,,,,,,,,,,101.04,HESH 161200Z 02010KT CAVOK 39/13 Q1002 NOSIG,
HESH,2024-08-16 13:00,104.00,55.40,20.24,10.00,9.00,0.00,29.59,,6.21,,,,,,,,,,,,,,,,,103.01,HESH 161300Z 01009KT CAVOK 40/13 Q1002 NOSIG,
HESH,2024-08-16 14:00,104.00,53.60,18.95,20.00,9.00,0.00,29.59,,6.21,,,,,,,,,,,,,,,,,102.31,HESH 161400Z 02009KT CAVOK 40/12 Q1002 NOSIG,
HESH,2024-08-16 15:00,102.20,53.60,20.00,360.00,8.00,0.00,29.56,,6.21,,,,,,,,,,,,,,,,,100.38,HESH 161500Z 36008KT CAVOK 39/12 Q1001 NOSIG,
HESH,2024-08-16 16:00,100.40,53.60,21.11,10.00,10.00,0.00,29.56,,6.21,,,,,,,,,,,,,,,,,98.44,HESH 161600Z 01010KT CAVOK 38/12 Q1001 NOSIG,
HESH,2024-08-16 17:00,98.60,53.60,22.29,360.00,8.00,0.00,29.59,,6.21,,,,,,,,,,,,,,,,,96.51,HESH 161700Z 36008KT CAVOK 37/12 Q1002 NOSIG,
HESH,2024-08-16 18:00,98.60,55.40,23.81,330.00,5.00,0.00,29.59,,6.21,,,,,,,,,,,,,,,,,97.09,HESH 161800Z 33005KT CAVOK 37/13 Q1002 NOSIG,
HESH,2024-08-16 19:00,96.80,55.40,25.15,340.00,6.00,0.00,29.59,,6.21,,,,,,,,,,,,,,,,,95.14,HESH 161900Z 34006KT CAVOK 36/13 Q1002 NOSIG,
HESH,2024-08-16 20:00,95.00,55.40,26.58,330.00,5.00,0.00,29.59,,6.21,,,,,,,,,,,,,,,,,93.22,HESH 162000Z 33005KT CAVOK 35/13 Q1002 NOSIG,
HESH,2024-08-16 21:00,93.20,57.20,29.99,310.00,4.00,0.00,29.59,,6.21,,,,,,,,,,,,,,,,,91.91,HESH 162100Z 31004KT CAVOK 34/14 Q1002 NOSIG,
HESH,2024-08-16 22:00,93.20,57.20,29.99,300.00,4.00,0.00,29.59,,6.21,,,,,,,,,,,,,,,,,91.91,HESH 162200Z 30004KT CAVOK 34/14 Q1002 NOSIG,
HESH,2024-08-16 23:00,91.40,57.20,31.72,290.00,3.00,0.00,29.59,,6.21,,,,,,,,,,,,,,,,,90.06,HESH 162300Z 29003KT CAVOK 33/14 Q1002 NOSIG,
HESH,2024-08-17 00:00,89.60,69.80,52.23,340.00,10.00,0.00,29.59,,6.21,,,,,,,,,,,,,,,,,94.85,HESH 170000Z 34010KT CAVOK 32/21 Q1002 NOSIG,
HESH,2024-08-17 01:00,87.80,69.80,55.29,240.00,12.00,0.00,29.59,,6.21,,,,,,,,,,,,,,,,,92.71,HESH 170100Z 24012KT CAVOK 31/21 Q1002 NOSIG,
HESH,2024-08-17 02:00,87.80,69.80,55.29,350.00,10.00,0.00,29.59,,6.21,,,,,,,,,,,,,,,,,92.71,HESH 170200Z 35010KT CAVOK 31/21 Q1002 NOSIG,
HESH,2024-08-17 03:00,86.00,69.80,58.55,340.00,12.00,0.00,29.59,,6.21,,,,,,,,,,,,,,,,,90.58,HESH 170300Z 34012KT CAVOK 30/21 Q1002 NOSIG,
HESH,2024-08-17 04:00,87.80,69.80,55.29,340.00,12.00,0.00,29.62,,6.21,,,,,,,,,,,,,,,,,92.71,HESH 170400Z 34012KT CAVOK 31/21 Q1003 NOSIG,
HESH,2024-08-17 05:00,89.60,69.80,52.23,350.00,14.00,0.00,29.62,,6.21,,,,,,,,,,,,,,,,,94.85,HESH 170500Z 35014KT CAVOK 32/21 Q1003 NOSIG,
HESH,2024-08-17 06:00,93.20,68.00,43.88,300.00,2.00,0.00,29.62,,6.21,,,,,,,,,,,,,,,,,97.67,HESH 170600Z 30002KT CAVOK 34/20 Q1003 NOSIG,
HESH,2024-08-17 07:00,95.00,68.00,41.50,310.00,5.00,0.00,29.62,,6.21,,,,,,,,,,,,,,,,,99.82,HESH 170700Z 31005KT CAVOK 35/20 Q1003 NOSIG,
HESH,2024-08-17 08:00,96.80,66.20,36.90,320.00,5.00,0.00,29.62,,6.21,,,,,,,,,,,,,,,,,100.60,HESH 170800Z 32005KT CAVOK 36/19 Q1003 NOSIG,
HESH,2024-08-17 09:00,96.80,64.40,34.66,40.00,8.00,0.00,29.65,,6.21,,,,,,,,,,,,,,,,,99.37,HESH 170900Z 04008KT CAVOK 36/18 Q1004 NOSIG,
HESH,2024-08-17 10:00,98.60,64.40,32.81,30.00,10.00,0.00,29.65,,6.21,,,,,,,,,,,,,,,,,101.50,HESH 171000Z 03010KT CAVOK 37/18 Q1004 NOSIG,
HESH,2024-08-17 11:00,100.40,62.60,29.17,40.00,10.00,0.00,29.65,,6.21,,,,,,,,,,,,,,,,,102.50,HESH 171100Z 04010KT CAVOK 38/17 Q1004 NOSIG,
HESH,2024-08-17 12:00,100.40,57.20,24.06,150.00,10.00,0.00,29.59,,6.21,,,,,,,,,,,,,,,,,99.77,HESH 171200Z 15010KT CAVOK 38/14 Q1002 NOSIG,
HESH,2024-08-17 13:00,102.20,57.20,22.79,150.00,10.00,0.00,29.59,,6.21,,,,,,,,,,,,,,,,,101.78,HESH 171300Z 15010KT CAVOK 39/14 Q1002 NOSIG,
HESH,2024-08-17 14:00,102.20,55.40,21.36,150.00,9.00,0.00,29.59,,6.21,,,,,,,,,,,,,,,,,101.04,HESH 171400Z 15009KT CAVOK 39/13 Q1002 NOSIG,
HESH,2024-08-17 15:00,102.20,59.00,24.32,70.00,6.00,0.00,29.56,,6.21,,,,,,,,,,,,,,,,,102.62,HESH 171500Z 07006KT CAVOK 39/15 Q1001 NOSIG,
HESH,2024-08-17 16:00,100.40,59.00,25.67,50.00,7.00,0.00,29.56,,6.21,,,,,,,,,,,,,,,,,100.57,HESH 171600Z 05007KT CAVOK 38/15 Q1001 NOSIG,
HESH,2024-08-17 17:00,98.60,59.00,27.10,70.00,7.00,0.00,29.59,,6.21,,,,,,,,,,,,,,,,,98.52,HESH 171700Z 07007KT CAVOK 37/15 Q1002 NOSIG,
HESH,2024-08-17 18:00,98.60,51.80,20.87,250.00,2.00,0.00,29.59,,6.21,,,,,,,,,,,,,,,,,96.00,HESH 171800Z 25002KT CAVOK 37/11 Q1002 NOSIG,
HESH,2024-08-17 19:00,96.80,51.80,22.04,270.00,3.00,0.00,29.59,,6.21,,,,,,,,,,,,,,,,,94.12,HESH 171900Z 27003KT CAVOK 36/11 Q1002 NOSIG,
HESH,2024-08-17 20:00,96.80,51.80,22.04,260.00,4.00,0.00,29.59,,6.21,,,,,,,,,,,,,,,,,94.12,HESH 172000Z 26004KT CAVOK 36/11 Q1002 NOSIG,
HESH,2024-08-17 21:00,89.60,64.40,43.34,350.00,6.00,0.00,29.62,,6.21,,,,,,,,,,,,,,,,,91.23,HESH 172100Z 35006KT CAVOK 32/18 Q1003 NOSIG,
HESH,2024-08-17 22:00,89.60,64.40,43.34,350.00,5.00,0.00,29.62,,6.21,,,,,,,,,,,,,,,,,91.23,HESH 172200Z 35005KT CAVOK 32/18 Q1003 NOSIG,
HESH,2024-08-17 23:00,87.80,64.40,45.88,360.00,6.00,0.00,29.62,,6.21,,,,,,,,,,,,,,,,,89.33,HESH 172300Z 36006KT CAVOK 31/18 Q1003 NOSIG,
HESH,2024-08-18 00:00,87.80,68.00,51.98,360.00,4.00,0.00,29.59,,6.21,,,,,,,,,,,,,,,,,91.43,HESH 180000Z 36004KT CAVOK 31/20 Q1002 NOSIG,
HESH,2024-08-18 01:00,87.80,66.20,48.84,350.00,4.00,0.00,29.59,,6.21,,,,,,,,,,,,,,,,,90.31,HESH 180100Z 35004KT CAVOK 31/19 Q1002 NOSIG,
HESH,2024-08-18 02:00,86.00,66.20,51.72,360.00,5.00,0.00,29.59,,6.21,,,,,,,,,,,,,,,,,88.39,HESH 180200Z 36005KT CAVOK 30/19 Q1002 NOSIG,
HESH,2024-08-18 03:00,87.80,68.00,51.98,360.00,6.00,0.00,29.62,,,,,,,,,,,,,,,,,,,91.43,HESH 180300Z 36006KT VAVOK 31/20 Q1003 NOSIG,
HESH,2024-08-18 04:00,86.00,69.80,58.55,10.00,6.00,0.00,29.65,,6.21,,,,,,,,,,,,,,,,,90.58,HESH 180400Z 01006KT CAVOK 30/21 Q1004 NOSIG,
HESH,2024-08-18 05:00,89.60,69.80,52.23,360.00,6.00,0.00,29.65,,6.21,,,,,,,,,,,,,,,,,94.85,HESH 180500Z 36006KT CAVOK 32/21 Q1004 NOSIG,
HESH,2024-08-18 06:00,91.40,71.60,52.48,30.00,7.00,0.00,29.68,,6.21,,,,,,,,,,,,,,,,,98.64,HESH 180600Z 03007KT CAVOK 33/22 Q1005 NOSIG,
HESH,2024-08-18 07:00,95.00,64.40,36.63,360.00,11.00,0.00,29.71,,6.21,,,,,,,,,,,,,,,,,97.26,HESH 180700Z 36011KT CAVOK 35/18 Q1006 NOSIG,
HESH,2024-08-18 08:00,98.60,64.40,32.81,10.00,8.00,0.00,29.71,,6.21,,,,,,,,,,,,,,,,,101.50,HESH 180800Z 01008KT CAVOK 37/18 Q1006 NOSIG,
HESH,2024-08-18 09:00,100.40,59.00,25.67,30.00,8.00,0.00,29.71,,6.21,,,,,,,,,,,,,,,,,100.57,HESH 180900Z 03008KT CAVOK 38/15 Q1006 NOSIG,
HESH,2024-08-18 10:00,102.20,59.00,24.32,10.00,10.00,0.00,29.71,,6.21,,,,,,,,,,,,,,,,,102.62,HESH 181000Z 01010KT CAVOK 39/15 Q1006 NOSIG,
HESH,2024-08-18 11:00,102.20,57.20,22.79,30.00,9.00,0.00,29.71,,6.21,,,,,,,,,,,,,,,,,101.78,HESH 181100Z 03009KT CAVOK 39/14 Q1006 NOSIG,
HESH,2024-08-18 12:00,102.20,51.80,18.72,120.00,8.00,0.00,29.65,,6.21,,,,,,,,,,,,,,,,,99.80,HESH 181200Z 12008KT CAVOK 39/11 Q1004 NOSIG,
HESH,2024-08-18 13:00,104.00,51.80,17.74,100.00,9.00,0.00,29.65,,6.21,,,,,,,,,,,,,,,,,101.69,HESH 181300Z 10009KT CAVOK 40/11 Q1004 NOSIG,
HESH,2024-08-18 14:00,104.00,51.80,17.74,140.00,9.00,0.00,29.65,,6.21,,,,,,,,,,,,,,,,,101.69,HESH 181400Z 14009KT CAVOK 40/11 Q1004 NOSIG,
HESH,2024-08-18 15:00,98.60,55.40,23.81,150.00,5.00,0.00,29.65,,6.21,,,,,,,,,,,,,,,,,97.09,HESH 181500Z 15005KT CAVOK 37/13 Q1004 NOSIG,
HESH,2024-08-18 16:00,96.80,55.40,25.15,140.00,7.00,0.00,29.65,,6.21,,,,,,,,,,,,,,,,,95.14,HESH 181600Z 14007KT CAVOK 36/13 Q1004 NOSIG,
HESH,2024-08-18 17:00,96.80,57.20,26.84,150.00,6.00,0.00,29.68,,6.21,,,,,,,,,,,,,,,,,95.77,HESH 181700Z 15006KT CAVOK 36/14 Q1005 NOSIG,
HESH,2024-08-18 18:00,93.20,66.20,41.23,180.00,6.00,0.00,29.68,,6.21,,,,,,,,,,,,,,,,,96.35,HESH 181800Z 18006KT CAVOK 34/19 Q1005 NOSIG,
HESH,2024-08-18 19:00,91.40,66.20,43.61,170.00,6.00,0.00,29.68,,6.21,,,,,,,,,,,,,,,,,94.29,HESH 181900Z 17006KT CAVOK 33/19 Q1005 NOSIG,
HESH,2024-08-18 20:00,89.60,66.20,46.14,170.00,6.00,0.00,29.68,,6.21,,,,,,,,,,,,,,,,,92.27,HESH 182000Z 17006KT CAVOK 32/19 Q1005 NOSIG,
HESH,2024-08-18 21:00,91.40,64.40,40.96,160.00,5.00,0.00,29.68,,6.21,,,,,,,,,,,,,,,,,93.19,HESH 182100Z 16005KT CAVOK 33/18 Q1005 NOSIG,
HESH,2024-08-18 22:00,89.60,64.40,43.34,170.00,5.00,0.00,29.68,,6.21,,,,,,,,,,,,,,,,,91.23,HESH 182200Z 17005KT CAVOK 32/18 Q1005 NOSIG,
HESH,2024-08-18 23:00,89.60,66.20,46.14,160.00,5.00,0.00,29.68,,6.21,,,,,,,,,,,,,,,,,92.27,HESH 182300Z 16005KT CAVOK 32/19 Q1005 NOSIG,
HESH,2024-08-19 00:00,86.00,66.20,51.72,360.00,5.00,0.00,29.68,,6.21,,,,,,,,,,,,,,,,,88.39,HESH 190000Z 36005KT CAVOK 30/19 Q1005 NOSIG,
HESH,2024-08-19 01:00,84.20,66.20,54.80,360.00,5.00,0.00,29.68,,6.21,,,,,,,,,,,,,,,,,86.50,HESH 190100Z 36005KT CAVOK 29/19 Q1005 NOSIG,
HESH,2024-08-19 02:00,84.20,68.00,58.32,360.00,19.00,0.00,29.68,,6.21,,,,,,,,,,,,,,,,,87.40,HESH 190200Z 36019KT CAVOK 29/20 Q1005 NOSIG,
HESH,2024-08-19 03:00,82.40,73.40,74.28,360.00,6.00,0.00,29.71,,6.21,,,,,,,,,,,,,,,,,88.26,HESH 190300Z 36006KT CAVOK 28/23 Q1006 NOSIG,
HESH,2024-08-19 04:00,84.20,73.40,70.08,360.00,7.00,0.00,29.71,,6.21,,,,,,,,,,,,,,,,,90.94,HESH 190400Z 36007KT CAVOK 29/23 Q1006 NOSIG,
HESH,2024-08-19 05:00,86.00,73.40,66.15,10.00,8.00,0.00,29.71,,6.21,,,,,,,,,,,,,,,,,93.45,HESH 190500Z 01008KT CAVOK 30/23 Q1006 NOSIG,
HESH,2024-08-19 06:00,96.80,59.00,28.63,10.00,4.00,0.00,29.74,,6.21,,,,,,,,,,,,,,,,,96.50,HESH 190600Z 01004KT CAVOK 36/15 Q1007 NOSIG,
HESH,2024-08-19 07:00,98.60,59.00,27.10,360.00,10.00,0.00,29.77,,6.21,,,,,,,,,,,,,,,,,98.52,HESH 190700Z 36010KT CAVOK 37/15 Q1008 NOSIG,
HESH,2024-08-19 08:00,100.40,59.00,25.67,360.00,11.00,0.00,29.77,,6.21,,,,,,,,,,,,,,,,,100.57,HESH 190800Z 36011KT CAVOK 38/15 Q1008 NOSIG,
HESH,2024-08-19 09:00,102.20,59.00,24.32,20.00,8.00,0.00,29.77,,6.21,,,,,,,,,,,,,,,,,102.62,HESH 190900Z 02008KT CAVOK 39/15 Q1008 NOSIG,
HESH,2024-08-19 10:00,104.00,59.00,23.04,30.00,9.00,0.00,29.77,,6.21,,,,,,,,,,,,,,,,,104.68,HESH 191000Z 03009KT CAVOK 40/15 Q1008 NOSIG,
HESH,2024-08-19 11:00,104.00,59.00,23.04,20.00,10.00,0.00,29.77,,6.21,,,,,,,,,,,,,,,,,104.68,HESH 191100Z 02010KT CAVOK 40/15 Q1008 NOSIG,
HESH,2024-08-19 12:00,100.40,62.60,29.17,120.00,6.00,0.00,29.74,,6.21,,,,,,,,,,,,,,,,,102.50,HESH 191200Z 12006KT CAVOK 38/17 Q1007 NOSIG,
HESH,2024-08-19 13:00,100.40,66.20,33.08,140.00,7.00,0.00,29.71,,6.21,,,,,,,,,,,,,,,,,104.98,HESH 191300Z 14007KT CAVOK 38/19 Q1006 NOSIG,
HESH,2024-08-19 14:00,100.40,68.00,35.20,130.00,8.00,0.00,29.71,,6.21,,,,,,,,,,,,,,,,,106.46,HESH 191400Z 13008KT CAVOK 38/20 Q1006 NOSIG,
HESH,2024-08-19 15:00,96.80,68.00,39.27,160.00,7.00,0.00,29.71,,6.21,,,,,,,,,,,,,,,,,102.01,HESH 191500Z 16007KT CAVOK 36/20 Q1006 NOSIG,
HESH,2024-08-19 16:00,95.00,68.00,41.50,170.00,8.00,0.00,29.71,,6.21,,,,,,,,,,,,,,,,,99.82,HESH 191600Z 17008KT CAVOK 35/20 Q1006 NOSIG,
HESH,2024-08-19 17:00,93.20,68.00,43.88,160.00,7.00,0.00,29.71,,6.21,,,,,,,,,,,,,,,,,97.67,HESH 191700Z 16007KT CAVOK 34/20 Q1006 NOSIG,
HESH,2024-08-19 18:00,98.60,57.20,25.41,220.00,4.00,0.00,29.71,,6.21,,,,,,,,,,,,,,,,,97.76,HESH 191800Z 22004KT CAVOK 37/14 Q1006 NOSIG,
HESH,2024-08-19 19:00,96.80,57.20,26.84,220.00,5.00,0.00,29.71,,6.21,,,,,,,,,,,,,,,,,95.77,HESH 191900Z 22005KT CAVOK 36/14 Q1006 NOSIG,
HESH,2024-08-19 20:00,95.00,59.00,30.26,220.00,5.00,0.00,29.71,,6.21,,,,,,,,,,,,,,,,,94.51,HESH 192000Z 22005KT CAVOK 35/15 Q1006 NOSIG,
HESH,2024-08-19 21:00,89.60,69.80,52.23,350.00,11.00,0.00,29.74,,6.21,,,,,,,,,,,,,,,,,94.85,HESH 192100Z 35011KT CAVOK 32/21 Q1007 NOSIG,
HESH,2024-08-19 22:00,87.80,69.80,55.29,350.00,10.00,0.00,29.74,,6.21,,,,,,,,,,,,,,,,,92.71,HESH 192200Z 35010KT CAVOK 31/21 Q1007 NOSIG,
HESH,2024-08-19 23:00,87.80,71.60,58.78,360.00,11.00,0.00,29.74,,6.21,,,,,,,,,,,,,,,,,94.18,HESH 192300Z 36011KT CAVOK 31/22 Q1007 NOSIG,
HESH,2024-08-20 00:00,87.80,64.40,45.88,350.00,4.00,0.00,29.71,,6.21,,,,,,,,,,,,,,,,,89.33,HESH 200000Z 35004KT CAVOK 31/18 Q1006 NOSIG,
HESH,2024-08-20 01:00,86.00,66.20,51.72,350.00,4.00,0.00,29.71,,6.21,,,,,,,,,,,,,,,,,88.39,HESH 200100Z 35004KT CAVOK 30/19 Q1006 NOSIG,
HESH,2024-08-20 02:00,86.00,66.20,51.72,350.00,4.00,0.00,29.71,,6.21,,,,,,,,,,,,,,,,,88.39,HESH 200200Z 35004KT CAVOK 30/19 Q1006 NOSIG,
HESH,2024-08-20 03:00,87.80,73.40,62.47,340.00,9.00,0.00,29.74,,6.21,,,,,,,,,,,,,,,,,95.86,HESH 200300Z 34009KT CAVOK 31/23 Q1007 NOSIG,
HESH,2024-08-20 04:00,89.60,73.40,59.01,330.00,10.00,0.00,29.74,,6.21,,,,,,,,,,,,,,,,,98.20,HESH 200400Z 33010KT CAVOK 32/23 Q1007 NOSIG,
HESH,2024-08-20 05:00,91.40,71.60,52.48,340.00,10.00,0.00,29.74,,6.21,,,,,,,,,,,,,,,,,98.64,HESH 200500Z 34010KT CAVOK 33/22 Q1007 NOSIG,
HESH,2024-08-20 06:00,93.20,73.40,52.73,350.00,14.00,0.00,29.74,,6.21,,,,,,,,,,,,,,,,,102.82,HESH 200600Z 35014KT CAVOK 34/23 Q1007 NOSIG,
HESH,2024-08-20 07:00,96.80,73.40,47.19,360.00,13.00,0.00,29.74,,6.21,,,,,,,,,,,,,,,,,107.45,HESH 200700Z 36013KT CAVOK 36/23 Q1007 NOSIG,
HESH,2024-08-20 08:00,98.60,73.40,44.67,360.00,14.00,0.00,29.74,,6.21,,,,,,,,,,,,,,,,,109.77,HESH 200800Z 36014KT CAVOK 37/23 Q1007 NOSIG,
HESH,2024-08-20 09:00,98.60,68.00,37.17,360.00,12.00,0.00,29.74,,6.21,,,,,,,,,,,,,,,,,104.22,HESH 200900Z 36012KT CAVOK 37/20 Q1007 NOSIG,
HESH,2024-08-20 10:00,100.40,68.00,35.20,10.00,12.00,0.00,29.74,,6.21,,,,,,,,,,,,,,,,,106.46,HESH 201000Z 01012KT CAVOK 38/20 Q1007 NOISG,
HESH,2024-08-20 11:00,102.20,68.00,33.35,360.00,12.00,0.00,29.74,,6.21,,,,,,,,,,,,,,,,,108.70,HESH 201100Z 36012KT CAVOK 39/20 Q1007 NOSIG,
HESH,2024-08-20 12:00,104.00,62.60,26.18,130.00,5.00,0.00,29.68,,6.21,,,,,,,,,,,,,,,,,106.77,HESH 201200Z 13005KT CAVOK 40/17 Q1005 NOSIG,
HESH,2024-08-20 13:00,102.20,62.60,27.63,130.00,6.00,0.00,29.68,,6.21,,,,,,,,,,,,,,,,,104.63,HESH 201300Z 13006KT CAVOK 39/17 Q1005 NOSIG,
HESH,2024-08-20 14:00,102.20,64.40,29.43,120.00,5.00,0.00,29.68,,6.21,,,,,,,,,,,,,,,,,105.84,HESH 201400Z 12005KT CAVOK 39/18 Q1005 NOSIG,
HESH,2024-08-20 15:00,105.80,62.60,24.82,100.00,4.00,0.00,29.62,,6.21,,,,,,,,,,,,,,,,,108.90,HESH 201500Z 10004KT CAVOK 41/17 Q1003 NOSIG,
HESH,2024-08-20 16:00,104.00,64.40,27.89,90.00,5.00,0.00,29.62,,6.21,,,,,,,,,,,,,,,,,108.01,HESH 201600Z 09005KT CAVOK 40/18 Q1003 NOSIG,
HESH,2024-08-20 17:00,102.20,64.40,29.43,90.00,5.00,0.00,29.65,,6.21,,,,,,,,,,,,,,,,,105.84,HESH 201700Z 09005KT CAVOK 39/18 Q1004 NOSIG,
HESH,2024-08-20 18:00,98.60,53.60,22.29,350.00,7.00,0.00,29.65,,6.21,,,,,,,,,,,,,,,,,96.51,HESH 201800Z 35007KT CAVOK 37/12 Q1004 NOSIG,
HESH,2024-08-20 19:00,96.80,53.60,23.55,340.00,6.00,0.00,29.65,,6.21,,,,,,,,,,,,,,,,,94.59,HESH 201900Z 34006KT CAVOK 36/12 Q1004 NOSIG,
HESH,2024-08-20 20:00,96.80,51.80,22.04,350.00,8.00,0.00,29.65,,6.21,,,,,,,,,,,,,,,,,94.12,HESH 202000Z 35008KT CAVOK 36/11 Q1004 NOSIG,
HESH,2024-08-20 21:00,95.00,62.60,34.39,350.00,7.00,0.00,29.65,,6.21,,,,,,,,,,,,,,,,,96.22,HESH 202100Z 35007KT CAVOK 35/17 Q1004 NOSIG,
HESH,2024-08-20 22:00,93.20,62.60,36.35,350.00,8.00,0.00,29.65,,6.21,,,,,,,,,,,,,,,,,94.20,HESH 202200Z 35008KT CAVOK 34/17 Q1004 NOSIG,
HESH,2024-08-20 23:00,93.20,60.80,34.11,340.00,6.00,0.00,29.65,,6.21,,,,,,,,,,,,,,,,,93.32,HESH 202300Z 34006KT CAVOK 34/16 Q1004 NOSIG,
HESH,2024-08-21 00:00,89.60,69.80,52.23,340.00,14.00,0.00,29.62,,6.21,,,,,,,,,,,,,,,,,94.85,HESH 210000Z 34014KT CAVOK 32/21 Q1003 NOSIG,
HESH,2024-08-21 01:00,87.80,69.80,55.29,340.00,12.00,0.00,29.62,,6.21,,,,,,,,,,,,,,,,,92.71,HESH 210100Z 34012KT CAVOK 31/21 Q1003 NOSIG,
HESH,2024-08-21 02:00,87.80,69.80,55.29,350.00,10.00,0.00,29.62,,6.21,,,,,,,,,,,,,,,,,92.71,HESH 210200Z 35010KT CAVOK 31/21 Q1003 NOSIG,
HESH,2024-08-21 03:00,87.80,64.40,45.88,340.00,15.00,0.00,29.62,,6.21,,,,,,,,,,,,,,,,,89.33,HESH 210300Z 34015KT CAVOK 31/18 Q1003 NOSIG,
HESH,2024-08-21 04:00,86.00,64.40,48.58,340.00,14.00,0.00,29.62,,6.21,,,,,,,,,,,,,,,,,87.49,HESH 210400Z 34014KT CAVOK 30/18 Q1003 NOSIG,
HESH,2024-08-21 05:00,89.60,55.40,31.45,350.00,14.00,0.00,29.62,,6.21,,,,,,,,,,,,,,,,,87.78,HESH 210500Z 35014KT CAVOK 32/13 Q1003 NOSIG,
HESH,2024-08-21 06:00,91.40,66.20,43.61,360.00,17.00,0.00,29.65,,6.21,,,,,,,,,,,,,,,,,94.29,HESH 210600Z 36017KT CAVOK 33/19 Q1004 NOSIG,
HESH,2024-08-21 07:00,93.20,66.20,41.23,350.00,17.00,0.00,29.65,,6.21,,,,,,,,,,,,,,,,,96.35,HESH 210700Z 35017KT CAVOK 34/19 Q1004 NOSIG,
HESH,2024-08-21 08:00,95.00,64.40,36.63,360.00,17.00,0.00,29.65,,6.21,,,,,,,,,,,,,,,,,97.26,HESH 210800Z 36017KT CAVOK 35/18 Q1004 NOSIG,
HESH,2024-08-21 09:00,95.00,68.00,41.50,360.00,14.00,0.00,29.62,,6.21,,,,,,,,,,,,,,,,,99.82,HESH 210900Z 36014KT CAVOK 35/20 Q1003 NOSIG,
HESH,2024-08-21 10:00,96.80,66.20,36.90,10.00,15.00,0.00,29.62,,6.21,,,,,,,,,,,,,,,,,100.60,HESH 211000Z 01015KT CAVOK 36/19 Q1003 NOSIG,
HESH,2024-08-21 11:00,98.60,66.20,34.93,360.00,17.00,0.00,29.62,,6.21,,,,,,,,,,,,,,,,,102.78,HESH 211100Z 36017KT CAVOK 37/19 Q1003 NOSIG,
HESH,2024-08-21 12:00,102.20,57.20,22.79,10.00,11.00,0.00,29.56,,6.21,,,,,,,,,,,,,,,,,101.78,HESH 211200Z 01011KT CAVOK 39/14 Q1001 NOSIG,
HESH,2024-08-21 13:00,104.00,55.40,20.24,360.00,12.00,0.00,29.56,,6.21,,,,,,,,,,,,,,,,,103.01,HESH 211300Z 36012KT CAVOK 40/13 Q1001 NOSIG,
HESH,2024-08-21 14:00,104.00,57.20,21.60,10.00,13.00,0.00,29.56,,6.21,,,,,,,,,,,,,,,,,103.79,HESH 211400Z 01013KT CAVOK 40/14 Q1001 NOSIG,
HESH,2024-08-21 15:00,102.20,55.40,21.36,360.00,12.00,0.00,29.56,,6.21,,,,,,,,,,,,,,,,,101.04,HESH 211500Z 36012KT CAVOK 39/13 Q1001 NOSIG,
HESH,2024-08-21 17:00,100.40,57.20,24.06,340.00,12.00,0.00,29.56,,6.21,,,,,,,,,,,,,,,,,99.77,HESH 211700Z 34012KT CAVOK 38/14 Q1001 NOSIG,
HESH,2024-08-21 19:00,95.00,60.80,32.27,340.00,13.00,0.00,29.56,,6.21,,,,,,,,,,,,,,,,,95.30,HESH 211900Z 34013KT CAVOK 35/16 Q1001 NOSIG,
HESH,2024-08-21 20:00,93.20,62.60,36.35,350.00,13.00,0.00,29.56,,6.21,,,,,,,,,,,,,,,,,94.20,HESH 212000Z 35013KT CAVOK 34/17 Q1001 NOSIG,
HESH,2024-08-21 21:00,95.00,62.60,34.39,340.00,10.00,0.00,29.59,,6.21,,,,,,,,,,,,,,,,,96.22,HESH 212100Z 34010KT CAVOK 35/17 Q1002 NOSIG,
HESH,2024-08-21 22:00,93.20,62.60,36.35,350.00,11.00,0.00,29.59,,6.21,,,,,,,,,,,,,,,,,94.20,HESH 212200Z 35011KT CAVOK 34/17 Q1002 NOSIG,
HESH,2024-08-21 23:00,91.40,62.60,38.45,340.00,10.00,0.00,29.59,,6.21,,,,,,,,,,,,,,,,,92.23,HESH 212300Z 34010KT CAVOK 33/17 Q1002 NOSIG,
HESH,2024-08-22 00:00,91.40,59.00,33.84,350.00,16.00,0.00,29.56,,6.21,,,,,,,,,,,,,,,,,90.68,HESH 220000Z 35016KT CAVOK 33/15 Q1001 NOSIG,
HESH,2024-08-22 01:00,89.60,59.00,35.81,360.00,17.00,0.00,29.56,,6.21,,,,,,,,,,,,,,,,,88.86,HESH 220100Z 36017KT CAVOK 32/15 Q1001 NOSIG,
HESH,2024-08-22 02:00,89.60,60.80,38.18,350.00,16.00,0.00,29.56,,6.21,,,,,,,,,,,,,,,,,89.54,HESH 220200Z 35016KT CAVOK 32/16 Q1001 NOSIG,
HESH,2024-08-22 04:00,87.80,68.00,51.98,350.00,13.00,0.00,29.59,,6.21,,,,,,,,,,,,,,,,,91.43,HESH 220400Z 35013KT CAVOK 31/20 Q1002 NOSIG,
HESH,2024-08-22 05:00,89.60,68.00,49.10,350.00,16.00,0.00,29.62,,6.21,,,,,,,,,,,,,,,,,93.47,HESH 220500Z 35016KT CAVOK 32/20 Q1003 NOSIG,
HESH,2024-08-22 06:00,93.20,68.00,43.88,350.00,14.00,0.00,29.62,,6.21,,,,,,,,,,,,,,,,,97.67,HESH 220600Z 35014KT CAVOK 34/20 Q1003 NOSIG,
HESH,2024-08-22 07:00,93.20,66.20,41.23,350.00,16.00,0.00,29.65,,6.21,,,,,,,,,,,,,,,,,96.35,HESH 220700Z 35016KT CAVOK 34/19 Q1004 NOSIG,
HESH,2024-08-22 08:00,95.00,66.20,39.00,350.00,14.00,0.00,29.65,,6.21,,,,,,,,,,,,,,,,,98.46,HESH 220800Z 35014KT CAVOK 35/19 Q1004 NOSIG,
HESH,2024-08-22 09:00,95.00,68.00,41.50,360.00,14.00,0.00,29.62,,6.21,,,,,,,,,,,,,,,,,99.82,HESH 220900Z 36014KT CAVOK 35/20 Q1003 NOSIG,
HESH,2024-08-22 10:00,96.80,66.20,36.90,350.00,16.00,0.00,29.62,,6.21,,,,,,,,,,,,,,,,,100.60,HESH 221000Z 35016KT CAVOK 36/19 Q1003 NOSIG,
HESH,2024-08-22 11:00,98.60,66.20,34.93,360.00,14.00,0.00,29.62,,6.21,,,,,,,,,,,,,,,,,102.78,HESH 221100Z 36014KT CAVOK 37/19 Q1003 NOSIG,
HESH,2024-08-22 12:00,102.20,59.00,24.32,20.00,11.00,0.00,29.59,,6.21,,,,,,,,,,,,,,,,,102.62,HESH 221200Z 02011KT CAVOK 39/15 Q1002 NOSIG,
HESH,2024-08-22 13:00,102.20,57.20,22.79,10.00,12.00,0.00,29.62,,6.21,,,,,,,,,,,,,,,,,101.78,HESH 221300Z 01012KT CAVOK 39/14 Q1003 NOSIG,
HESH,2024-08-22 14:00,100.40,59.00,25.67,10.00,12.00,0.00,29.62,,6.21,,,,,,,,,,,,,,,,,100.57,HESH 221400Z 01012KT CAVOK 38/15 Q1003 NOSIG,
HESH,2024-08-22 15:00,100.40,62.60,29.17,10.00,8.00,0.00,29.59,,6.21,,,,,,,,,,,,,,,,,102.50,HESH 221500Z 01008KT CAVOK 38/17 Q1002 NOSIG,
HESH,2024-08-22 16:00,98.60,62.60,30.80,10.00,9.00,0.00,29.59,,6.21,,,,,,,,,,,,,,,,,100.38,HESH 221600Z 01009KT CAVOK 37/17 Q1002 NOSIG,
HESH,2024-08-22 17:00,98.60,60.80,28.90,360.00,8.00,0.00,29.59,,6.21,,,,,,,,,,,,,,,,,99.39,HESH 221700Z 36008KT CAVOK 37/16 Q1002 NOSIG,
HESH,2024-08-22 18:00,96.80,53.60,23.55,350.00,5.00,0.00,29.62,,6.21,,,,,,,,,,,,,,,,,94.59,HESH 221800Z 35005KT CAVOK 36/12 Q1003 NOSIG,
HESH,2024-08-22 19:00,96.80,53.60,23.55,350.00,4.00,0.00,29.62,,6.21,,,,,,,,,,,,,,,,,94.59,HESH 221900Z 35004KT CAVOK 36/12 Q1003 NOSIG,
HESH,2024-08-22 20:00,95.00,53.60,24.89,360.00,5.00,0.00,29.62,,6.21,,,,,,,,,,,,,,,,,92.71,HESH 222000Z 36005KT CAVOK 35/12 Q1003 NOSIG,
HESH,2024-08-22 21:00,93.20,66.20,41.23,350.00,4.00,0.00,29.65,,6.21,,,,,,,,,,,,,,,,,96.35,HESH 222100Z 35004KT CAVOK 34/19 Q1004 NOSIG,
HESH,2024-08-22 22:00,93.20,66.20,41.23,340.00,6.00,0.00,29.65,,6.21,,,,,,,,,,,,,,,,,96.35,HESH 222200Z 34006KT CAVOK 34/19 Q1004 NOSIG,
HESH,2024-08-22 23:00,91.40,66.20,43.61,350.00,8.00,0.00,29.65,,6.21,,,,,,,,,,,,,,,,,94.29,HESH 222300Z 35008KT CAVOK 33/19 Q1004 NOSIG,
HESH,2024-08-23 00:00,91.40,71.60,52.48,340.00,14.00,0.00,29.65,,6.21,,,,,,,,,,,,,,,,,98.64,HESH 230000Z 34014KT CAVOK 33/22 Q1004 NOSIG,
HESH,2024-08-23 01:00,89.60,71.60,55.53,340.00,13.00,0.00,29.65,,6.21,,,,,,,,,,,,,,,,,96.41,HESH 230100Z 34013KT CAVOK 32/22 Q1004 NOSIG,
HESH,2024-08-23 02:00,89.60,71.60,55.53,340.00,14.00,0.00,29.65,,6.21,,,,,,,,,,,,,,,,,96.41,HESH 230200Z 34014KT CAVOK 32/22 Q1004 NOSIG,
HESH,2024-08-23 03:00,87.80,69.80,55.29,350.00,10.00,0.00,29.71,,6.21,,,,,,,,,,,,,,,,,92.71,HESH 230300Z 35010KT CAVOK 31/21 Q1006 NOSIG,
HESH,2024-08-23 04:00,87.80,69.80,55.29,350.00,11.00,0.00,29.71,,6.21,,,,,,,,,,,,,,,,,92.71,HESH 230400Z 35011KT CAVOK 31/21 Q1006 NOSIG,
HESH,2024-08-23 05:00,89.60,69.80,52.23,360.00,10.00,0.00,29.71,,6.21,,,,,,,,,,,,,,,,,94.85,HESH 230500Z 36010KT CAVOK 32/21 Q1006 NOSIG,
HESH,2024-08-23 07:00,91.40,69.80,49.36,360.00,18.00,0.00,29.74,,6.21,,,,,,,,,,,,,,,,,96.99,HESH 230700Z 36018KT CAVOK 33/21 Q1007 NOSIG,
HESH,2024-08-23 08:00,93.20,69.80,46.67,350.00,14.00,0.00,29.74,,6.21,,,,,,,,,,,,,,,,,99.17,HESH 230800Z 35014KT CAVOK 34/21 Q1007 NOSIG,
HESH,2024-08-23 09:00,98.60,66.20,34.93,360.00,10.00,0.00,29.74,,6.21,,,,,,,,,,,,,,,,,102.78,HESH 230900Z 36010KT CAVOK 37/19 Q1007 NOSIG,
HESH,2024-08-23 10:00,98.60,64.40,32.81,360.00,13.00,0.00,29.74,,6.21,,,,,,,,,,,,,,,,,101.50,HESH 231000Z 36013KT CAVOK 37/18 Q1007 NOSIG,
HESH,2024-08-23 11:00,100.40,64.40,31.07,10.00,11.00,0.00,29.77,,6.21,,,,,,,,,,,,,,,,,103.66,HESH 231100Z 01011KT CAVOK 38/18 Q1008 NOSIG,
HESH,2024-08-23 12:00,96.80,68.00,39.27,140.00,8.00,0.00,29.71,,6.21,,,,,,,,,,,,,,,,,102.01,HESH 231200Z 14008KT CAVOK 36/20 Q1006 NOSIG,
HESH,2024-08-23 13:00,96.80,68.00,39.27,150.00,9.00,0.00,29.71,,6.21,,,,,,,,,,,,,,,,,102.01,HESH 231300Z 15009KT CAVOK 36/20 Q1006 NOSIG,
HESH,2024-08-23 14:00,96.80,69.80,41.77,150.00,8.00,0.00,29.71,,6.21,,,,,,,,,,,,,,,,,103.60,HESH 231400Z 15008KT CAVOK 36/21 Q1006 NOSIG,
HESH,2024-08-23 15:00,95.00,68.00,41.50,130.00,8.00,0.00,29.68,,6.21,,,,,,,,,,,,,,,,,99.82,HESH 231500Z 13008KT CAVOK 35/20 Q1005 NOSIG,
HESH,2024-08-23 16:00,95.00,69.80,44.14,120.00,8.00,0.00,29.68,,6.21,,,,,,,,,,,,,,,,,101.37,HESH 231600Z 12008KT CAVOK 35/21 Q1005 NOSIG,
HESH,2024-08-23 17:00,93.20,69.80,46.67,140.00,8.00,0.00,29.68,,6.21,,,,,,,,,,,,,,,,,99.17,HESH 231700Z 14008KT CAVOK 34/21 Q1005 NOSIG,
HESH,2024-08-23 18:00,91.40,69.80,49.36,30.00,3.00,0.00,29.68,,6.21,,,,,,,,,,,,,,,,,96.99,HESH 231800Z 03003KT CAVOK 33/21 Q1005 NOSIG,
HESH,2024-08-23 19:00,91.40,68.00,46.41,10.00,3.00,0.00,29.68,,6.21,,,,,,,,,,,,,,,,,95.55,HESH 231900Z 01003KT CAVOK 33/20 Q1005 NOSIG,
HESH,2024-08-23 20:00,91.40,68.00,46.41,30.00,4.00,0.00,29.68,,6.21,,,,,,,,,,,,,,,,,95.55,HESH 232000Z 03004KT CAVOK 33/20 Q1005 NOSIG,
HESH,2024-08-23 21:00,91.40,68.00,46.41,360.00,6.00,0.00,29.71,,6.21,,,,,,,,,,,,,,,,,95.55,HESH 232100Z 36006KT CAVOK 33/20 Q1006 NOSIG,
HESH,2024-08-23 22:00,89.60,68.00,49.10,10.00,4.00,0.00,29.71,,6.21,,,,,,,,,,,,,,,,,93.47,HESH 232200Z 01004KT CAVOK 32/20 Q1006 NOSIG,
HESH,2024-08-23 23:00,89.60,68.00,49.10,360.00,6.00,0.00,29.71,,6.21,,,,,,,,,,,,,,,,,93.47,HESH 232300Z 36006KT CAVOK 32/20 Q1006 NOSIG,
HESH,2024-08-24 00:00,89.60,68.00,49.10,350.00,8.00,0.00,29.71,,6.21,,,,,,,,,,,,,,,,,93.47,HESH 240000Z 35008KT CAVOK 32/20 Q1006 NOSIG,
HESH,2024-08-24 01:00,89.60,68.00,49.10,340.00,8.00,0.00,29.71,,6.21,,,,,,,,,,,,,,,,,93.47,HESH 240100Z 34008KT CAVOK 32/20 Q1006 NOSIG,
HESH,2024-08-24 02:00,87.80,68.00,51.98,350.00,6.00,0.00,29.71,,6.21,,,,,,,,,,,,,,,,,91.43,HESH 240200Z 35006KT CAVOK 31/20 Q1006 NOSIG,
HESH,2024-08-24 03:00,87.80,71.60,58.78,340.00,11.00,0.00,29.71,,6.21,,,,,,,,,,,,,,,,,94.18,HESH 240300Z 34011KT CAVOK 31/22 Q1006 NOSIG,
HESH,2024-08-24 04:00,86.00,71.60,62.25,350.00,11.00,0.00,29.71,,6.21,,,,,,,,,,,,,,,,,91.92,HESH 240400Z 35011KT CAVOK 30/22 Q1006 NOSIG,
HESH,2024-08-24 05:00,89.60,71.60,55.53,240.00,12.00,0.00,29.71,,6.21,,,,,,,,,,,,,,,,,96.41,HESH 240500Z 24012KT CAVOK 32/22 Q1006 NOSIG,
HESH,2024-08-24 06:00,89.60,71.60,55.53,360.00,17.00,0.00,29.74,,6.21,,,,,,,,,,,,,,,,,96.41,HESH 240600Z 36017KT CAVOK 32/22 Q1007 NOSIG,
HESH,2024-08-24 07:00,91.40,71.60,52.48,360.00,15.00,0.00,29.74,,6.21,,,,,,,,,,,,,,,,,98.64,HESH 240700Z 36015KT CAVOK 33/22 Q1007 NOSIG,
HESH,2024-08-24 08:00,91.40,71.60,52.48,350.00,16.00,0.00,29.74,,6.21,,,,,,,,,,,,,,,,,98.64,HESH 240800Z 35016KT CAVOK 33/22 Q1007 NOSIG,
HESH,2024-08-24 09:00,96.80,69.80,41.77,30.00,11.00,0.00,29.74,,6.21,,,,,,,,,,,,,,,,,103.60,HESH 240900Z 03011KT CAVOK 36/21 Q1007 NOSIG,
HESH,2024-08-24 10:00,98.60,69.80,39.54,40.00,11.00,0.00,29.71,,6.21,,,,,,,,,,,,,,,,,105.85,HESH 241000Z 04011KT CAVOK 37/21 Q1006 NOSIG,
HESH,2024-08-24 11:00,100.40,69.80,37.44,30.00,12.00,0.00,29.71,,6.21,,,,,,,,,,,,,,,,,108.13,HESH 241100Z 03012KT CAVOK 38/21 Q1006 NOSIG,
HESH,2024-08-24 12:00,98.60,68.00,37.17,30.00,8.00,0.00,29.68,,6.21,,,,,,,,,,,,,,,,,104.22,HESH 241200Z 03008KT CAVOK 37/20 Q1005 NOSIG,
HESH,2024-08-24 13:00,98.60,68.00,37.17,20.00,10.00,0.00,29.68,,6.21,,,,,,,,,,,,,,,,,104.22,HESH 241300Z 02010KT CAVOK 37/20 Q1005 NOSIG,
HESH,2024-08-24 14:00,100.40,66.20,33.08,30.00,8.00,0.00,29.68,,6.21,,,,,,,,,,,,,,,,,104.98,HESH 241400Z 03008KT CAVOK 38/19 Q1005 NOSIG,
HESH,2024-08-24 15:00,98.60,64.40,32.81,110.00,5.00,0.00,29.65,,6.21,,,,,,,,,,,,,,,,,101.50,HESH 241500Z 11005KT CAVOK 37/18 Q1004 NOSIG,
HESH,2024-08-24 16:00,96.80,64.40,34.66,120.00,4.00,0.00,29.65,,6.21,,,,,,,,,,,,,,,,,99.37,HESH 241600Z 12004KT CAVOK 36/18 Q1004 NOSIG,
HESH,2024-08-24 17:00,96.80,64.40,34.66,110.00,6.00,0.00,29.65,,6.21,,,,,,,,,,,,,,,,,99.37,HESH 241700Z 11006KT CAVOK 36/18 Q1004 NOSIG,
HESH,2024-08-24 18:00,95.00,64.40,36.63,360.00,6.00,0.00,29.68,,6.21,,,,,,,,,,,,,,,,,97.26,HESH 241800Z 36006KT CAVOK 35/18 Q1005 NOSIG,
HESH,2024-08-24 19:00,93.20,64.40,38.73,10.00,5.00,0.00,29.68,,6.21,,,,,,,,,,,,,,,,,95.20,HESH 241900Z 01005KT CAVOK 34/18 Q1005 NOSIG,
HESH,2024-08-24 20:00,93.20,64.40,38.73,360.00,6.00,0.00,29.68,,6.21,,,,,,,,,,,,,,,,,95.20,HESH 242000Z 36006KT CAVOK 34/18 Q1005 NOSIG,
HESH,2024-08-24 21:00,91.40,68.00,46.41,10.00,7.00,0.00,29.68,,6.21,,,,,,,,,,,,,,,,,95.55,HESH 242100Z 01007KT CAVOK 33/20 Q1005 NOSIG,
HESH,2024-08-24 22:00,91.40,68.00,46.41,360.00,6.00,0.00,29.68,,6.21,,,,,,,,,,,,,,,,,95.55,HESH 242200Z 36006KT CAVOK 33/20 Q1005 NOSIG,
HESH,2024-08-24 23:00,89.60,69.80,52.23,360.00,5.00,0.00,29.68,,6.21,,,,,,,,,,,,,,,,,94.85,HESH 242300Z 36005KT CAVOK 32/21 Q1005 NOSIG,
HESH,2024-08-25 00:00,87.80,69.80,55.29,350.00,11.00,0.00,29.65,,6.21,,,,,,,,,,,,,,,,,92.71,HESH 250000Z 35011KT CAVOK 31/21 Q1004 NOSIG,
HESH,2024-08-25 01:00,87.80,69.80,55.29,340.00,10.00,0.00,29.68,,6.21,,,,,,,,,,,,,,,,,92.71,HESH 250100Z 34010KT CAVOK 31/21 Q1005 NOSIG,
HESH,2024-08-25 02:00,86.00,69.80,58.55,350.00,10.00,0.00,29.68,,6.21,,,,,,,,,,,,,,,,,90.58,HESH 250200Z 35010KT CAVOK 30/21 Q1005 NOSIG,
HESH,2024-08-25 03:00,86.00,69.80,58.55,350.00,11.00,0.00,29.68,,6.21,,,,,,,,,,,,,,,,,90.58,HESH 250300Z 35011KT CAVOK 30/21 Q1005 NOSIG,
HESH,2024-08-25 04:00,86.00,69.80,58.55,350.00,10.00,0.00,29.68,,6.21,,,,,,,,,,,,,,,,,90.58,HESH 250400Z 35010KT CAVOK 30/21 Q1005 NOSIG,
HESH,2024-08-25 05:00,87.80,68.00,51.98,360.00,12.00,0.00,29.68,,6.21,,,,,,,,,,,,,,,,,91.43,HESH 250500Z 36012KT CAVOK 31/20 Q1005 NOSIG,
HESH,2024-08-25 06:00,91.40,71.60,52.48,350.00,9.00,0.00,29.74,,6.21,,,,,,,,,,,,,,,,,98.64,HESH 250600Z 35009KT CAVOK 33/22 Q1007 NOSIG,
HESH,2024-08-25 07:00,93.20,73.40,52.73,10.00,9.00,0.00,29.74,,6.21,,,,,,,,,,,,,,,,,102.82,HESH 250700Z 01009KT CAVOK 34/23 Q1007 NOSIG,
HESH,2024-08-25 08:00,95.00,69.80,44.14,40.00,9.00,0.00,29.74,,6.21,,,,,,,,,,,,,,,,,101.37,HESH 250800Z 04009KT CAVOK 35/21 Q1007 NOSIG,
HESH,2024-08-25 09:00,95.00,66.20,39.00,40.00,6.00,0.00,29.74,,6.21,,,,,,,,,,,,,,,,,98.46,HESH 250900Z 04006KT CAVOK 35/19 Q1007 NOSIG,
HESH,2024-08-25 10:00,96.80,68.00,39.27,40.00,6.00,0.00,29.74,,6.21,,,,,,,,,,,,,,,,,102.01,HESH 251000Z 04006KT CAVOK 36/20 Q1007 NOSIG,
HESH,2024-08-25 11:00,96.80,68.00,39.27,30.00,8.00,0.00,29.71,,6.21,,,,,,,,,,,,,,,,,102.01,HESH 251100Z 03008KT CAVOK 36/20 Q1006 NOSIG,
HESH,2024-08-25 12:00,95.00,73.40,49.87,140.00,14.00,0.00,29.68,,6.21,,,,,,,,,,,,,,,,,105.13,HESH 251200Z 14014KT CAVOK 35/23 Q1005,
HESH,2024-08-25 13:00,95.00,73.40,49.87,140.00,14.00,0.00,29.68,,6.21,,,,,,,,,,,,,,,,,105.13,HESH 251300Z 14014KT CAVOK 35/23 Q1005 NOSIG,
HESH,2024-08-25 14:00,93.20,73.40,52.73,150.00,14.00,0.00,29.68,,6.21,,,,,,,,,,,,,,,,,102.82,HESH 251400Z 15014KT CAVOK 34/23 Q1005 NOSIG,
HESH,2024-08-25 15:00,91.40,71.60,52.48,170.00,9.00,0.00,29.65,,6.21,,,,,,,,,,,,,,,,,98.64,HESH 251500Z 17009KT CAVOK 33/22 Q1004 NOSIG,
HESH,2024-08-25 16:00,91.40,71.60,52.48,160.00,14.00,0.00,29.65,,6.21,,,,,,,,,,,,,,,,,98.64,HESH 251600Z 16014KT CAVOK 33/22 Q1004 NOSIG,
HESH,2024-08-25 17:00,89.60,71.60,55.53,170.00,14.00,0.00,29.65,,6.21,,,,,,,,,,,,,,,,,96.41,HESH 251700Z 17014KT CAVOK 32/22 Q1004 NOSIG,
HESH,2024-08-25 18:00,95.00,59.00,30.26,160.00,7.00,0.00,29.68,,6.21,,,,,,,,,,,,,,,,,94.51,HESH 251800Z 16007KT CAVOK 35/15 Q1005 NOSIG,
HESH,2024-08-25 19:00,95.00,57.20,28.37,190.00,7.00,0.00,29.68,,6.21,,,,,,,,,,,,,,,,,93.82,HESH 251900Z 19007KT CAVOK 35/14 Q1005 NOSIG,
HESH,2024-08-25 20:00,93.20,57.20,29.99,160.00,8.00,0.00,29.68,,6.21,,,,,,,,,,,,,,,,,91.91,HESH 252000Z 16008KT CAVOK 34/14 Q1005 NOSIG,
HESH,2024-08-25 21:00,89.60,68.00,49.10,350.00,7.00,0.00,29.71,,6.21,,,,,,,,,,,,,,,,,93.47,HESH 252100Z 35007KT CAVOK 32/20 Q1006 NOSIG,
HESH,2024-08-25 22:00,87.80,68.00,51.98,360.00,6.00,0.00,29.68,,6.21,,,,,,,,,,,,,,,,,91.43,HESH 252200Z 36006KT CAVOK 31/20 Q1005 NOSIG,
HESH,2024-08-25 23:00,87.80,68.00,51.98,350.00,8.00,0.00,29.68,,6.21,,,,,,,,,,,,,,,,,91.43,HESH 252300Z 35008KT CAVOK 31/20 Q1005 NOSIG,
