station,valid,tmpf,dwpf,relh,drct,sknt,p01i,alti,mslp,vsby,gust,skyc1,skyc2,skyc3,skyc4,skyl1,skyl2,skyl3,skyl4,wxcodes,ice_accretion_1hr,ice_accretion_3hr,ice_accretion_6hr,peak_wind_gust,peak_wind_drct,peak_wind_time,feel,metar,snowdepth
LCEN,2023-08-01 00:20,77.00,71.60,83.44,210.00,4.00,0.00,29.65,,6.21,,,,,,,,,,,,,,,,,77.00,LCEN 010020Z 21004KT CAVOK 25/22 Q1004 NOSIG RMK RWY11R 21003KT RWY29R 00000KT RWY11L 20003KT,
LCEN,2023-08-01 00:50,78.80,73.40,83.55,0.00,0.00,0.00,29.65,,6.21,,,,,,,,,,,,,,,,,78.80,LCEN 010050Z 00000KT CAVOK 26/23 Q1004 NOSIG RMK RWY11R 00000KT RWY29R 00000KT RWY11L 00000KT,
LCEN,2023-08-01 01:20,77.00,71.60,83.44,240.00,4.00,0.00,29.65,,6.21,,,,,,,,,,,,,,,,,77.00,LCEN 010120Z 24004KT CAVOK 25/22 Q1004 NOSIG RMK RWY11R 24004KT RWY29R 00000KT RWY11L 00000KT,
LCEN,2023-08-01 01:50,77.00,71.60,83.44,230.00,5.00,0.00,29.65,,6.21,,,,,,,,,,,,,,,,,77.00,LCEN 010150Z 23005KT CAVOK 25/22 Q1004 NOSIG RMK RWY11R 21004KT RWY29R 00000KT RWY11L 00000KT,
LCEN,2023-08-01 02:20,77.00,71.60,83.44,240.00,4.00,0.00,29.65,,6.21,,,,,,,,,,,,,,,,,77.00,LCEN 010220Z 24004KT CAVOK 25/22 Q1004 NOSIG RMK RWY11R 00000KT RWY29R 00000KT RWY11L 00000KT,
LCEN,2023-08-01 02:50,77.00,71.60,83.44,0.00,0.00,0.00,29.65,,6.21,,,,,,,,,,,,,,,,,77.00,LCEN 010250Z 00000KT CAVOK 25/22 Q1004 NOSIG RMK RWY11R 20004KT RWY29R 20003KT RWY11L 00000KT,
LCEN,2023-08-01 03:20,77.00,71.60,83.44,260.00,4.00,0.00,29.65,,6.21,,,,,,,,,,,,,,,,,77.00,LCEN 010320Z 26004KT CAVOK 25/22 Q1004 NOSIG RMK RWY11R 22003KT RWY29R 00000KT RWY11L 00000KT,
LCEN,2023-08-01 03:50,77.00,71.60,83.44,230.00,3.00,0.00,29.68,,6.21,,FEW,,,,1000.00,,,,,,,,,,,77.00,LCEN 010350Z 23003KT 9999 FEW010 25/22 Q1005 NOSIG RMK RWY11R 21004KT RWY29R 00000KT RWY11L 00000KT,
LCEN,2023-08-01 04:20,77.00,71.60,83.44,0.00,0.00,0.00,29.68,,6.21,,FEW,,,,1000.00,,,,,,,,,,,77.00,LCEN 010420Z 00000KT 9999 FEW010 25/22 Q1005 NOSIG RMK RWY11R 00000KT RWY29R 00000KT RWY11L 00000KT,
LCEN,2023-08-01 04:50,80.60,73.40,78.76,0.00,0.00,0.00,29.68,,6.21,,FEW,,,,1000.00,,,,,,,,,,,85.32,LCEN 010450Z 00000KT 9999 FEW010 27/23 Q1005 NOSIG RMK RWY11R 00000KT RWY29R 00000KT RWY11L 00000KT,
LCEN,2023-08-01 05:20,82.40,73.40,74.28,0.00,0.00,0.00,29.68,,6.21,,FEW,,,,1000.00,,,,,,,,,,,88.26,LCEN 010520Z 00000KT 9999 FEW010 28/23 Q1005 NOSIG RMK RWY11R 00000KT RWY29R 00000KT RWY11L 00000KT,
LCEN,2023-08-01 05:50,84.20,73.40,70.08,0.00,0.00,0.00,29.68,,6.21,,FEW,,,,2000.00,,,,,,,,,,,90.94,LCEN 010550Z 00000KT 9999 FEW020 29/23 Q1005 NOSIG RMK RWY11R 00000KT RWY29R 16003KT RWY11L 17004KT,
LCEN,2023-08-01 06:20,86.00,71.60,62.25,110.00,3.00,0.00,29.68,,6.21,,FEW,,,,2000.00,,,,,,,,,,,91.92,LCEN 010620Z 11003KT 9999 FEW020 30/22 Q1005 NOSIG RMK RWY11R 12003KT RWY29R 12003KT RWY11L 00000KT,
LCEN,2023-08-01 06:50,89.60,69.80,52.23,120.00,5.00,0.00,29.68,,6.21,,FEW,,,,2000.00,,,,,,,,,,,94.85,LCEN 010650Z 12005KT 9999 FEW020 32/21 Q1005 NOSIG RMK RWY11R 22003KT RWY29R 12003KT RWY11L 12004KT,
LCEN,2023-08-01 07:20,91.40,68.00,46.41,130.00,5.00,0.00,29.68,,6.21,,FEW,,,,2000.00,,,,,,,,,,,95.55,LCEN 010720Z 13005KT 9999 FEW020 33/20 Q1005 NOSIG RMK RWY11R 13005KT RWY29R 12005KT RWY11L 15005KT,
LCEN,2023-08-01 07:50,93.20,68.00,43.88,110.00,6.00,0.00,29.68,,6.21,,FEW,,,,2000.00,,,,,,,,,,,97.67,LCEN 010750Z 11006KT 9999 FEW020 34/20 Q1005 NOSIG RMK RWY11R 15006KT RWY29R 11006KT RWY11L 14006KT,
LCEN,2023-08-01 08:20,95.00,62.60,34.39,160.00,11.00,0.00,29.68,,6.21,,FEW,,,,2000.00,,,,,,,,,,,96.22,LCEN 010820Z 16011KT 9999 FEW020 35/17 Q1005 NOSIG RMK RWY11R 13008KT RWY29R 17007KT RWY11L 16007KT 080V250,
LCEN,2023-08-01 08:50,95.00,62.60,34.39,200.00,9.00,0.00,29.68,,6.21,,FEW,,,,2000.00,,,,,,,,,,,96.22,COR LCEN 010850Z 20009KT 9999 FEW020 35/17 Q1005 NOSIG RMK RWY11R 15008KT RWY29R 15008KT RWY11L 14008KT,
LCEN,2023-08-01 09:20,96.80,60.80,30.53,140.00,10.00,0.00,29.68,,6.21,,FEW,,,,2000.00,,,,,,,,,,,97.33,LCEN 010920Z 14010KT 9999 FEW020 36/16 Q1005 NOSIG RMK RWY11R 14010KT RWY29R 14008KT RWY11L 15009KT 110V190,
LCEN,2023-08-01 09:50,95.00,60.80,32.27,160.00,10.00,0.00,29.68,,6.21,,FEW,,,,2000.00,,,,,,,,,,,95.30,LCEN 010950Z 16010KT 9999 FEW020 35/16 Q1005 NOSIG RMK RWY11R 15009KT RWY29R 15009KT RWY11L 18006KT 090V230,
LCEN,2023-08-01 10:20,98.60,60.80,28.90,160.00,12.00,0.00,29.68,,6.21,,FEW,,,,2000.00,,,,,,,,,,,99.39,LCEN 011020Z 16012KT 9999 FEW020 37/16 Q1005 NOSIG RMK RWY11R 15010KT RWY29R 16008KT RWY11L 15010KT,
LCEN,2023-08-01 10:50,98.60,60.80,28.90,150.00,13.00,0.00,29.68,,6.21,,FEW,,,,2000.00,,,,,,,,,,,99.39,LCEN 011050Z 15013KT 9999 FEW020 37/16 Q1005 NOSIG RMK RWY11R 15011KT RWY29R 14010KT RWY11L 16010KT,
LCEN,2023-08-01 11:20,100.40,57.20,24.06,150.00,12.00,0.00,29.65,,6.21,,FEW,,,,2000.00,,,,,,,,,,,99.77,LCEN 011120Z 15012KT 9999 FEW020 38/14 Q1004 NOSIG RMK RWY11R 15011KT RWY29R 16010KT RWY11L 16009KT,
LCEN,2023-08-01 11:50,100.40,53.60,21.11,160.00,16.00,0.00,29.65,,6.21,,FEW,,,,2000.00,,,,,,,,,,,98.44,LCEN 011150Z 16016KT 9999 FEW020 38/12 Q1004 NOSIG RMK RWY11R 15015KT RWY29R 15015KT RWY11L 18011KT 130V220,
LCEN,2023-08-01 12:20,102.20,44.60,14.29,160.00,15.00,0.00,29.65,,6.21,,FEW,,,,2000.00,,,,,,,,,,,98.07,LCEN 011220Z 16015KT 9999 FEW020 39/07 Q1004 NOSIG RMK RWY11R 20011KT RWY29R 19012KT RWY11L 18012KT 140V230,
LCEN,2023-08-01 12:50,100.40,64.40,31.07,160.00,14.00,0.00,29.65,,6.21,,FEW,,,,2000.00,,,,,,,,,,,103.66,LCEN 011250Z 16014KT 9999 FEW020 38/18 Q1004 NOSIG RMK RWY11R 24016KT RWY29R 19014KT RWY11L 27013KT 210V300,
LCEN,2023-08-01 13:20,98.60,66.20,34.93,260.00,15.00,0.00,29.65,,6.21,,FEW,,,,2000.00,,,,,,,,,,,102.78,LCEN 011320Z 26015KT 9999 FEW020 37/19 Q1004 NOSIG RMK RWY11R 27016KT RWY29R 27014KT RWY11L 27014KT,
LCEN,2023-08-01 13:50,98.60,66.20,34.93,260.00,15.00,0.00,29.65,,6.21,,FEW,,,,2000.00,,,,,,,,,,,102.78,LCEN 011350Z 26015KT 9999 FEW020 37/19 Q1004 NOSIG RMK RWY11R 27016KT RWY29R 27014KT RWY11L 29014KT,
LCEN,2023-08-01 14:20,96.80,66.20,36.90,270.00,15.00,0.00,29.65,,6.21,,FEW,,,,2000.00,,,,,,,,,,,100.60,LCEN 011420Z 27015KT 9999 FEW020 36/19 Q1004 NOSIG RMK RWY11R 28017KT RWY29R 28015KT RWY11L 29014KT,
LCEN,2023-08-01 14:50,95.00,68.00,41.50,300.00,12.00,0.00,29.65,,6.21,,FEW,,,,2000.00,,,,,,,,,,,99.82,LCEN 011450Z 30012KT 290V010 9999 FEW020 35/20 Q1004 NOSIG RMK RWY11R 31010KT 290V010 RWY29R 33009KT RWY11L 32012KT,
LCEN,2023-08-01 15:20,93.20,68.00,43.88,280.00,15.00,0.00,29.65,,6.21,,FEW,,,,2000.00,,,,,,,,,,,97.67,LCEN 011520Z 28015KT 9999 FEW020 34/20 Q1004 NOSIG RMK RWY11R 28015KT RWY29R 28012KT RWY11L 29013KT,
LCEN,2023-08-01 15:50,91.40,69.80,49.36,270.00,15.00,0.00,29.65,,6.21,,FEW,,,,2000.00,,,,,,,,,,,96.99,LCEN 011550Z 27015KT 9999 FEW020 33/21 Q1004 NOSIG RMK RWY11R 28016KT RWY29R 28014KT RWY11L 29013KT,
LCEN,2023-08-01 16:20,89.60,68.00,49.10,280.00,16.00,0.00,29.68,,6.21,,FEW,,,,2000.00,,,,,,,,,,,93.47,LCEN 011620Z 28016KT 9999 FEW020 32/20 Q1005 NOSIG RMK RWY11R 29016KT RWY29R 29014KT RWY11L 29013KT,
LCEN,2023-08-01 16:50,87.80,68.00,51.98,280.00,14.00,0.00,29.68,,6.21,,FEW,,,,2000.00,,,,,,,,,,,91.43,LCEN 011650Z 28014KT 9999 FEW020 31/20 Q1005 NOSIG RMK RWY11R 29014KT RWY29R 28014KT RWY11L 30013KT,
LCEN,2023-08-01 17:20,86.00,69.80,58.55,280.00,16.00,0.00,29.68,,6.21,,,,,,,,,,,,,,,,,90.58,LCEN 011720Z 28016KT CAVOK 30/21 Q1005 NOSIG RMK RWY11R 29015KT RWY29R 29013KT RWY11L 29012KT,
LCEN,2023-08-01 17:50,84.20,71.60,65.95,280.00,16.00,0.00,29.68,,6.21,,,,,,,,,,,,,,,,,89.60,LCEN 011750Z 28016KT CAVOK 29/22 Q1005 NOSIG RMK RWY11R 29016KT RWY29R 29014KT RWY11L 30014KT,
LCEN,2023-08-01 18:20,82.40,71.60,69.90,280.00,15.00,0.00,29.71,,6.21,,,,,,,,,,,,,,,,,87.18,LCEN 011820Z 28015KT CAVOK 28/22 Q1006 NOSIG RMK RWY11R 29015KT RWY29R 29013KT RWY11L 30012KT,
LCEN,2023-08-01 18:50,82.40,71.60,69.90,280.00,14.00,0.00,29.71,,6.21,,,,,,,,,,,,,,,,,87.18,LCEN 011850Z 28014KT CAVOK 28/22 Q1006 NOSIG RMK RWY11R 30013KT RWY29R 29013KT RWY11L 30011KT,
LCEN,2023-08-01 19:20,80.60,71.60,74.11,270.00,12.00,0.00,29.71,,6.21,,,,,,,,,,,,,,,,,84.57,LCEN 011920Z 27012KT CAVOK 27/22 Q1006 NOSIG RMK RWY11R 29015KT RWY29R 29013KT RWY11L 29012KT,
LCEN,2023-08-01 19:50,80.60,73.40,78.76,280.00,12.00,0.00,29.74,,6.21,,,,,,,,,,,,,,,,,85.32,LCEN 011950Z 28012KT CAVOK 27/23 Q1007 NOSIG RMK RWY11R 29013KT RWY29R 28012KT RWY11L 30012KT,
LCEN,2023-08-01 20:20,80.60,71.60,74.11,280.00,11.00,0.00,29.74,,6.21,,,,,,,,,,,,,,,,,84.57,LCEN 012020Z 28011KT CAVOK 27/22 Q1007 NOSIG RMK RWY11R 29010KT RWY29R 29009 RWY11L 30009KT,
LCEN,2023-08-01 20:50,80.60,71.60,74.11,280.00,11.00,0.00,29.74,,6.21,,,,,,,,,,,,,,,,,84.57,LCEN 012050Z 28011KT CAVOK 27/22 Q1007 NOSIG RMK RWY11R 29009KT RWY29R 29007KT RWY11L 30007KT,
LCEN,2023-08-01 21:20,78.80,71.60,78.62,290.00,9.00,0.00,29.74,,6.21,,,,,,,,,,,,,,,,,78.80,LCEN 012120Z 29009KT CAVOK 26/22 Q1007 NOSIG RMK RWY11R 30007KT RWY29R 30008KT RWY11L 30006KT,
LCEN,2023-08-01 21:50,78.80,71.60,78.62,280.00,9.00,0.00,29.74,,6.21,,,,,,,,,,,,,,,,,78.80,LCEN 012150Z 28009KT CAVOK 26/22 Q1007 NOSIG RMK RWY11R 29007KT RWY29R 29006KT RWY11L 30005KT,
LCEN,2023-08-01 22:20,78.80,71.60,78.62,280.00,9.00,0.00,29.74,,6.21,,,,,,,,,,,,,,,,,78.80,LCEN 012220Z 28009KT CAVOK 26/22 Q1007 NOSIG RMK RWY11R 30007KT RWY29R 29008KT RWY11L 30006KT,
LCEN,2023-08-01 22:50,77.00,71.60,83.44,280.00,7.00,0.00,29.74,,6.21,,,,,,,,,,,,,,,,,77.00,LCEN 012250Z 28007KT CAVOK 25/22 Q1007 NOSIG RMK RWY11R 29007KT RWY29R 29006KT RWY11L 29005KT,
LCEN,2023-08-01 23:20,77.00,71.60,83.44,290.00,7.00,0.00,29.74,,6.21,,,,,,,,,,,,,,,,,77.00,COR LCEN 012320Z 29007KT CAVOK 25/22 Q1007 NOSIG RMK RWY11R 29007KT RWY29R 30005KT RWY11L 30006KT,
LCEN,2023-08-01 23:50,77.00,71.60,83.44,230.00,5.00,0.00,29.74,,6.21,,,,,,,,,,,,,,,,,77.00,LCEN 012350Z 23005KT CAVOK 25/22 Q1007 NOSIG RMK RWY11R 28005KT RWY29R 28005KT RWY11L 29005KT,
LCEN,2023-08-02 00:20,77.00,71.60,83.44,250.00,5.00,0.00,29.74,,6.21,,,,,,,,,,,,,,,,,77.00,LCEN 020020Z 25005KT CAVOK 25/22 Q1007 NOSIG RMK RWY11R 27005KT RWY29R 28004KT RWY11L 29005KT,
LCEN,2023-08-02 00:50,75.20,71.60,88.59,240.00,5.00,0.00,29.71,,6.21,,,,,,,,,,,,,,,,,75.20,LCEN 020050Z 24005KT CAVOK 24/22 Q1006 NOSIG RMK RWY11R 27005KT RWY29R 28004KT RWY11L 28004KT,
LCEN,2023-08-02 01:20,75.20,71.60,88.59,250.00,6.00,0.00,29.74,,6.21,,,,,,,,,,,,,,,,,75.20,LCEN 020120Z 25006KT CAVOK 24/22 Q1007 NOSIG RMK RWY11R 22004KT RWY29R 26005KT RWY11L 27005KT,
LCEN,2023-08-02 02:20,75.20,69.80,83.32,240.00,6.00,0.00,29.74,,6.21,,,,,,,,,,,,,,,,,75.20,LCEN 020220Z 24006KT CAVOK 24/21 Q1007 NOSIG RMK RWY11R 25005KT RWY29R 24003KT RWY11L 27005KT,
LCEN,2023-08-02 02:50,75.20,69.80,83.32,240.00,6.00,0.00,29.74,,6.21,,SCT,,,,700.00,,,,,,,,,,,75.20,LCEN 020250Z 24006KT 9999 SCT007 24/21 Q1007 NOSIG RMK RWY11R 26005KT RWY29R 26005KT RWY11L 27007KT,
LCEN,2023-08-02 03:20,75.20,69.80,83.32,240.00,6.00,0.00,29.74,,6.21,,SCT,,,,700.00,,,,,,,,,,,75.20,LCEN 020320Z 24006KT 9999 SCT007 24/21 Q1007 NOSIG RMK RWY11R 23005KT RWY29R 24005KT RWY11L 27006KT,
LCEN,2023-08-02 03:50,75.20,69.80,83.32,240.00,6.00,0.00,29.74,,4.35,,BKN,,,,700.00,,,,,,,,,,,75.20,LCEN 020350Z 24006KT 7000 BKN007 24/21 Q1007 NOSIG RMK RWY11R 25005KT RWY29R 26005KT RWY11L 27005KT,
LCEN,2023-08-02 04:20,77.00,69.80,78.48,240.00,6.00,0.00,29.74,,4.35,,BKN,,,,700.00,,,,,,,,,,,77.00,LCEN 020420Z 24006KT 7000 BKN007 25/21 Q1007 NOSIG RMK RWY11R 24004KT RWY29R 24003KT RWY11L 28003KT,
LCEN,2023-08-02 04:50,78.80,69.80,73.95,250.00,4.00,0.00,29.77,,4.97,,SCT,,,,700.00,,,,,,,,,,,78.80,LCEN 020450Z 25004KT 8000 SCT007 26/21 Q1008 NOSIG RMK RWY11R 27005KT RWY29R 27004KT RWY11L 29004KT,
LCEN,2023-08-02 05:20,82.40,73.40,74.28,0.00,0.00,0.00,29.77,,6.21,,FEW,,,,700.00,,,,,,,,,,,88.26,LCEN 020520Z 00000KT 9999 FEW007 28/23 Q1008 NOSIG RMK RWY11R 00000KT RWY29R 00000KT RWY11L 00000KT,
LCEN,2023-08-02 05:50,84.20,73.40,70.08,70.00,5.00,0.00,29.77,,6.21,,FEW,,,,2500.00,,,,,,,,,,,90.94,LCEN 020550Z 07005KT 9999 FEW025 29/23 Q1008 NOSIG RMK RWY11R 13005KT RWY29R 11004KT RWY11L 00000KT,
LCEN,2023-08-02 06:20,86.00,71.60,62.25,50.00,5.00,0.00,29.77,,6.21,,FEW,,,,2000.00,,,,,,,,,,,91.92,LCEN 020620Z 05005KT 9999 FEW020 30/22 Q1008 NOSIG RMK RWY11R 14005KT RWY29R 14004KT RWY11L 15004KT,
LCEN,2023-08-02 06:50,87.80,71.60,58.78,130.00,4.00,0.00,29.77,,6.21,,FEW,,,,2000.00,,,,,,,,,,,94.18,LCEN 020650Z 13004KT 9999 FEW020 31/22 Q1008 NOSIG RMK RWY11R 15005KT RWY29R 12004KT RWY11L 15005KT,
LCEN,2023-08-02 07:20,87.80,69.80,55.29,120.00,4.00,0.00,29.77,,6.21,,FEW,,,,2000.00,,,,,,,,,,,92.71,LCEN 020720Z 12004KT 9999 FEW020 31/21 Q1008 NOSIG RMK RWY11R 13005KT RWY29R 15004KT RWY11L 15005KT,
LCEN,2023-08-02 07:50,89.60,69.80,52.23,120.00,5.00,0.00,29.77,,6.21,,FEW,,,,2000.00,,,,,,,,,,,94.85,LCEN 020750Z 12005KT 9999 FEW020 32/21 Q1008 NOSIG RMK RWY11R 14005KT RWY29R 16004KT RWY11L 15004KT,
LCEN,2023-08-02 08:20,93.20,66.20,41.23,100.00,7.00,0.00,29.77,,6.21,,FEW,,,,2000.00,,,,,,,,,,,96.35,LCEN 020820Z 10007KT 9999 FEW020 34/19 Q1008 NOSIG RMK RWY11R 14006KT RWY29R 13004KT RWY11L 16004KT,
LCEN,2023-08-02 08:50,95.00,62.60,34.39,50.00,5.00,0.00,29.77,,6.21,,FEW,,,,2000.00,,,,,,,,,,,96.22,LCEN 020850Z 05005KT 9999 FEW020 35/17 Q1008 NOSIG RMK RWY11R 09005KT RWY29R 11005KT RWY11L 12007KT,
LCEN,2023-08-02 09:20,95.00,66.20,39.00,120.00,8.00,0.00,29.74,,6.21,,FEW,,,,2000.00,,,,,,,,,,,98.46,LCEN 020920Z 12008KT 9999 FEW020 35/19 Q1007 NOSIG RMK RWY11R 12006KT RWY29R 13004KT RWY11L 14004KT,
LCEN,2023-08-02 09:50,96.80,64.40,34.66,150.00,12.00,0.00,29.74,,6.21,,FEW,,,,2000.00,,,,,,,,,,,99.37,COR LCEN 020950Z 15012KT 9999 FEW020 36/18 Q1007 NOSIG RMK RWY11R 21008KT RWY29R 17009KT RWY11L 14005KT 100V220,
LCEN,2023-08-02 10:20,96.80,60.80,30.53,130.00,7.00,0.00,29.74,,6.21,,FEW,,,,2000.00,,,,,,,,,,,97.33,LCEN 021020Z 13007KT 9999 FEW020 36/16 Q1007 NOSIG RMK RWY11R 13009KT RWY29R 12006KT RWY11L 13007KT,
LCEN,2023-08-02 10:50,98.60,59.00,27.10,130.00,7.00,0.00,29.74,,6.21,,FEW,,,,2000.00,,,,,,,,,,,98.52,LCEN 021050Z 13007KT 9999 FEW020 37/15 Q1007 NOSIG RMK RWY11R 12004KT RWY29R 17008KT RWY11L 10005KT,
LCEN,2023-08-02 11:20,100.40,57.20,24.06,120.00,10.00,0.00,29.74,,6.21,,FEW,,,,2000.00,,,,,,,,,,,99.77,LCEN 021120Z 12010KT 9999 FEW020 38/14 Q1007 NOSIG RMK RWY11R 22007KT RWY29R 12007KT RWY11L 17007KT,
LCEN,2023-08-02 11:50,100.40,57.20,24.06,130.00,10.00,0.00,29.74,,6.21,,FEW,,,,2000.00,,,,,,,,,,,99.77,LCEN 021150Z 13010KT 9999 FEW020 38/14 Q1007 NOSIG RMK RWY11 10007KT RWY29R 12007KT RWY11L 16005KT,
LCEN,2023-08-02 12:20,100.40,55.40,22.54,130.00,12.00,0.00,29.71,,6.21,,FEW,,,,2000.00,,,,,,,,,,,99.06,LCEN 021220Z 13012KT 9999 FEW020 38/13 Q1006 NOSIG RMK RWY11R 15013KT RWY29R 14010KT RWY11L 14010KT,
LCEN,2023-08-02 12:50,100.40,55.40,22.54,150.00,13.00,0.00,29.74,,6.21,,FEW,,,,2000.00,,,,,,,,,,,99.06,LCEN 021250Z 15013KT 9999 FEW020 38/13 Q1007 NOSIG RMK RWY11R 16011KT RWY29R 16012KT RWY11L 18012KT,
LCEN,2023-08-02 13:20,100.40,51.80,19.76,150.00,14.00,0.00,29.74,,6.21,,FEW,,,,2000.00,,,,,,,,,,,97.90,LCEN 021320Z 15014KT 9999 FEW020 38/11 Q1007 NOSIG RMK RWY11R 16013KT RWY29R 15012KT RWY11L 15012KT,
LCEN,2023-08-02 13:50,100.40,59.00,25.67,140.00,14.00,0.00,29.71,,6.21,,FEW,,,,2000.00,,,,,,,,,,,100.57,LCEN 021350Z 14014KT 9999 FEW020 38/15 Q1006 NOSIG RMK RWY11R 31007KT RWY29R 32006KT RWY11L 04005KT,
LCEN,2023-08-02 14:20,98.60,62.60,30.80,280.00,19.00,0.00,29.71,,6.21,,,,,,,,,,,,,,,,,100.38,LCEN 021420Z 28019KT CAVOK 37/17 Q1006 NOSIG RMK RWY11R 32012KT RWY29R 29016KT RWY11L 32014KT,
LCEN,2023-08-02 14:50,96.80,57.20,26.84,270.00,19.00,0.00,29.71,,6.21,,,,,,,,,,,,,,,,,95.77,LCEN 021450Z 27019KT CAVOK 36/14 Q1006 NOSIG RMK RWY11R 29018KT RWY29R 28017KT RWY11L 30016KT 260V330,
LCEN,2023-08-02 15:20,93.20,57.20,29.99,290.00,18.00,0.00,29.74,,6.21,,,,,,,,,,,,,,,,,91.91,LCEN 021520Z 29018KT CAVOK 34/14 Q1007 NOSIG RMK RWY11R 29017KT RWY29R 29017KT RWY11L 29015KT,
LCEN,2023-08-02 15:50,91.40,59.00,33.84,280.00,17.00,0.00,29.74,,6.21,,,,,,,,,,,,,,,,,90.68,LCEN 021550Z 28017KT CAVOK 33/15 Q1007 NOSIG RMK RWY11R 29017KT RWY29R 29014KT RWY11L 29015KT,
LCEN,2023-08-02 16:20,89.60,59.00,35.81,280.00,18.00,0.00,29.74,,6.21,,,,,,,,,,,,,,,,,88.86,LCEN 021620Z 28018KT CAVOK 32/15 Q1007 NOSIG RMK RWY11R 29017KT RWY29R 28016KT RWY11L 29015KT,
LCEN,2023-08-02 16:50,87.80,59.00,37.90,290.00,16.00,0.00,29.74,,6.21,,,,,,,,,,,,,,,,,87.12,LCEN 021650Z 29016KT CAVOK 31/15 Q1007 NOSIG RMK RWY11R 30015KT RWY29R 29015KT RWY11L 29014KT,
LCEN,2023-08-02 17:20,84.20,66.20,54.80,270.00,16.00,0.00,29.74,,6.21,,,,,,,,,,,,,,,,,86.50,LCEN 021720Z 27016KT CAVOK 29/19 Q1007 NOSIG RMK RWY11R 29015KT RWY29R 28015KT RWY11L 29015KT,
LCEN,2023-08-02 17:50,82.40,68.00,61.81,280.00,14.00,0.00,29.77,,6.21,,,,,,,,,,,,,,,,,85.38,LCEN 021750Z 28014KT CAVOK 28/20 Q1008 NOSIG RMK RWY11R 29014KT RWY29R 29012KT RWY11L 29012KT,
LCEN,2023-08-02 18:20,82.40,69.80,65.74,290.00,13.00,0.00,29.77,,6.21,,,,,,,,,,,,,,,,,86.22,LCEN 021820Z 29013KT CAVOK 28/21 Q1008 NOSIG RMK RWY11R 30011KT RWY29R 30011KT RWY11L 31010KT,
LCEN,2023-08-02 18:50,80.60,71.60,74.11,290.00,11.00,0.00,29.77,,6.21,,,,,,,,,,,,,,,,,84.57,LCEN 021850Z 29011KT CAVOK 27/22 Q1008 NOSIG RMK RWY11R 30011KT RWY29R 30012KT RWY11L 31011KT,
LCEN,2023-08-02 19:20,80.60,71.60,74.11,280.00,12.00,0.00,29.80,,6.21,,,,,,,,,,,,,,,,,84.57,LCEN 021920Z 28012KT CAVOK 27/22 Q1009 NOSIG RMK RWY11R 30012KT RWY29R 29010KT RWY11L 30012KT,
LCEN,2023-08-02 19:50,80.60,71.60,74.11,280.00,11.00,0.00,29.80,,6.21,,,,,,,,,,,,,,,,,84.57,LCEN 021950Z 28011KT CAVOK 27/22 Q1009 NOSIG RMK RWY11R 30007KT RWY29R 30007KT RWY11L 30009KT,
LCEN,2023-08-02 20:20,78.80,71.60,78.62,290.00,9.00,0.00,29.80,,6.21,,,,,,,,,,,,,,,,,78.80,LCEN 022020Z 29009KT CAVOK 26/22 Q1009 NOSIG RMK RWY11R 30005KT RWY29R 30006KT RWY11L 30003KT,
LCEN,2023-08-02 20:50,77.00,71.60,83.44,280.00,6.00,0.00,29.80,,6.21,,,,,,,,,,,,,,,,,77.00,LCEN 022050Z 28006KT CAVOK 25/22 Q1009 NOSIG RMK RWY11R 29006KT RWY29R 29005KT RWY11L 30004KT,
LCEN,2023-08-02 21:20,77.00,71.60,83.44,270.00,7.00,0.00,29.80,,6.21,,,,,,,,,,,,,,,,,77.00,LCEN 022120Z 27007KT CAVOK 25/22 Q1009 NOSIG RMK RWY11R 30005KT RWY29R 28004KT RWY11L 29004KT,
LCEN,2023-08-02 21:50,77.00,71.60,83.44,290.00,7.00,0.00,29.80,,6.21,,,,,,,,,,,,,,,,,77.00,LCEN 022150Z 29007KT CAVOK 25/22 Q1009 NOSIG RMK RWY11R 31003KT RWY29R 29005KT RWY11L 30003KT,
LCEN,2023-08-02 22:20,77.00,71.60,83.44,280.00,6.00,0.00,29.77,,6.21,,,,,,,,,,,,,,,,,77.00,LCEN 022220Z 28006KT CAVOK 25/22 Q1008 NOSIG RMK RWY11R 31003KT RWY29R 29005KT RWY11L 30004KT,
LCEN,2023-08-02 22:50,77.00,71.60,83.44,250.00,5.00,0.00,29.77,,6.21,,,,,,,,,,,,,,,,,77.00,LCEN 022250Z 25005KT CAVOK 25/22 Q1008 NOSIG RMK RWY11R 29006KT RWY29R 28006KT RWY11L 30004KT,
LCEN,2023-08-02 23:20,75.20,69.80,83.32,340.00,5.00,0.00,29.77,,6.21,,,,,,,,,,,,,,,,,75.20,LCEN 022320Z 34005KT CAVOK 24/21 Q1008 NOSIG RMK RWY11R 35003KT RWY29R 00000KT RWY11L 34003KT,
LCEN,2023-08-02 23:50,75.20,71.60,88.59,0.00,0.00,0.00,29.77,,6.21,,,,,,,,,,,,,,,,,75.20,LCEN 022350Z 00000KT CAVOK 24/22 Q1008 NOSIG RMK RWY11R 00000KT RWY29R 00000KT RWY11L 00000KT,
LCEN,2023-08-03 00:20,75.20,71.60,88.59,240.00,5.00,0.00,29.77,,6.21,,,,,,,,,,,,,,,,,75.20,LCEN 030020Z 24005KT CAVOK 24/22 Q1008 NOSIG RMK RWY11R 25004KT RWY29R 00000KT RWY11L 00000KT,
LCEN,2023-08-03 00:50,75.20,71.60,88.59,240.00,5.00,0.00,29.77,,6.21,,,,,,,,,,,,,,,,,75.20,LCEN 030050Z 24005KT CAVOK 24/22 Q1008 NOSIG RMK RWY11R 26005KT RWY29R 27004KT RWY11L 27004KT,
LCEN,2023-08-03 01:20,75.20,71.60,88.59,240.00,5.00,0.00,29.77,,6.21,,FEW,,,,2000.00,,,,,,,,,,,75.20,LCEN 030120Z 24005KT 9999 FEW020 24/22 Q1008 NOSIG RMK RWY11R 27005KT RWY29R 27006KT RWY11L 27006KT,
LCEN,2023-08-03 01:50,75.20,71.60,88.59,280.00,5.00,0.00,29.77,,6.21,,FEW,,,,2000.00,,,,,,,,,,,75.20,LCEN 030150Z 28005KT 9999 FEW020 24/22 Q1008 NOSIG RMK RWY11R 28005KT RWY29R 27005KT RWY11L 27005KT,
LCEN,2023-08-03 02:20,73.40,69.80,88.51,240.00,6.00,0.00,29.77,,6.21,,FEW,,,,2000.00,,,,,,,,,,,73.40,LCEN 030220Z 24006KT 9999 FEW020 23/21 Q1008 NOSIG RMK RWY11R 28005KT RWY29R 27005KT RWY11L 28005KT,
LCEN,2023-08-03 02:50,73.40,69.80,88.51,240.00,5.00,0.00,29.77,,6.21,,FEW,,,,2000.00,,,,,,,,,,,73.40,LCEN 030250Z 24005KT 9999 FEW020 23/21 Q1008 NOSIG RMK RWY11R 27004KT RWY29R 27005KT RWY11L 26005KT,
LCEN,2023-08-03 03:20,73.40,69.80,88.51,240.00,5.00,0.00,29.77,,6.21,,FEW,,,,2000.00,,,,,,,,,,,73.40,LCEN 030320Z 24005KT 9999 FEW020 23/21 Q1008 NOSIG RMK RWY11R 28004KT RWY29R 27005KT RWY11L 26005KT,
LCEN,2023-08-03 03:50,75.20,71.60,88.59,270.00,4.00,0.00,29.80,,6.21,,FEW,,,,2000.00,,,,,,,,,,,75.20,LCEN 030350Z 27004KT 9999 FEW020 24/22 Q1009 NOSIG RMK RWY11R 28003KT RWY29R 30005KT RWY11L 29005KT,
LCEN,2023-08-03 04:20,77.00,71.60,83.44,300.00,4.00,0.00,29.80,,6.21,,FEW,,,,2000.00,,,,,,,,,,,77.00,LCEN 030420Z 30004KT 9999 FEW020 25/22 Q1009 NOSIG RMK RWY11R 29003KT RWY29R 30005KT RWY11L 29005KT,
LCEN,2023-08-03 04:50,78.80,71.60,78.62,280.00,5.00,0.00,29.80,,6.21,,FEW,,,,2000.00,,,,,,,,,,,78.80,LCEN 030450Z 28005KT 9999 FEW020 26/22 Q1009 NOSIG RMK RWY11R 28003KT RWY29R 28005KT RWY11L 29005KT,
LCEN,2023-08-03 05:20,80.60,71.60,74.11,0.00,0.00,0.00,29.80,,6.21,,FEW,,,,2000.00,,,,,,,,,,,84.57,LCEN 030520Z 00000KT 9999 FEW020 27/22 Q1009 NOSIG RMK RWY11R 27003KT RWY29R 26003KT RWY11L 00000KT,
LCEN,2023-08-03 05:50,82.40,71.60,69.90,260.00,3.00,0.00,29.80,,6.21,,FEW,,,,2000.00,,,,,,,,,,,87.18,LCEN 030550Z 26003KT 9999 FEW020 28/22 Q1009 NOSIG RMK RWY11R 22004KT RWY29R 16003KT RWY11L 00000KT,
LCEN,2023-08-03 06:20,84.20,69.80,62.03,0.00,0.00,0.00,29.80,,6.21,,FEW,,,,2000.00,,,,,,,,,,,88.43,LCEN 030620Z 00000KT 9999 FEW020 29/21 Q1009 NOSIG RMK RWY11R 25004KT RWY29R 25003KT RWY11L 00000KT,
LCEN,2023-08-03 06:50,86.00,69.80,58.55,0.00,0.00,0.00,29.80,,6.21,,FEW,,,,2000.00,,,,,,,,,,,90.58,LCEN 030650Z 00000KT 9999 FEW020 30/21 Q1009 NOSIG RMK RWY11R 27003KT RWY29R 23003KT RWY11L 00000KT,
LCEN,2023-08-03 07:20,87.80,66.20,48.84,0.00,0.00,0.00,29.80,,6.21,,FEW,,,,2000.00,,,,,,,,,,,90.31,LCEN 030720Z 00000KT 9999 FEW020 31/19 Q1009 NOSIG RMK RWY11R 00000KT RWY29R 00000KT RWY11L 00000KT,
LCEN,2023-08-03 07:50,91.40,64.40,40.96,120.00,4.00,0.00,29.80,,6.21,,FEW,,,,2000.00,,,,,,,,,,,93.19,LCEN 030750Z 12004KT 9999 FEW020 33/18 Q1009 NOSIG RMK RWY11R 00000KT RWY29R 00000KT RWY11L 00000KT,
LCEN,2023-08-03 08:20,93.20,59.00,31.99,260.00,3.00,0.00,29.80,,6.21,,FEW,,,,2000.00,,,,,,,,,,,92.57,LCEN 030820Z 26003KT 9999 FEW020 34/15 Q1009 NOSIG RMK RWY11R 25004KT RWY29R 26005KT 190V350 RWY11L 29005KT 230V030,
LCEN,2023-08-03 08:50,95.00,59.00,30.26,300.00,5.00,0.00,29.80,,6.21,,FEW,,,,2000.00,,,,,,,,,,,94.51,LCEN 030850Z 30005KT 9999 FEW020 35/15 Q1009 NOSIG RMK RWY11R 26004KT RWY29R 21005KT 130V270 RWY11L 23004KT,
LCEN,2023-08-03 09:20,96.80,55.40,25.15,320.00,6.00,0.00,29.80,,6.21,,FEW,,,,2000.00,,,,,,,,,,,95.14,LCEN 030920Z 32006KT 9999 FEW020 36/13 Q1009 NOSIG RMK RWY11R 29005KT RWY29R 28004KT RWY11L 29005KT,
LCEN,2023-08-03 09:50,98.60,55.40,23.81,290.00,8.00,0.00,29.77,,6.21,,FEW,,,,2000.00,,,,,,,,,,,97.09,LCEN 030950Z 29008KT 9999 FEW020 37/13 Q1008 NOSIG RMK RWY11R 25006KT RWY29R 22005KT RWY11L 24004KT,
LCEN,2023-08-03 10:20,98.60,57.20,25.41,290.00,6.00,0.00,29.77,,6.21,,FEW,,,,2000.00,,,,,,,,,,,97.76,LCEN 031020Z 29006KT 9999 FEW020 37/14 Q1008 NOSIG RMK RWY11R 25004KT RWY29R 34005KT RWY11L 30010KT,
LCEN,2023-08-03 10:50,100.40,53.60,21.11,270.00,8.00,0.00,29.77,,6.21,,FEW,,,,2000.00,,,,,,,,,,,98.44,LCEN 031050Z 27008KT 9999 FEW020 38/12 Q1008 NOSIG RMK RWY11R 31008KT RWY29R 30009KT RWY11L 32009KT,
LCEN,2023-08-03 11:20,102.20,50.00,17.51,300.00,13.00,0.00,29.77,,6.21,,FEW,,,,2000.00,,,,,,,,,,,99.28,LCEN 031120Z 30013KT 9999 FEW020 39/10 Q1008 NOSIG RMK RWY11R 30012KT RWY29R 30011KT RWY11L 30012KT,
LCEN,2023-08-03 11:50,100.40,50.00,18.48,310.00,13.00,0.00,29.77,,6.21,,FEW,,,,2000.00,,,,,,,,,,,97.42,LCEN 031150Z 31013KT 9999 FEW020 38/10 Q1008 NOSIG RMK RWY11R 31013KT RWY29R 31012KT 280V020 RWY11L 31013KT 280V350,
LCEN,2023-08-03 12:20,102.20,51.80,18.72,280.00,13.00,0.00,29.74,,6.21,,FEW,,,,2000.00,,,,,,,,,,,99.80,LCEN 031220Z 28013KT 9999 FEW020 39/11 Q1007 NOSIG RMK RWY11R 30013KT RWY29R 30011KT 270V330 RWY11L 31013KT,
LCEN,2023-08-03 12:50,100.40,48.20,17.28,280.00,14.00,0.00,29.74,,6.21,,FEW,,,,2000.00,,,,,,,,,,,97.00,LCEN 031250Z 28014KT 9999 FEW020 38/09 Q1007 NOSIG RMK RWY11R 31012KT RWY29R 29012KT 260V320 RWY11L 31013KT 280V350,
LCEN,2023-08-03 13:20,100.40,46.40,16.15,280.00,14.00,0.00,29.74,,6.21,,FEW,,,,2000.00,,,,,,,,,,,96.63,LCEN 031320Z 28014KT 9999 FEW020 38/08 Q1007 NOSIG RMK RWY11R 29013KT RWY29R 29012KT RWY11L 30013KT 260V340,
LCEN,2023-08-03 13:50,100.40,46.40,16.15,280.00,15.00,0.00,29.74,,6.21,,FEW,,,,2000.00,,,,,,,,,,,96.63,LCEN 031350Z 28015KT 9999 FEW020 38/08 Q1007 NOSIG RMK RWY11R 30013KT RWY29R 30012KT RWY11L 31012KT,
LCEN,2023-08-03 14:20,98.60,46.40,17.05,280.00,15.00,0.00,29.74,,6.21,,FEW,,,,2000.00,,,,,,,,,,,94.84,LCEN 031420Z 28015KT 9999 FEW020 37/08 Q1007 NOSIG RMK RWY11R 29015KT RWY29R 29014KT RWY11L 29014KT,
LCEN,2023-08-03 14:50,96.80,50.00,20.62,290.00,17.00,0.00,29.74,,6.21,,FEW,,,,2000.00,,,,,,,,,,,93.71,LCEN 031450Z 29017KT 9999 FEW020 36/10 Q1007 NOSIG RMK RWY11R 30017KT RWY29R 29015KT RWY11L 30015KT,
LCEN,2023-08-03 15:20,95.00,55.40,26.58,280.00,18.00,0.00,29.74,,6.21,,FEW,,,,2000.00,,,,,,,,,,,93.22,LCEN 031520Z 28018KT 9999 FEW020 35/13 Q1007 NOSIG RMK RWY11R 30017KT RWY29R 29016KT RWY11L 30015KT,
LCEN,2023-08-03 15:50,93.20,55.40,28.10,280.00,19.00,0.00,29.74,,6.21,,FEW,,,,2000.00,,,,,,,,,,,91.35,LCEN 031550Z 28019KT 9999 FEW020 34/13 Q1007 NOSIG RMK RWY11R 28017KT RWY29R 28017KT RWY11L 29016KT,
LCEN,2023-08-03 16:20,89.60,60.80,38.18,280.00,19.00,0.00,29.74,,6.21,,,,,,,,,,,,,,,,,89.54,LCEN 031620Z 28019KT CAVOK 32/16 Q1007 NOSIG RMK RWY11R 29018KT RWY29R 29016KT RWY11L 29016KT,
LCEN,2023-08-03 16:50,87.80,64.40,45.88,290.00,16.00,0.00,29.77,,6.21,,,,,,,,,,,,,,,,,89.33,LCEN 031650Z 29016KT CAVOK 31/18 Q1008 NOSIG RMK RWY11R 30013KT RWY29R 30014KT RWY11L 30013KT,
LCEN,2023-08-03 17:20,86.00,64.40,48.58,290.00,16.00,0.00,29.77,,6.21,,,,,,,,,,,,,,,,,87.49,LCEN 031720Z 29016KT CAVOK 30/18 Q1008 NOSIG RMK RWY11R 30014KT RWY29R 30013KT RWY11L 30012KT,
LCEN,2023-08-03 17:50,84.20,68.00,58.32,290.00,15.00,0.00,29.77,,6.21,,,,,,,,,,,,,,,,,87.40,LCEN 031750Z 29015KT CAVOK 29/20 Q1008 NOSIG RMK RWY11R 30013KT RWY29R 30012KT RWY11L 30012KT,
LCEN,2023-08-03 18:20,82.40,68.00,61.81,290.00,13.00,0.00,29.77,,6.21,,,,,,,,,,,,,,,,,85.38,LCEN 031820Z 29013KT CAVOK 28/20 Q1008 NOSIG RMK RWY11R 30012KT RWY29R 30012KT RWY11L 30010KT,
LCEN,2023-08-03 18:50,82.40,66.20,58.08,290.00,15.00,0.00,29.77,,6.21,,,,,,,,,,,,,,,,,84.63,LCEN 031850Z 29015KT CAVOK 28/19 Q1008 NOSIG RMK RWY11R 29012KT RWY29R 29013KT RWY11L 30011KT,
LCEN,2023-08-03 19:20,82.40,66.20,58.08,280.00,15.00,0.00,29.77,,6.21,,,,,,,,,,,,,,,,,84.63,LCEN 031920Z 28015KT CAVOK 28/19 Q1008 NOSIG RMK RWY11R 29012KT RWY29R 29012KT RWY11L 29010KT,
LCEN,2023-08-03 19:50,82.40,66.20,58.08,270.00,13.00,0.00,29.77,,6.21,,,,,,,,,,,,,,,,,84.63,LCEN 031950Z 27013KT CAVOK 28/19 Q1008 NOSIG RMK RWY11R 29010KT RWY29R 29011KT RWY11L 28008KT,
LCEN,2023-08-03 20:20,80.60,68.00,65.54,280.00,14.00,0.00,29.77,,6.21,,,,,,,,,,,,,,,,,83.29,LCEN 032020Z 28014KT CAVOK 27/20 Q1008 NOSIG RMK RWY11R 29011KT RWY29R 29011KT RWY11L 29008KT,
LCEN,2023-08-03 20:50,80.60,69.80,69.71,270.00,13.00,0.00,29.77,,6.21,,,,,,,,,,,,,,,,,83.90,LCEN 032050Z 27013KT CAVOK 27/21 Q1008 NOSIG RMK RWY11R 29010KT RWY29R 29011KT RWY11L 29008KT,
LCEN,2023-08-03 21:20,80.60,68.00,65.54,270.00,11.00,0.00,29.77,,6.21,,,,,,,,,,,,,,,,,83.29,LCEN 032120Z 27011KT CAVOK 27/20 Q1008 NOSIG RMK RWY11R 29010KT RWY29R 29011KT RWY11L 30007KT,
LCEN,2023-08-03 21:50,78.80,68.00,69.52,280.00,8.00,0.00,29.77,,6.21,,,,,,,,,,,,,,,,,78.80,LCEN 032150Z 28008KT CAVOK 26/20 Q1008 NOSIG RMK RWY11R 29009KT RWY29R 29009KT RWY11L 29007KT,
LCEN,2023-08-03 22:20,78.80,68.00,69.52,290.00,7.00,0.00,29.77,,6.21,,,,,,,,,,,,,,,,,78.80,LCEN 032220Z 29007KT CAVOK 26/20 Q1008 NOSIG RMK RWY11R 28007KT RWY29R 29008KT RWY11L 28005KT,
LCEN,2023-08-03 22:50,77.00,66.20,69.33,300.00,7.00,0.00,29.77,,6.21,,,,,,,,,,,,,,,,,77.00,LCEN 032250Z 30007KT CAVOK 25/19 Q1008 NOSIG RMK RWY11R 30005KT RWY29R 30007KT RWY11L 30004KT,
LCEN,2023-08-03 23:20,77.00,66.20,69.33,290.00,6.00,0.00,29.77,,6.21,,,,,,,,,,,,,,,,,77.00,LCEN 032320Z 29006KT CAVOK 25/19 Q1008 NOSIG RMK RWY11R 31005KT RWY29R 30006KT RWY11L 31006KT,
LCEN,2023-08-03 23:50,77.00,64.40,65.12,300.00,5.00,0.00,29.77,,6.21,,,,,,,,,,,,,,,,,77.00,LCEN 032350Z 30005KT CAVOK 25/18 Q1008 NOSIG RMK RWY11R 30005KT RWY29R 30007KT RWY11L 30005KT,
LCEN,2023-08-04 00:20,77.00,64.40,65.12,220.00,4.00,0.00,29.77,,6.21,,,,,,,,,,,,,,,,,77.00,LCEN 040020Z 22004KT CAVOK 25/18 Q1008 NOSIG RMK RWY11R 26005KT RWY29R 28006KT RWY11L 27004KT,
LCEN,2023-08-04 00:50,78.80,64.40,61.36,210.00,3.00,0.00,29.77,,6.21,,,,,,,,,,,,,,,,,78.80,LCEN 040050Z 21003KT CAVOK 26/18 Q1008 NOSIG RMK RWY11R 24006KT RWY29R 25005KT RWY11L 26005KT,
LCEN,2023-08-04 01:20,77.00,62.60,61.13,240.00,5.00,0.00,29.77,,6.21,,,,,,,,,,,,,,,,,77.00,LCEN 040120Z 24005KT CAVOK 25/17 Q1008 NOSIG RMK RWY11R 27005KT RWY29R 27005KT RWY11L 27004KT,
LCEN,2023-08-04 01:50,77.00,62.60,61.13,250.00,6.00,0.00,29.74,,6.21,,,,,,,,,,,,,,,,,77.00,LCEN 040150Z 25006KT CAVOK 25/17 Q1007 NOSIG RMK RWY11R 26007KT RWY29R 26007KT RWY11L 27006KT,
LCEN,2023-08-04 02:20,77.00,62.60,61.13,240.00,6.00,0.00,29.74,,6.21,,,,,,,,,,,,,,,,,77.00,LCEN 040220Z 24006KT CAVOK 25/17 Q1007 NOSIG RMK RWY11R 28006KT RWY29R 27006KT RWY11L 27006KT,
LCEN,2023-08-04 02:50,75.20,62.60,64.91,310.00,4.00,0.00,29.77,,6.21,,,,,,,,,,,,,,,,,75.20,COR LCEN 040250Z 31004KT CAVOK 24/17 Q1008 NOSIG RMK RWY11R 27007KT RWY29R 28006KT RWY11L 28006KT,
LCEN,2023-08-04 03:20,73.40,62.60,68.94,350.00,3.00,0.00,29.77,,6.21,,FEW,,,,2000.00,,,,,,,,,,,73.40,LCEN 040320Z 35003KT 9999 FEW020 23/17 Q1008 NOSIG RMK RWY11R 33007KT RWY29R 34004KT RWY11L 31005KT,
LCEN,2023-08-04 03:50,75.20,66.20,73.61,300.00,3.00,0.00,29.77,,6.21,,FEW,,,,2000.00,,,,,,,,,,,75.20,COR LCEN 040350Z 30003KT 9999 FEW020 24/19 Q1008 NOSIG RMK RWY11R 32004KT RWY29R 31003KT RWY11L 31004KT,
LCEN,2023-08-04 04:20,80.60,66.20,61.58,330.00,3.00,0.00,29.77,,6.21,,FEW,,,,2000.00,,,,,,,,,,,82.75,LCEN 040420Z 33003KT 9999 FEW020 27/19 Q1008 NOSIG RMK RWY11R 31004KT RWY29R 32004KT RWY11L 00000KT,
LCEN,2023-08-04 04:50,82.40,64.40,54.55,280.00,5.00,0.00,29.77,,6.21,,FEW,,,,2000.00,,,,,,,,,,,83.98,LCEN 040450Z 28005KT 9999 FEW020 28/18 Q1008 NOSIG RMK RWY11R 29005KT RWY29R 29004KT RWY11L 29004KT,
LCEN,2023-08-04 05:20,84.20,64.40,51.47,0.00,0.00,0.00,29.77,,6.21,,FEW,,,,2000.00,,,,,,,,,,,85.71,LCEN 040520Z 00000KT 9999 FEW020 29/18 Q1008 NOSIG RMK RWY11R 00000KT RWY29R 00000KT RWY11L 00000KT,
LCEN,2023-08-04 05:50,86.00,64.40,48.58,280.00,3.00,0.00,29.77,,6.21,,,,,,,,,,,,,,,,,87.49,LCEN 040550Z 28003KT CAVOK 30/18 Q1008 NOSIG RMK RWY11R 00000KT RWY29R 21003KT RWY11L 00000KT,
LCEN,2023-08-04 06:20,87.80,64.40,45.88,0.00,0.00,0.00,29.77,,6.21,,,,,,,,,,,,,,,,,89.33,LCEN 040620Z 00000KT CAVOK 31/18 Q1008 NOSIG RMK RWY11R 00000KT RWY29R 21003KT RWY11L 00000KT,
LCEN,2023-08-04 06:50,91.40,62.60,38.45,270.00,3.00,0.00,29.77,,6.21,,,,,,,,,,,,,,,,,92.23,LCEN 040650Z 27003KT CAVOK 33/17 Q1008 NOSIG RMK RWY11R 31003KT RWY29R 01003KT RWY11L 36003KT,
LCEN,2023-08-04 07:20,93.20,60.80,34.11,280.00,6.00,0.00,29.77,,6.21,,,,,,,,,,,,,,,,,93.32,LCEN 040720Z 28006KT CAVOK 34/16 Q1008 NOSIG RMK RWY11R 27006KT RWY29R 28006KT RWY11L 29004KT,
LCEN,2023-08-04 07:50,95.00,62.60,34.39,280.00,4.00,0.00,29.74,,6.21,,,,,,,,,,,,,,,,,96.22,LCEN 040750Z 28004KT CAVOK 35/17 Q1007 NOSIG RMK RWY11R 22003KT RWY29R 00000KT RWY11L 32004KT,
LCEN,2023-08-04 08:20,96.80,62.60,32.54,250.00,4.00,0.00,29.74,,6.21,,,,,,,,,,,,,,,,,98.28,LCEN 040820Z 25004KT CAVOK 36/17 Q1007 NOSIG RMK RWY11R 23005KT RWY29R 24004KT RWY11L 28006KT,
LCEN,2023-08-04 08:50,96.80,62.60,32.54,300.00,4.00,0.00,29.74,,6.21,,,,,,,,,,,,,,,,,98.28,LCEN 040850Z 30004KT CAVOK 36/17 Q1007 NOSIG RMK RWY11R 27006KT RWY29R 23004KT RWY11L 28005KT,
LCEN,2023-08-04 09:20,100.40,60.80,27.37,290.00,6.00,0.00,29.74,,6.21,,,,,,,,,,,,,,,,,101.47,LCEN 040920Z 29006KT CAVOK 38/16 Q1007 NOSIG RMK RWY11R 25005KT RWY29R 24005KT RWY11L 32006KT,
LCEN,2023-08-04 09:50,100.40,60.80,27.37,260.00,8.00,0.00,29.74,,6.21,,,,,,,,,,,,,,,,,101.47,LCEN 040950Z 26008KT CAVOK 38/16 Q1007 NOSIG RMK RWY11R 25005KT RWY29R 22005KT RWY11L 30006KT,
LCEN,2023-08-04 10:20,100.40,62.60,29.17,20.00,6.00,0.00,29.71,,6.21,,,,,,,,,,,,,,,,,102.50,LCEN 041020Z 02006KT CAVOK 38/17 Q1006 NOSIG RMK RWY11R 27009KT RWY29R 23005KT RWY11L 31009KT,
LCEN,2023-08-04 10:50,102.20,62.60,27.63,260.00,11.00,0.00,29.71,,6.21,,,,,,,,,,,,,,,,,104.63,LCEN 041050Z 26011KT CAVOK 39/17 Q1006 NOSIG RMK RWY11R 28011KT RWY29R 27008KT RWY11L 29010KT,
LCEN,2023-08-04 11:20,102.20,62.60,27.63,250.00,10.00,0.00,29.71,,6.21,,FEW,,,,3000.00,,,,,,,,,,,104.63,LCEN 041120Z 25010KT 9999 FEW030 39/17 Q1006 NOSIG RMK RWY11R 29010KT RWY29R 28008KT RWY11L 30010KT,
LCEN,2023-08-04 11:50,104.00,57.20,21.60,290.00,10.00,0.00,29.68,,6.21,,FEW,,,,3000.00,,,,,,,,,,,103.79,LCEN 041150Z 29010KT 9999 FEW030 40/14 Q1005 NOSIG RMK RWY11R 29011KT RWY29R 28009KT RWY11L 29011KT,
LCEN,2023-08-04 12:20,104.00,59.00,23.04,270.00,13.00,0.00,29.68,,6.21,,FEW,,,,3000.00,,,,,,,,,,,104.68,COR LCEN 041220Z 27013KT 9999 FEW030 40/15 Q1005 NOSIG RMK RWY11R 29016KT RWY29R 29013KT RWY11L 29014KT,
LCEN,2023-08-04 12:50,104.00,60.80,24.57,270.00,16.00,0.00,29.68,,6.21,,FEW,,,,3000.00,,,,,,,,,,,105.66,COR LCEN 041250Z 27016KT 9999 FEW030 40/16 Q1005 NOSIG RMK RWY11R 29017KT RWY29R 29014KT RWY11L 30016KT,
LCEN,2023-08-04 13:20,102.20,60.80,25.93,280.00,18.00,0.00,29.68,,6.21,,,,,,,,,,,,,,,,,103.57,LCEN 041320Z 28018KT CAVOK 39/16 Q1005 NOSIG RMK RWY11R 29017KT RWY29R 29015KT RWY11L 30016KT,
LCEN,2023-08-04 13:50,100.40,60.80,27.37,280.00,18.00,0.00,29.68,,6.21,,,,,,,,,,,,,,,,,101.47,LCEN 041350Z 28018KT CAVOK 38/16 Q1005 NOSIG RMK RWY11R 29016KT RWY29R 29015KT RWY11L 29015KT,
LCEN,2023-08-04 14:20,100.40,60.80,27.37,280.00,16.00,0.00,29.68,,6.21,,,,,,,,,,,,,,,,,101.47,LCEN 041420Z 28016KT CAVOK 38/16 Q1005 NOSIG RMK RWY11R 29015KT RWY29R 30014KT RWY11 30014KT,
LCEN,2023-08-04 14:50,98.60,53.60,22.29,280.00,18.00,0.00,29.68,,6.21,,,,,,,,,,,,,,,,,96.51,LCEN 041450Z 28018KT CAVOK 37/12 Q1005 NOSIG RMK RWY11R 29018KT RWY29R 29016KT RWY11 30016KT,
LCEN,2023-08-04 15:20,95.00,60.80,32.27,280.00,19.00,0.00,29.68,,6.21,,,,,,,,,,,,,,,,,95.30,LCEN 041520Z 28019KT CAVOK 35/16 Q1005 NOSIG RMK RWY11R 28019KT RWY29R 28018KT RWY11 29016KT,
LCEN,2023-08-04 15:50,93.20,62.60,36.35,280.00,22.00,0.00,29.68,,6.21,,,,,,,,,,,,,,,,,94.20,LCEN 041550Z 28022KT CAVOK 34/17 Q1005 NOSIG RMK RWY11R 29021KT RWY29R 29019KT RWY11 29019KT,
LCEN,2023-08-04 16:20,89.60,68.00,49.10,280.00,24.00,0.00,29.71,,6.21,,,,,,,,,,,,,,,,,93.47,LCEN 041620Z 28024KT CAVOK 32/20 Q1006 NOSIG RMK RWY11R 29019KT RWY29R 29019KT RWY11 30015KT,
LCEN,2023-08-04 16:50,87.80,69.80,55.29,280.00,21.00,0.00,29.71,,6.21,,,,,,,,,,,,,,,,,92.71,LCEN 041650Z 28021KT CAVOK 31/21 Q1006 NOSIG RMK RWY11R 29018KT RWY29R 29018KT RWY11 30016KT,
LCEN,2023-08-04 17:20,86.00,73.40,66.15,280.00,18.00,0.00,29.71,,6.21,,,,,,,,,,,,,,,,,93.45,LCEN 041720Z 28018KT CAVOK 30/23 Q1006 NOSIG RMK RWY11R 29018KT RWY29R 28017KT RWY11 29016KT,
LCEN,2023-08-04 17:50,84.20,73.40,70.08,280.00,19.00,0.00,29.71,,6.21,,,,,,,,,,,,,,,,,90.94,LCEN 041750Z 28019KT CAVOK 29/23 Q1006 NOSIG RMK RWY11R 29016KT RWY29R 29015KT RWY11 29014KT,
LCEN,2023-08-04 18:20,84.20,73.40,70.08,290.00,13.00,0.00,29.71,,6.21,,,,,,,,,,,,,,,,,90.94,COR LCEN 041820Z 29013KT CAVOK 29/23 Q1006 NOSIG RMK RWY11R 30014KT RWY29R 30014KT RWY11L 30013KT,
LCEN,2023-08-04 18:50,82.40,71.60,69.90,290.00,15.00,0.00,29.71,,6.21,,,,,,,,,,,,,,,,,87.18,LCEN 041850Z 29015KT CAVOK 28/22 Q1006 NOSIG RMK RWY11R 30013KT RWY29R 30012KT RWY11L 30012KT,
LCEN,2023-08-04 19:20,82.40,69.80,65.74,300.00,11.00,0.00,29.71,,6.21,,,,,,,,,,,,,,,,,86.22,LCEN 041920Z 30011KT CAVOK 28/21 Q1006 NOSIG RMK RWY11R 31010KT RWY29R 30012KT RWY11L 31011KT,
LCEN,2023-08-04 19:50,82.40,69.80,65.74,310.00,13.00,0.00,29.71,,6.21,,,,,,,,,,,,,,,,,86.22,LCEN 041950Z 31013KT CAVOK 28/21 Q1006 NOSIG RMK RWY11R 32009KT RWY29R 31011KT RWY11L 32009KT,
LCEN,2023-08-04 20:20,82.40,69.80,65.74,310.00,14.00,0.00,29.71,,6.21,,,,,,,,,,,,,,,,,86.22,LCEN 042020Z 31014KT CAVOK 28/21 Q1006 NOSIG RMK RWY11R 32010KT RWY29R 31011KT RWY11L 32010KT,
LCEN,2023-08-04 20:50,82.40,68.00,61.81,300.00,10.00,0.00,29.71,,6.21,,,,,,,,,,,,,,,,,85.38,LCEN 042050Z 30010KT CAVOK 28/20 Q1006 NOSIG RMK RWY11R 30009KT RWY29R 30010KT RWY11L 30008KT,
LCEN,2023-08-04 21:20,82.40,66.20,58.08,280.00,11.00,0.00,29.71,,6.21,,,,,,,,,,,,,,,,,84.63,LCEN 042120Z 28011KT CAVOK 28/19 Q1006 NOSIG RMK RWY11R 28009KT RWY29R 28009KT RWY11L 29007KT,
LCEN,2023-08-04 21:50,82.40,64.40,54.55,280.00,11.00,0.00,29.71,,6.21,,,,,,,,,,,,,,,,,83.98,LCEN 042150Z 28011KT CAVOK 28/18 Q1006 NOSIG RMK RWY11R 28009KT RWY29R 28009KT RWY11L 29008KT,
LCEN,2023-08-04 22:20,80.60,62.60,54.30,10.00,4.00,0.00,29.71,,6.21,,,,,,,,,,,,,,,,,81.84,LCEN 042220Z 01004KT CAVOK 27/17 Q1006 NOSIG RMK RWY11R 30008KT RWY29R 30007KT RWY11L 30008KT,
LCEN,2023-08-04 22:50,78.80,66.20,65.33,330.00,3.00,0.00,29.71,,6.21,,,,,,,,,,,,,,,,,78.80,LCEN 042250Z 33003KT CAVOK 26/19 Q1006 NOSIG RMK RWY11R 02004KT RWY29R 35005KT RWY11L 04003KT,
LCEN,2023-08-04 23:20,80.60,66.20,61.58,330.00,4.00,0.00,29.71,,6.21,,,,,,,,,,,,,,,,,82.75,LCEN 042320Z 33004KT CAVOK 27/19 Q1006 NOSIG RMK RWY11R 33005KT RWY29R 32006KT RWY11L 34005KT,
LCEN,2023-08-04 23:50,78.80,64.40,61.36,240.00,4.00,0.00,29.71,,6.21,,,,,,,,,,,,,,,,,78.80,LCEN 042350Z 24004KT CAVOK 26/18 Q1006 NOSIG RMK RWY11R 31003KT RWY29R 31004KT RWY11L 00000KT,
LCEN,2023-08-05 00:20,77.00,64.40,65.12,250.00,4.00,0.00,29.71,,6.21,,,,,,,,,,,,,,,,,77.00,LCEN 050020Z 25004KT CAVOK 25/18 Q1006 NOSIG RMK RWY11R 29004KT RWY29R 31005KT RWY11L 32003KT,
LCEN,2023-08-05 00:50,77.00,66.20,69.33,240.00,4.00,0.00,29.68,,6.21,,,,,,,,,,,,,,,,,77.00,LCEN 050050Z 24004KT CAVOK 25/19 Q1005 NOSIG RMK RWY11R 00000KT RWY29R 00000KT RWY11L 00000KT,
LCEN,2023-08-05 01:20,78.80,66.20,65.33,240.00,5.00,0.00,29.71,,6.21,,,,,,,,,,,,,,,,,78.80,COR LCEN 050120Z 24005KT CAVOK 26/19 Q1006 NOSIG RMK RWY11R 25003KT RWY29R 00000KT RWY11L 00000KT,
LCEN,2023-08-05 01:50,78.80,66.20,65.33,240.00,6.00,0.00,29.68,,6.21,,,,,,,,,,,,,,,,,78.80,LCEN 050150Z 24006KT CAVOK 26/19 Q1005 NOSIG RMK RWY11R 24004KT RWY29R 26003KT RWY11L 27004KT,
LCEN,2023-08-05 02:20,75.20,64.40,69.14,240.00,6.00,0.00,29.68,,6.21,,,,,,,,,,,,,,,,,75.20,LCEN 050220Z 24006KT CAVOK 24/18 Q1005 NOSIG RMK RWY11R 21005KT RWY29R 23005KT RWY11L 25005KT,
LCEN,2023-08-05 02:50,75.20,62.60,64.91,250.00,6.00,0.00,29.68,,6.21,,,,,,,,,,,,,,,,,75.20,LCEN 050250Z 25006KT CAVOK 24/17 Q1005 NOSIG RMK RWY11R 22005KT RWY29R 23006KT RWY11L 24007KT,
LCEN,2023-08-05 03:20,77.00,62.60,61.13,250.00,5.00,0.00,29.68,,6.21,,,,,,,,,,,,,,,,,77.00,LCEN 050320Z 25005KT CAVOK 25/17 Q1005 NOSIG RMK RWY11R 22005KT RWY29R 24006KT RWY11L 25005KT,
LCEN,2023-08-05 03:50,77.00,62.60,61.13,240.00,4.00,0.00,29.71,,6.21,,,,,,,,,,,,,,,,,77.00,LCEN 050350Z 24004KT 220V280 CAVOK 25/17 Q1006 NOSIG RMK RWY11R 26006KT RWY29R 24003KT RWY11L 27005KT,
LCEN,2023-08-05 04:20,80.60,62.60,54.30,250.00,3.00,0.00,29.71,,6.21,,,,,,,,,,,,,,,,,81.84,LCEN 050420Z 25003KT CAVOK 27/17 Q1006 NOSIG RMK RWY11R 28004KT RWY29R 28004KT RWY11L 00000KT,
LCEN,2023-08-05 04:50,82.40,66.20,58.08,240.00,3.00,0.00,29.71,,6.21,,,,,,,,,,,,,,,,,84.63,LCEN 050450Z 24003KT CAVOK 28/19 Q1006 NOSIG RMK RWY11R 28004KT RWY29R 27004KT RWY11L 31006KT,
LCEN,2023-08-05 05:20,86.00,71.60,62.25,270.00,10.00,0.00,29.71,,6.21,,,,,,,,,,,,,,,,,91.92,LCEN 050520Z 27010KT CAVOK 30/22 Q1006 NOSIG RMK RWY11R 28010KT RWY29R 28008KT RWY11L 30009KT,
LCEN,2023-08-05 05:50,87.80,71.60,58.78,290.00,9.00,0.00,29.71,,6.21,,,,,,,,,,,,,,,,,94.18,LCEN 050550Z 29009KT 260V320 CAVOK 31/22 Q1006 NOSIG RMK RWY11R 29008KT RWY29 28008KT RWY11L 29008KT,
LCEN,2023-08-05 06:20,89.60,71.60,55.53,270.00,8.00,0.00,29.71,,6.21,,,,,,,,,,,,,,,,,96.41,LCEN 050620Z 27008KT CAVOK 32/22 Q1006 NOSIG RMK RWY11R 30007KT RWY29R 30007KT RWY11L 30007KT,
LCEN,2023-08-05 06:50,89.60,69.80,52.23,300.00,7.00,0.00,29.71,,6.21,,,,,,,,,,,,,,,,,94.85,LCEN 050650Z 30007KT 260V010 CAVOK 32/21 Q1006 NOSIG RMK RWY11R 30007KT 280V010 RWY29R 30007KT RWY11L 32006KT,
LCEN,2023-08-05 07:20,93.20,69.80,46.67,270.00,6.00,0.00,29.71,,6.21,,,,,,,,,,,,,,,,,99.17,LCEN 050720Z 27006KT 220V340 CAVOK 34/21 Q1006 NOSIG RMK RWY11R 28008KT 250V330 RWY29 27007KT RWY11L 28007KT,
LCEN,2023-08-05 07:50,96.80,66.20,36.90,270.00,8.00,0.00,29.71,,6.21,,,,,,,,,,,,,,,,,100.60,LCEN 050750Z 27008KT 240V300 CAVOK 36/19 Q1006 NOSIG RMK RWY11R 27008KT 220V300 RWY29R 26008KT RWY11L 26007KT,
LCEN,2023-08-05 08:20,96.80,64.40,34.66,280.00,7.00,0.00,29.71,,6.21,,FEW,,,,2500.00,,,,,,,,,,,99.37,LCEN 050820Z 28007KT 230V320 9999 FEW025 36/18 Q1006 NOSIG RMK RWY11R 28006KT RWY29R 28007KT RWY11L 25004KT,
LCEN,2023-08-05 08:50,98.60,64.40,32.81,270.00,5.00,0.00,29.71,,6.21,,FEW,,,,2500.00,,,,,,,,,,,101.50,LCEN 050850Z 27005KT 9999 FEW025 37/18 Q1006 NOSIG RMK RWY11R 29007KT RWY29R 29007KT RWY11L 29005KT,
LCEN,2023-08-05 09:20,102.20,55.40,21.36,280.00,8.00,0.00,29.68,,6.21,,FEW,,,,2500.00,,,,,,,,,,,101.04,LCEN 050920Z 28008KT 9999 FEW025 39/13 Q1005 NOSIG RMK RWY11R 29009KT RWY29R 29008KT RWY11L 29008KT 260V320,
LCEN,2023-08-05 09:50,104.00,46.40,14.50,270.00,10.00,0.00,29.68,,6.21,,FEW,,,,2500.00,,,,,,,,,,,100.21,LCEN 050950Z 27010KT 9999 FEW025 40/08 Q1005 NOSIG RMK RWY11R 31009KT RWY29R 29009KT RWY11L 31009KT 280V350,
LCEN,2023-08-05 10:20,104.00,50.00,16.59,300.00,11.00,0.00,29.68,,6.21,,FEW,,,,2500.00,,,,,,,,,,,101.14,LCEN 051020Z 30011KT 9999 FEW025 40/10 Q1005 NOSIG RMK RWY11R 30013KT RWY29R 30013KT RWY11L 30012KT 260V340,
LCEN,2023-08-05 10:50,102.20,60.80,25.93,280.00,14.00,0.00,29.68,,6.21,,FEW,,,,2500.00,,,,,,,,,,,103.57,LCEN 051050Z 28014KT 9999 FEW025 39/16 Q1005 NOSIG RMK RWY11R 28016KT RWY29R 28013KT RWY11L 28014KT 250V310,
LCEN,2023-08-05 11:20,102.20,64.40,29.43,260.00,15.00,0.00,29.68,,6.21,,FEW,,,,2500.00,,,,,,,,,,,105.84,LCEN 051120Z 26015KT 9999 FEW025 39/18 Q1005 NOSIG RMK RWY11R 29013KT RWY29R 28012KT RWY11L 29012KT 260V330,
LCEN,2023-08-05 11:50,102.20,60.80,25.93,280.00,17.00,0.00,29.68,,6.21,,FEW,,,,2500.00,,,,,,,,,,,103.57,LCEN 051150Z 28017KT 9999 FEW025 39/16 Q1005 NOSIG RMK RWY11R 29017KT RWY29R 28015KT RWY11L 30014KT 270V330,
LCEN,2023-08-05 12:20,102.20,53.60,20.00,280.00,16.00,0.00,29.68,,6.21,,FEW,,,,2500.00,,,,,,,,,,,100.38,LCEN 051220Z 28016KT 9999 FEW025 39/12 Q1005 NOSIG RMK RWY11R 30014KT RWY29R 29013KT RWY11L 30013KT,
LCEN,2023-08-05 12:50,102.20,50.00,17.51,280.00,15.00,0.00,29.68,,6.21,,FEW,,,,2500.00,,,,,,,,,,,99.28,LCEN 051250Z 28015KT 9999 FEW025 39/10 Q1005 NOSIG RMK RWY11R 28015KT RWY29R 28013KT RWY11L 29014KT,
LCEN,2023-08-05 13:20,100.40,64.40,31.07,320.00,7.00,0.00,29.68,,6.21,,FEW,,,,2500.00,,,,,,,,,,,103.66,LCEN 051320Z 32007KT 9999 FEW025 38/18 Q1005 NOSIG RMK RWY11R 30012KT RWY29R 33009KT RWY11L 29011KT 250V010,
LCEN,2023-08-05 13:50,98.60,60.80,28.90,320.00,8.00,0.00,29.68,,6.21,,FEW,,,,2500.00,,,,,,,,,,,99.39,LCEN 051350Z 32008KT 9999 FEW025 37/16 Q1005 NOSIG RMK RWY11R 33007KT RWY29R 01008KT RWY11L 01007KT,
LCEN,2023-08-05 14:20,96.80,64.40,34.66,340.00,7.00,0.00,29.68,,6.21,,FEW,,,,2500.00,,,,,,,,,,,99.37,LCEN 051420Z 34007KT 9999 FEW025 36/18 Q1005 NOSIG RMK RWY11R 34008KT RWY29R 36007KT RWY11L 01009KT 330V040,
LCEN,2023-08-05 14:50,98.60,64.40,32.81,300.00,5.00,0.00,29.68,,6.21,,FEW,,,,2500.00,,,,,,,,,,,101.50,LCEN 051450Z 30005KT 300V060 9999 FEW025 37/18 Q1005 NOSIG RMK RWY11R 01006KT 340V040 RWY29R 34005KT RWY11L 01008KT,
LCEN,2023-08-05 15:20,96.80,64.40,34.66,290.00,5.00,0.00,29.68,,6.21,,FEW,,,,2500.00,,,,,,,,,,,99.37,LCEN 051520Z 29005KT 9999 FEW025 36/18 Q1005 NOSIG RMK RWY11R 33006KT RWY29R 35005KT RWY11L 01008KT,
LCEN,2023-08-05 15:50,93.20,64.40,38.73,270.00,13.00,0.00,29.68,,6.21,,FEW,,,,2500.00,,,,,,,,,,,95.20,LCEN 051550Z 27013KT 9999 FEW025 34/18 Q1005 NOSIG RMK RWY11R 30007KT RWY29R 28009KT RWY11L 31008KT,
LCEN,2023-08-05 16:20,89.60,66.20,46.14,280.00,16.00,0.00,29.68,,6.21,,FEW,,,,2500.00,,,,,,,,,,,92.27,LCEN 051620Z 28016KT 9999 FEW025 32/19 Q1005 NOSIG RMK RWY11R 29014KT RWY29R 28013KT RWY11L 29012KT,
LCEN,2023-08-05 16:50,87.80,68.00,51.98,290.00,19.00,0.00,29.68,,6.21,,FEW,,,,2500.00,,,,,,,,,,,91.43,LCEN 051650Z 29019KT 9999 FEW025 31/20 Q1005 NOSIG RMK RWY11R 29019KT RWY29R 28017KT RWY11L 29017KT,
LCEN,2023-08-05 17:20,86.00,66.20,51.72,270.00,17.00,0.00,29.68,,6.21,,FEW,,,,2000.00,,,,,,,,,,,88.39,LCEN 051720Z 27017KT 9999 FEW020 30/19 Q1005 NOSIG RMK RWY11R 29017KT RWY29R 28017KT RWY11L 29014KT,
LCEN,2023-08-05 17:50,86.00,66.20,51.72,280.00,16.00,0.00,29.71,,6.21,,FEW,,,,2000.00,,,,,,,,,,,88.39,LCEN 051750Z 28016KT 9999 FEW020 30/19 Q1006 NOSIG RMK RWY11R 29015KT RWY29R 29013KT RWY11L 29013KT,
LCEN,2023-08-05 18:20,84.20,68.00,58.32,290.00,13.00,0.00,29.71,,6.21,,FEW,,,,2000.00,,,,,,,,,,,87.40,LCEN 051820Z 29013KT 9999 FEW020 29/20 Q1006 NOSIG RMK RWY11R 29014KT RWY29R 29011KT RWY11L 29012KT,
LCEN,2023-08-05 18:50,84.20,66.20,54.80,290.00,12.00,0.00,29.71,,6.21,,FEW,,,,2000.00,,,,,,,,,,,86.50,LCEN 051850Z 29012KT 9999 FEW020 29/19 Q1006 NOSIG RMK RWY11R 29012KT RWY29R 29010KT RWY11L 30009KT,
LCEN,2023-08-05 19:20,84.20,64.40,51.47,300.00,12.00,0.00,29.71,,6.21,,FEW,,,,2000.00,,,,,,,,,,,85.71,LCEN 051920Z 30012KT 9999 FEW020 29/18 Q1006 NOSIG RMK RWY11R 30012KT RWY29R 30011KT RWY11L 31010KT,
LCEN,2023-08-05 19:50,82.40,64.40,54.55,280.00,11.00,0.00,29.71,,6.21,,FEW,,,,2000.00,,,,,,,,,,,83.98,LCEN 051950Z 28011KT 9999 FEW020 28/18 Q1006 NOSIG RMK RWY11R 29011KT RWY29R 29009KT RWY11L 29010KT,
LCEN,2023-08-05 20:20,82.40,66.20,58.08,290.00,14.00,0.00,29.74,,6.21,,FEW,,,,2000.00,,,,,,,,,,,84.63,LCEN 052020Z 29014KT 9999 FEW020 28/19 Q1007 NOSIG RMK RWY11R 29014KT RWY29R 29012KT RWY11L 29011KT,
LCEN,2023-08-05 20:50,82.40,68.00,61.81,290.00,15.00,0.00,29.74,,6.21,,FEW,,,,2000.00,,,,,,,,,,,85.38,LCEN 052050Z 29015KT 9999 FEW020 28/20 Q1007 NOSIG RMK RWY11R 30011KT RWY29R 30012KT RWY11L 31010KT,
LCEN,2023-08-05 21:20,80.60,68.00,65.54,300.00,11.00,0.00,29.74,,6.21,,FEW,,,,2000.00,,,,,,,,,,,83.29,LCEN 052120Z 30011KT 9999 FEW020 27/20 Q1007 NOSIG RMK RWY11R 31008KT RWY29R 30010KT RWY11L 30007KT,
LCEN,2023-08-05 21:50,80.60,68.00,65.54,300.00,8.00,0.00,29.74,,6.21,,FEW,,,,2000.00,,,,,,,,,,,83.29,LCEN 052150Z 30008KT 9999 FEW020 27/20 Q1007 NOSIG RMK RWY11R 30007KT RWY29R 31007KT RWY11L 30007KT,
LCEN,2023-08-05 22:20,78.80,66.20,65.33,320.00,4.00,0.00,29.74,,6.21,,FEW,,,,2000.00,,,,,,,,,,,78.80,LCEN 052220Z 32004KT 9999 FEW020 26/19 Q1007 NOSIG RMK RWY11R 29005KT RWY29R 00000KT RWY11L 30005KT,
LCEN,2023-08-05 22:50,77.00,66.20,69.33,310.00,5.00,0.00,29.71,,6.21,,FEW,,,,2000.00,,,,,,,,,,,77.00,LCEN 052250Z 31005KT 9999 FEW020 25/19 Q1006 NOSIG RMK RWY11R 28003KT RWY29R 30004KT RWY11L 30003KT,
LCEN,2023-08-05 23:20,78.80,66.20,65.33,240.00,7.00,0.00,29.71,,6.21,,FEW,,,,2000.00,,,,,,,,,,,78.80,LCEN 052320Z 24007KT 9999 FEW020 26/19 Q1006 NOSIG RMK RWY11R 26006KT RWY29R 26007KT RWY11L 29006KT,
LCEN,2023-08-05 23:50,77.00,64.40,65.12,260.00,7.00,0.00,29.71,,6.21,,FEW,,,,2000.00,,,,,,,,,,,77.00,LCEN 052350Z 26007KT 9999 FEW020 25/18 Q1006 NOSIG RMK RWY11R 29006KT RWY29R 28006KT RWY11L 29005KT,
LCEN,2023-08-06 00:20,77.00,66.20,69.33,260.00,5.00,0.00,29.71,,6.21,,FEW,,,,2000.00,,,,,,,,,,,77.00,LCEN 060020Z 26005KT 9999 FEW020 25/19 Q1006 NOSIG RMK RWY11R 28005KT RWY29R 28005KT RWY11L 28005KT,
LCEN,2023-08-06 00:50,75.20,64.40,69.14,250.00,5.00,0.00,29.71,,6.21,,FEW,,,,2000.00,,,,,,,,,,,75.20,LCEN 060050Z 25005KT 9999 FEW020 24/18 Q1006 NOSIG RMK RWY11R 28005KT RWY29R 27005KT RWY11L 28005KT,
LCEN,2023-08-06 01:20,75.20,64.40,69.14,250.00,5.00,0.00,29.71,,6.21,,FEW,,,,2000.00,,,,,,,,,,,75.20,LCEN 060120Z 25005KT 9999 FEW020 24/18 Q1006 NOSIG RMK RWY11R 27005KT RWY29R 27004KT RWY11L 27005KT,
LCEN,2023-08-06 01:50,77.00,64.40,65.12,240.00,5.00,0.00,29.74,,6.21,,FEW,,,,2000.00,,,,,,,,,,,77.00,LCEN 060150Z 24005KT 9999 FEW020 25/18 Q1007 NOSIG RMK RWY11R 27005KT RWY29R 27004KT RWY11L 26006KT,
LCEN,2023-08-06 02:20,77.00,64.40,65.12,250.00,6.00,0.00,29.74,,6.21,,FEW,,,,2000.00,,,,,,,,,,,77.00,LCEN 060220Z 25006KT 9999 FEW020 25/18 Q1007 NOSIG RMK RWY11R 28007KT RWY29R 27006KT RWY11L 27006KT,
LCEN,2023-08-06 02:50,77.00,64.40,65.12,240.00,6.00,0.00,29.74,,6.21,,FEW,,,,2000.00,,,,,,,,,,,77.00,LCEN 060250Z 24006KT 9999 FEW020 25/18 Q1007 NOSIG RMK RWY11R 27007KT RWY29R 26006KT RWY11L 27006KT,
LCEN,2023-08-06 03:50,77.00,62.60,61.13,250.00,4.00,0.00,29.74,,6.21,,FEW,,,,2000.00,,,,,,,,,,,77.00,LCEN 060350Z 25004KT 9999 FEW020 25/17 Q1007 NOSIG RMK RWY11R 28006KT RWY29R 27005KT RWY11L 27006KT,
LCEN,2023-08-06 04:20,78.80,62.60,57.60,270.00,6.00,0.00,29.74,,6.21,,,,,,,,,,,,,,,,,78.80,LCEN 060420Z 27006KT CAVOK 26/17 Q1007 NOSIG RMK RWY11R 29005KT RWY29R 28005KT RWY11L 29004KT,
LCEN,2023-08-06 04:50,80.60,64.40,57.84,290.00,7.00,0.00,29.77,,6.21,,FEW,,,,2000.00,,,,,,,,,,,82.27,COR LCEN 060450Z 29007KT 9999 FEW020 27/18 Q1008 NOSIG RMK RWY11R 29006KT RWY29R 29006KT RWY11L 30005KT,
LCEN,2023-08-06 05:20,82.40,69.80,65.74,0.00,0.00,0.00,29.77,,6.21,,FEW,,,,2000.00,,,,,,,,,,,86.22,LCEN 060520Z 00000KT 9999 FEW020 28/21 Q1008 NOSIG RMK RWY11R 00000KT RWY29R 00000KT RWY11L 00000KT,
LCEN,2023-08-06 05:50,84.20,68.00,58.32,230.00,3.00,0.00,29.77,,6.21,,FEW,,,,2000.00,,,,,,,,,,,87.40,LCEN 060550Z 23003KT 9999 FEW020 29/20 Q1008 NOSIG RMK RWY11R 00000KT RWY29R 00000KT RWY11L 00000KT,
LCEN,2023-08-06 06:20,86.00,66.20,51.72,0.00,0.00,0.00,29.77,,6.21,,FEW,,,,2000.00,,,,,,,,,,,88.39,LCEN 060620Z 00000KT 9999 FEW020 30/19 Q1008 NOSIG RMK RWY11R 00000KT RWY29R 00000KT RWY11L 00000KT,
LCEN,2023-08-06 06:50,87.80,66.20,48.84,150.00,4.00,0.00,29.77,,6.21,,,,,,,,,,,,,,,,,90.31,LCEN 060650Z 15004KT CAVOK 31/19 Q1008 NOSIG RMK RWY11R 00000KT RWY29R 22004KT RWY11L 19003KT,
LCEN,2023-08-06 07:20,91.40,59.00,33.84,20.00,4.00,0.00,29.77,,6.21,,,,,,,,,,,,,,,,,90.68,LCEN 060720Z 02004KT CAVOK 33/15 Q1008 NOSIG RMK RWY11R 25004KT RWY29R 22004KT RWY11L 00000KT,
LCEN,2023-08-06 07:50,93.20,57.20,29.99,300.00,5.00,0.00,29.77,,6.21,,,,,,,,,,,,,,,,,91.91,LCEN 060750Z 30005KT CAVOK 34/14 Q1008 NOSIG RMK RWY11R 27004KT RWY29R 31004KT RWY11L 00000KT,
LCEN,2023-08-06 08:20,95.00,55.40,26.58,300.00,5.00,0.00,29.77,,6.21,,,,,,,,,,,,,,,,,93.22,LCEN 060820Z 30005KT CAVOK 35/13 Q1008 NOSIG RMK RWY11R 26008KT RWY29R 27004KT RWY11L 26009KT,
LCEN,2023-08-06 08:50,96.80,53.60,23.55,260.00,7.00,0.00,29.74,,6.21,,,,,,,,,,,,,,,,,94.59,LCEN 060850Z 26007KT CAVOK 36/12 Q1007 NOSIG RMK RWY11R 26006KT RWY29R 26007KT RWY11L 25005KT,
LCEN,2023-08-06 09:20,96.80,53.60,23.55,260.00,7.00,0.00,29.74,,6.21,,,,,,,,,,,,,,,,,94.59,LCEN 060920Z 26007KT CAVOK 36/12 Q1007 NOSIG RMK RWY11R 24005KT RWY29R 23007KT RWY11L 28005KT,
LCEN,2023-08-06 09:27,96.80,53.60,23.55,210.00,6.00,0.00,29.74,,6.21,,,,,,,,,,,,,,,,,94.59,LCEN 060927Z 21006KT CAVOK 36/12 Q1007 NOSIG RMK RWY11R 28006KT RWY29R 25006KT RWY11L 28006KT,
LCEN,2023-08-06 10:20,100.40,46.40,16.15,290.00,9.00,0.00,29.74,,6.21,,FEW,,,,3000.00,,,,,,,,,,,96.63,LCEN 061020Z 29009KT 9999 FEW030 38/08 Q1007 NOSIG RMK RWY11R 30011KT RWY29R 31011KT RWY11L 32013KT,
LCEN,2023-08-06 10:50,100.40,48.20,17.28,290.00,14.00,0.00,29.74,,6.21,,FEW,,,,3000.00,,,,,,,,,,,97.00,LCEN 061050Z 29014KT 9999 FEW030 38/09 Q1007 NOSIG RMK RWY11R 31015KT RWY29R 29014KT RWY11L 31015KT,
LCEN,2023-08-06 11:20,98.60,42.80,14.87,290.00,12.00,0.00,29.74,,6.21,,FEW,,,,3000.00,,,,,,,,,,,94.30,LCEN 061120Z 29012KT 9999 FEW030 37/06 Q1007 NOSIG RMK RWY11R 30013KT RWY29R 31011KT RWY11L 31012T,
LCEN,2023-08-06 11:50,100.40,46.40,16.15,280.00,15.00,0.00,29.74,,6.21,,FEW,,,,3000.00,,,,,,,,,,,96.63,LCEN 061150Z 28015KT 9999 FEW030 38/08 Q1007 NOSIG RMK RWY11R 29014KT RWY29R 31012KT RWY11L 31013KT,
LCEN,2023-08-06 12:20,100.40,42.80,14.08,280.00,13.00,0.00,29.74,,6.21,,FEW,,,,3000.00,,,,,,,,,,,96.04,LCEN 061220Z 28013KT 9999 FEW030 38/06 Q1007 NOSIG RMK RWY11R 29014KT RWY29R 28013KT RWY11L 30013KT,
LCEN,2023-08-06 12:50,100.40,42.80,14.08,280.00,17.00,0.00,29.74,,6.21,,FEW,,,,3000.00,,,,,,,,,,,96.04,LCEN 061250Z 28017KT 9999 FEW030 38/06 Q1007 NOSIG RMK RWY11R 31015KT RWY29R 29016KT RWY11L 30015KT,
LCEN,2023-08-06 13:20,100.40,42.80,14.08,300.00,18.00,0.00,29.74,,6.21,,FEW,,,,3000.00,,,,,,,,,,,96.04,LCEN 061320Z 30018KT 9999 FEW030 38/06 Q1007 NOSIG RMK RWY11R 29018KT RWY29R 30016KT RWY11L 30016KT,
LCEN,2023-08-06 13:50,98.60,42.80,14.87,290.00,20.00,0.00,29.74,,6.21,,,,,,,,,,,,,,,,,94.30,LCEN 061350Z 29020KT CAVOK 37/06 Q1007 NOSIG RMK RWY11R 30019KT RWY29R 29017KT RWY11L 31017KT,
LCEN,2023-08-06 14:20,96.80,42.80,15.71,290.00,20.00,0.00,29.74,,6.21,,,,,,,,,,,,,,,,,92.57,LCEN 061420Z 29020KT CAVOK 36/06 Q1007 NOSIG RMK RWY11R 30019KT RWY29R 30018KT RWY11L 31018KT,
LCEN,2023-08-06 14:50,95.00,44.60,17.78,300.00,20.00,0.00,29.74,,6.21,,,,,,,,,,,,,,,,,91.06,LCEN 061450Z 30020KT CAVOK 35/07 Q1007 NOSIG RMK RWY11R 31017KT RWY29R 30020KT RWY11L 31018KT,
LCEN,2023-08-06 15:20,95.00,48.20,20.38,290.00,19.00,0.00,29.74,,6.21,,,,,,,,,,,,,,,,,91.56,LCEN 061520Z 29019KT CAVOK 35/09 Q1007 NOSIG RMK RWY11R 30017KT RWY29R 30016KT RWY11L 31016KT,
LCEN,2023-08-06 15:50,93.20,48.20,21.54,300.00,16.00,0.00,29.74,,6.21,,,,,,,,,,,,,,,,,89.80,LCEN 061550Z 30016KT CAVOK 34/09 Q1007 NOSIG RMK RWY11R 31013KT RWY29R 30014KT RWY11L 32014KT,
LCEN,2023-08-06 16:20,91.40,48.20,22.78,290.00,13.00,0.00,29.74,,6.21,,,,,,,,,,,,,,,,,88.09,LCEN 061620Z 29013KT CAVOK 33/09 Q1007 NOSIG RMK RWY11R 30012KT RWY29R 30011KT RWY11L 30011KT,
LCEN,2023-08-06 16:50,87.80,46.40,23.85,310.00,9.00,0.00,29.74,,6.21,,,,,,,,,,,,,,,,,84.68,LCEN 061650Z 31009KT CAVOK 31/08 Q1007 NOSIG RMK RWY11R 30008KT RWY29R 31009KT RWY11L 31008KT,
LCEN,2023-08-06 17:20,86.00,46.40,25.26,300.00,7.00,0.00,29.74,,6.21,,,,,,,,,,,,,,,,,83.22,LCEN 061720Z 30007KT CAVOK 30/08 Q1007 NOSIG RMK RWY11R 29007KT RWY29R 30007KT RWY11L 29006KT,
LCEN,2023-08-06 17:50,84.20,48.20,28.63,260.00,6.00,0.00,29.74,,6.21,,,,,,,,,,,,,,,,,82.04,LCEN 061750Z 26006KT CAVOK 29/09 Q1007 NOSIG RMK RWY11R 29009KT RWY29R 28006KT RWY11L 29011KT,
LCEN,2023-08-06 18:20,84.20,50.00,30.62,270.00,10.00,0.00,29.77,,6.21,,,,,,,,,,,,,,,,,82.24,LCEN 061820Z 27010KT CAVOK 29/10 Q1008 NOSIG RMK RWY11R 28011KT RWY29R 28010KT RWY11L 30011KT,
LCEN,2023-08-06 18:50,82.40,51.80,34.69,260.00,8.00,0.00,29.77,,6.21,,,,,,,,,,,,,,,,,81.20,LCEN 061850Z 26008KT CAVOK 28/11 Q1008 NOSIG RMK RWY11R 27007KT RWY29R 28008KT RWY11L 27007KT,
LCEN,2023-08-06 19:20,82.40,57.20,42.25,230.00,6.00,0.00,29.74,,6.21,,,,,,,,,,,,,,,,,82.08,LCEN 061920Z 23006KT CAVOK 28/14 Q1007 NOSIG RMK RWY11R 30012KT RWY29R 30011KT RWY11L 30011KT,
LCEN,2023-08-06 19:50,80.60,59.00,47.79,150.00,5.00,0.00,29.74,,6.21,,,,,,,,,,,,,,,,,81.11,LCEN 061950Z 15005KT CAVOK 27/15 Q1007 NOSIG RMK RWY11R 30009KT RWY29R 29010KT RWY11L 30010KT,
LCEN,2023-08-06 20:20,78.80,59.00,50.69,290.00,4.00,0.00,29.77,,6.21,,,,,,,,,,,,,,,,,78.80,LCEN 062020Z 29004KT CAVOK 26/15 Q1008 NOSIG RMK RWY11R 26003KT RWY29R 00000KT RWY11L 00000KT,
LCEN,2023-08-06 20:50,77.00,57.20,50.43,0.00,0.00,0.00,29.77,,6.21,,,,,,,,,,,,,,,,,77.00,LCEN 062050Z 00000KT CAVOK 25/14 Q1008 NOSIG RMK RWY11R 00000KT RWY29R 00000KT RWY11L 00000KT,
LCEN,2023-08-06 21:20,77.00,57.20,50.43,0.00,0.00,0.00,29.77,,6.21,,,,,,,,,,,,,,,,,77.00,LCEN 062120Z 00000KT CAVOK 25/14 Q1008 NOSIG RMK RWY11R 00000KT RWY29R 00000KT RWY11L 00000KT,
LCEN,2023-08-06 21:50,77.00,55.40,47.25,240.00,4.00,0.00,29.77,,6.21,,,,,,,,,,,,,,,,,77.00,LCEN 062150Z 24004KT CAVOK 25/13 Q1008 NOSIG RMK RWY11R 00000KT RWY29R 00000KT RWY11L 00000KT,
LCEN,2023-08-06 22:20,78.80,57.20,47.52,260.00,5.00,0.00,29.77,,6.21,,,,,,,,,,,,,,,,,78.80,LCEN 062220Z 26005KT CAVOK 26/14 Q1008 NOSIG RMK RWY11R 29006KT RWY29R 29005KT RWY11L 29005KT,
LCEN,2023-08-06 22:50,75.20,59.00,57.12,290.00,5.00,0.00,29.77,,6.21,,,,,,,,,,,,,,,,,75.20,LCEN 062250Z 29005KT CAVOK 24/15 Q1008 NOSIG RMK RWY11R 28006KT RWY29R 29006KT RWY11L 28005KT,
LCEN,2023-08-06 23:20,77.00,62.60,61.13,280.00,5.00,0.00,29.74,,6.21,,,,,,,,,,,,,,,,,77.00,LCEN 062320Z 28005KT CAVOK 25/17 Q1007 NOSIG RMK RWY11R 28006KT RWY29R 28005KT RWY11L 28005KT,
LCEN,2023-08-06 23:50,78.80,69.80,73.95,270.00,9.00,0.00,29.74,,6.21,,,,,,,,,,,,,,,,,78.80,LCEN 062350Z 27009KT CAVOK 26/21 Q1007 NOSIG RMK RWY11R 26007KT RWY29R 27008KT RWY11L 27006KT,
LCEN,2023-08-07 00:20,77.00,69.80,78.48,290.00,7.00,0.00,29.74,,6.21,,FEW,,,,2000.00,,,,,,,,,,,77.00,LCEN 070020Z 29007KT 9999 FEW020 25/21 Q1007 NOSIG RMK RWY11R 29006KT RWY29R 29007KT RWY11L 28007KT,
LCEN,2023-08-07 00:50,77.00,69.80,78.48,250.00,6.00,0.00,29.74,,6.21,,FEW,,,,2000.00,,,,,,,,,,,77.00,LCEN 070050Z 25006KT 9999 FEW020 25/21 Q1007 RMK RWY11R 24005KT RWY29R 25005KT RWY11L 24005KT,
LCEN,2023-08-07 01:20,73.40,64.40,73.44,240.00,5.00,0.00,29.74,,6.21,,,,,,,,,,,,,,,,,73.40,LCEN 070120Z 24005KT CAVOK 23/18 Q1007 RMK RWY11R 00000KT RWY29R 21005KT RWY11L 26004KT,
LCEN,2023-08-07 01:50,73.40,66.20,78.19,250.00,5.00,0.00,29.74,,6.21,,,,,,,,,,,,,,,,,73.40,LCEN 070150Z 25005KT CAVOK 23/19 Q1007 NOSIG RMK RWY11R 00000KT RWY29R 24005KT RMK RWY11L 26004KT,
LCEN,2023-08-07 02:20,73.40,68.00,83.21,250.00,5.00,0.00,29.74,,6.21,,,,,,,,,,,,,,,,,73.40,LCEN 070220Z 25005KT CAVOK 23/20 Q1007 NOSIG RMK RWY11R 26005KT RWY29R 27005KT RMK RWY11L 27003KT,
LCEN,2023-08-07 02:50,73.40,66.20,78.19,230.00,4.00,0.00,29.74,,6.21,,FEW,,,,1000.00,,,,,,,,,,,73.40,LCEN 070250Z 23004KT 9999 FEW010 23/19 Q1007 NOSIG RMK RMK RWY11R 26006KT RWY29R 27005KT RWY11L 27007KT,
LCEN,2023-08-07 03:20,73.40,66.20,78.19,240.00,6.00,0.00,29.77,,6.21,,FEW,,,,1000.00,,,,,,,,,,,73.40,LCEN 070320Z 24006KT 9999 FEW010 23/19 Q1008 NOSIG RMK RMK RWY11R 23005KT RWY29R 20004KT RWY11L 26006KT,
LCEN,2023-08-07 03:50,75.20,68.00,78.34,240.00,5.00,0.00,29.77,,6.21,,FEW,,,,1500.00,,,,,,,,,,,75.20,COR LCEN 070350Z 24005KT 9999 FEW015 24/20 Q1008 NOSIG RMK RWY11R 27007KT RWY29R 27006KT RWY11L 27005KT,
LCEN,2023-08-07 04:20,77.00,68.00,73.78,240.00,5.00,0.00,29.77,,6.21,,FEW,,,,1500.00,,,,,,,,,,,77.00,LCEN 070420Z 24005KT 9999 FEW015 25/20 Q1008 NOSIG RMK RWY11R 27007KT RWY29R 26005KT RWY11L 27004KT,
LCEN,2023-08-07 04:50,80.60,69.80,69.71,270.00,8.00,0.00,29.77,,6.21,,SCT,,,,2000.00,,,,,,,,,,,83.90,LCEN 070450Z 27008KT 9999 SCT020 27/21 Q1008 NOSIG RMK RWY11R 29007KT RWY29R 28007KT RWY11L 30005KT,
LCEN,2023-08-07 05:20,82.40,71.60,69.90,280.00,5.00,0.00,29.77,,6.21,,FEW,,,,2000.00,,,,,,,,,,,87.18,LCEN 070520Z 28005KT 9999 FEW020 28/22 Q1008 NOSIG RMK RWY11R 32005KT RWY29R 31005KT RWY11L 31003KT,
LCEN,2023-08-07 05:50,84.20,69.80,62.03,280.00,8.00,0.00,29.77,,6.21,,FEW,,,,2000.00,,,,,,,,,,,88.43,LCEN 070550Z 28008KT 9999 FEW020 29/21 Q1008 NOSIG RMK RWY11R 31006KT RWY29R 30006KT RWY11L 31006KT 270V360,
LCEN,2023-08-07 06:20,86.00,69.80,58.55,280.00,5.00,0.00,29.77,,6.21,,FEW,,,,2000.00,,,,,,,,,,,90.58,LCEN 070620Z 28005KT 9999 FEW020 30/21 Q1008 NOSIG RMK RWY11R 28006KT RWY29R 32005KT RWY11L 34003KT,
LCEN,2023-08-07 06:50,87.80,68.00,51.98,310.00,4.00,0.00,29.77,,6.21,,FEW,,,,2000.00,,,,,,,,,,,91.43,LCEN 070650Z 31004KT 9999 FEW020 31/20 Q1008 NOSIG RMK RWY11R 29005KT RWY29R 34004KT RWY11L 30003KT,
LCEN,2023-08-07 07:20,89.60,66.20,46.14,260.00,7.00,0.00,29.77,,6.21,,FEW,,,,2000.00,,,,,,,,,,,92.27,LCEN 070720Z 26007KT 9999 FEW020 32/19 Q1008 NOSIG RMK RWY11R 27004KT RWY29R 35004KT RWY11L 27005KT,
LCEN,2023-08-07 07:50,91.40,64.40,40.96,300.00,6.00,0.00,29.77,,6.21,,FEW,,,,2000.00,,,,,,,,,,,93.19,LCEN 070750Z 30006KT 9999 FEW020 33/18 Q1008 NOSIG RMK RWY11R 28004KT RWY29R 27004KT RWY11L 00000KT,
LCEN,2023-08-07 08:20,93.20,62.60,36.35,280.00,5.00,0.00,29.77,,6.21,,FEW,,,,2000.00,,,,,,,,,,,94.20,LCEN 070820Z 28005KT 9999 FEW020 34/17 Q1008 NOSIG RMK RWY11R 11005KT RWY29R 27004KT RWY11L 00000KT,
LCEN,2023-08-07 08:50,95.00,60.80,32.27,300.00,6.00,0.00,29.74,,6.21,,FEW,,,,2000.00,,,,,,,,,,,95.30,LCEN 070850Z 30006KT 9999 FEW020 35/16 Q1007 NOSIG RMK RWY11R 12004KT RWY29R 26004KT RWY11L 21003KT,
LCEN,2023-08-07 09:20,95.00,60.80,32.27,300.00,6.00,0.00,29.74,,6.21,,FEW,,,,2000.00,,,,,,,,,,,95.30,LCEN 070920Z 30006KT 9999 FEW020 35/16 Q1007 NOSIG RMK RWY11R 28006KT RWY29R 15005KT RWY11L 35006KT,
LCEN,2023-08-07 09:50,96.80,59.00,28.63,140.00,11.00,0.00,29.74,,6.21,,FEW,,,,2000.00,,,,,,,,,,,96.50,LCEN 070950Z 14011KT 9999 FEW020 36/15 Q1007 NOSIG RMK RWY11R 26005KT RWY29R 26007KT RWY11L 25004KT,
LCEN,2023-08-07 10:20,96.80,64.40,34.66,150.00,11.00,0.00,29.74,,6.21,,FEW,,,,2000.00,,,,,,,,,,,99.37,LCEN 071020Z 15011KT 9999 FEW020 36/18 Q1007 NOSIG RMK RWY11R 13007KT RWY29R 16008KT RWY11L 27004KT,
LCEN,2023-08-07 10:50,96.80,66.20,36.90,200.00,12.00,0.00,29.74,,6.21,,FEW,,,,2000.00,,,,,,,,,,,100.60,LCEN 071050Z 20012KT 9999 FEW020 36/19 Q1007 NOSIG RMK RWY11R 23007KT RWY29R 16007G17KT RWY11L 25007KT,
LCEN,2023-08-07 11:20,98.60,64.40,32.81,150.00,10.00,0.00,29.74,,6.21,,FEW,,,,2000.00,,,,,,,,,,,101.50,LCEN 071120Z 15010KT 9999 FEW020 37/18 Q1007 NOSIG RMK RWY11R 33007KT RWY29R 23011G23KT RWY11L 01007KT,
LCEN,2023-08-07 11:50,98.60,66.20,34.93,140.00,14.00,0.00,29.71,,6.21,,SCT,,,,2000.00,,,,,,,,,,,102.78,LCEN 071150Z 14014KT 9999 SCT020 37/19 Q1006 NOSIG RMK RWY11R 31010KT RWY29R 35009KT RWY11L 34008KT,
LCEN,2023-08-07 12:20,96.80,66.20,36.90,320.00,11.00,0.00,29.71,,6.21,,SCT,,,,2000.00,,,,,,,,,,,100.60,LCEN 071220Z 32011KT 9999 SCT020 36/19 Q1006 NOSIG RMK RWY11R 31010KT RWY29R 35010KT RWY11L 31009KT,
LCEN,2023-08-07 12:50,96.80,68.00,39.27,330.00,12.00,0.00,29.71,,6.21,,SCT,,,,2000.00,,,,,,,,,,,102.01,LCEN 071250Z 33012KT 9999 SCT020 36/20 Q1006 NOSIG RMK RWY11R 32010KT RWY29R 32011KT RWY11L 32011G28KT,
LCEN,2023-08-07 13:20,96.80,68.00,39.27,310.00,9.00,0.00,29.71,,6.21,,SCT,,,,2000.00,,,,,,,,,,,102.01,LCEN 071320Z 31009KT 9999 SCT020 36/20 Q1006 NOSIG RMK RWY11R 36008KT RWY29R 31010KT RWY11L 33008KT,
LCEN,2023-08-07 13:50,96.80,66.20,36.90,300.00,11.00,0.00,29.71,,6.21,,SCT,,,,2000.00,,,,,,,,,,,100.60,LCEN 071350Z 30011KT 9999 SCT020 36/19 Q1006 NOSIG RMK RWY11R 30013KT RWY29R 31011KT RWY11L 31011KT,
LCEN,2023-08-07 14:20,95.00,66.20,39.00,290.00,14.00,0.00,29.71,,6.21,,SCT,,,,2000.00,,,,,,,,,,,98.46,LCEN 071420Z 29014KT 9999 SCT020 35/19 Q1006 NOSIG RMK RWY11R 29014KT RWY29R 30012KT RWY11L 30012KT,
LCEN,2023-08-07 14:50,93.20,68.00,43.88,280.00,15.00,0.00,29.71,,6.21,,FEW,,,,2000.00,,,,,,,,,,,97.67,LCEN 071450Z 28015KT 9999 FEW020 34/20 Q1006 NOSIG RMK RWY11R 30012KT RWY29R 29012KT RWY11L 31011KT,
LCEN,2023-08-07 15:20,91.40,68.00,46.41,290.00,13.00,0.00,29.71,,6.21,,FEW,,,,2000.00,,,,,,,,,,,95.55,LCEN 071520Z 29013KT 9999 FEW020 33/20 Q1006 NOSIG RMK RWY11R 30012KT RWY29R 30012KT RWY11L 31012KT,
LCEN,2023-08-07 15:50,89.60,68.00,49.10,300.00,14.00,0.00,29.71,,6.21,,FEW,,,,2000.00,,,,,,,,,,,93.47,LCEN 071550Z 30014KT 9999 FEW020 32/20 Q1006 NOSIG RMK RWY11R 31012KT RWY29R 31013KT RWY11L 31012KT,
LCEN,2023-08-07 16:20,87.80,68.00,51.98,290.00,15.00,0.00,29.71,,6.21,,FEW,,,,2000.00,,,,,,,,,,,91.43,LCEN 071620Z 29015KT 9999 FEW020 31/20 Q1006 NOSIG RMK RWY11R 30013KT RWY29R 30013KT RWY11L 31012KT,
LCEN,2023-08-07 16:50,86.00,68.00,55.04,290.00,16.00,0.00,29.74,,6.21,,FEW,,,,2000.00,,,,,,,,,,,89.41,LCEN 071650Z 29016KT 9999 FEW020 30/20 Q1007 NOSIG RMK RWY11R 30014KT RWY29R 30013KT RWY11L 30013KT,
LCEN,2023-08-07 17:20,84.20,68.00,58.32,290.00,16.00,0.00,29.74,,6.21,,FEW,,,,2000.00,,,,,,,,,,,87.40,LCEN 071720Z 29016KT 9999 FEW020 29/20 Q1007 NOSIG RMK RWY11R 30014KT RWY29R 30014KT RWY11L 30012KT,
LCEN,2023-08-07 17:50,82.40,68.00,61.81,290.00,16.00,0.00,29.77,,6.21,,FEW,,,,2000.00,,,,,,,,,,,85.38,LCEN 071750Z 29016KT 9999 FEW020 28/20 Q1008 NOSIG RMK RWY11R 30012KT RWY29R 30014KT RWY11L 30011KT,
LCEN,2023-08-07 18:20,82.40,68.00,61.81,280.00,17.00,0.00,29.74,,6.21,,FEW,,,,2000.00,,,,,,,,,,,85.38,LCEN 071820Z 28017KT 9999 FEW020 28/20 Q1007 NOSIG RMK RWY11R 29013KT RWY29R 29013KT RWY11L 30011KT,
LCEN,2023-08-07 18:50,80.60,68.00,65.54,290.00,15.00,0.00,29.74,,6.21,,FEW,,,,2000.00,,,,,,,,,,,83.29,LCEN 071850Z 29015KT 9999 FEW020 27/20 Q1007 NOSIG RMK RWY11R 30014KT RWY29R 30014KT RWY11L 30013KT,
LCEN,2023-08-07 19:20,80.60,69.80,69.71,290.00,15.00,0.00,29.74,,6.21,,FEW,,,,2000.00,,,,,,,,,,,83.90,LCEN 071920Z 29015KT 9999 FEW020 27/21 Q1007 NOSIG RMK RWY11R 30012KT RWY29R 30014KT RWY11L 30011KT,
LCEN,2023-08-07 19:50,80.60,69.80,69.71,290.00,14.00,0.00,29.74,,6.21,,FEW,,,,2000.00,,,,,,,,,,,83.90,LCEN 071950Z 29014KT 9999 FEW020 27/21 Q1007 NOSIG RMK RWY11R 30012KT RWY29R 30013KT RWY11L 30011KT,
LCEN,2023-08-07 20:20,78.80,69.80,73.95,290.00,13.00,0.00,29.74,,6.21,,,,,,,,,,,,,,,,,78.80,LCEN 072020Z 29013KT CAVOK 26/21 Q1007 NOSIG RMK RWY11R 30011KT RWY29R 30010KT RWY11L 30010KT,
LCEN,2023-08-07 20:50,78.80,69.80,73.95,290.00,11.00,0.00,29.74,,6.21,,,,,,,,,,,,,,,,,78.80,LCEN 072050Z 29011KT CAVOK 26/21 Q1007 NOSIG RMK RWY11R 30011KT RWY29R 30010KT RWY11L 30009KT,
LCEN,2023-08-07 21:20,78.80,69.80,73.95,290.00,12.00,0.00,29.74,,6.21,,,,,,,,,,,,,,,,,78.80,LCEN 072120Z 29012KT CAVOK 26/21 Q1007 NOSIG RMK RWY11R 30010KT RWY29R 29010KT RWY11L 30008KT,
LCEN,2023-08-07 21:50,78.80,69.80,73.95,290.00,11.00,0.00,29.74,,6.21,,,,,,,,,,,,,,,,,78.80,LCEN 072150Z 29011KT CAVOK 26/21 Q1007 NOSIG RMK RWY11R 30010KT RWY29R 29009KT RWY11L 30008KT,
LCEN,2023-08-07 22:20,77.00,69.80,78.48,300.00,10.00,0.00,29.74,,6.21,,,,,,,,,,,,,,,,,77.00,LCEN 072220Z 30010KT CAVOK 25/21 Q1007 NOSIG RMK RWY11R 30008KT RWY29R 30010KT RWY11L 31007KT,
LCEN,2023-08-07 22:50,77.00,69.80,78.48,300.00,9.00,0.00,29.74,,6.21,,,,,,,,,,,,,,,,,77.00,LCEN 072250Z 30009KT CAVOK 25/21 Q1007 NOSIG RMK RWY11R 30007KT RWY29R 30008KT RWY11L 30006KT,
LCEN,2023-08-07 23:20,75.20,69.80,83.32,290.00,9.00,0.00,29.71,,6.21,,,,,,,,,,,,,,,,,75.20,LCEN 072320Z 29009KT CAVOK 24/21 Q1006 NOSIG RMK RWY11R 30005KT RWY29R 30007KT RWY11L 30005KT,
LCEN,2023-08-07 23:50,75.20,69.80,83.32,290.00,8.00,0.00,29.71,,6.21,,,,,,,,,,,,,,,,,75.20,LCEN 072350Z 29008KT CAVOK 24/21 Q1006 NOSIG RMK RWY11R 29007KT RWY29R 29007KT RWY11L 30005KT,
LCEN,2023-08-08 00:20,75.20,69.80,83.32,280.00,10.00,0.00,29.71,,6.21,,,,,,,,,,,,,,,,,75.20,LCEN 080020Z 28010KT CAVOK 24/21 Q1006 NOSIG RMK RWY11R 29006KT RWY29R 29008KT RWY11L 29004KT,
LCEN,2023-08-08 00:50,75.20,69.80,83.32,290.00,9.00,0.00,29.71,,6.21,,,,,,,,,,,,,,,,,75.20,LCEN 080050Z 29009KT CAVOK 24/21 Q1006 NOSIG RMK RWY11R 29006KT RWY29R 29007KT RWY11L 30004KT,
LCEN,2023-08-08 01:20,75.20,69.80,83.32,280.00,8.00,0.00,29.71,,6.21,,,,,,,,,,,,,,,,,75.20,LCEN 080120Z 28008KT CAVOK 24/21 Q1006 NOSIG RMK RWY11R 28007KT RWY29R 29006KT RWY11 29004KT,
LCEN,2023-08-08 01:50,73.40,69.80,88.51,240.00,5.00,0.00,29.71,,6.21,,,,,,,,,,,,,,,,,73.40,LCEN 080150Z 24005KT CAVOK 23/21 Q1006 NOSIG RMK RWY11R 30006KT RWY29R 29006KT RWY11L 29004KT,
LCEN,2023-08-08 02:20,73.40,69.80,88.51,240.00,4.00,0.00,29.71,,6.21,,,,,,,,,,,,,,,,,73.40,LCEN 080220Z 24004KT CAVOK 23/21 Q1006 NOSIG RMK RWY11R 29006KT RWY29R 30006KT RWY11L 29005KT,
LCEN,2023-08-08 02:50,73.40,68.00,83.21,240.00,5.00,0.00,29.71,,6.21,,FEW,,,,1000.00,,,,,,,,,,,73.40,LCEN 080250Z 24005KT 9999 FEW010 23/20 Q1006 NOSIG RMK RWY11R 28005KT RWY29R 28005KT RWY11L 29004KT,
LCEN,2023-08-08 03:20,73.40,69.80,88.51,240.00,5.00,0.00,29.71,,6.21,,FEW,,,,1000.00,,,,,,,,,,,73.40,LCEN 080320Z 24005KT 9999 FEW010 23/21 Q1006 NOSIG RMK RWY11R 26005KT RWY29R 27004KT RWY11L 28004KT,
LCEN,2023-08-08 03:50,73.40,68.00,83.21,240.00,5.00,0.00,29.71,,6.21,,FEW,,,,1000.00,,,,,,,,,,,73.40,LCEN 080350Z 24005KT 9999 FEW010 23/20 Q1006 NOSIG RMK RWY11R 21004KT RWY29R 24004KT RWY11L 26004KT,
LCEN,2023-08-08 04:20,75.20,69.80,83.32,230.00,5.00,0.00,29.71,,6.21,,FEW,,,,1000.00,,,,,,,,,,,75.20,LCEN 080420Z 23005KT 9999 FEW010 24/21 Q1006 NOSIG RMK RWY11R 23004KT RWY29R 00000KT RWY11L 00000KT,
LCEN,2023-08-08 04:50,78.80,69.80,73.95,250.00,5.00,0.00,29.71,,6.21,,FEW,,,,1000.00,,,,,,,,,,,78.80,LCEN 080450Z 25005KT 9999 FEW010 26/21 Q1006 NOSIG RMK RWY11R 28005KT RWY29R 26004KT RWY11L 28003KT,
LCEN,2023-08-08 05:20,80.60,69.80,69.71,280.00,6.00,0.00,29.71,,6.21,,FEW,,,,1500.00,,,,,,,,,,,83.90,LCEN 080520Z 28006KT 9999 FEW015 27/21 Q1006 NOSIG RMK RWY11R 29006KT RWY29R 30004KT RWY11L 30004KT,
LCEN,2023-08-08 05:50,82.40,68.00,61.81,310.00,4.00,0.00,29.71,,6.21,,FEW,,,,2000.00,,,,,,,,,,,85.38,LCEN 080550Z 31004KT 9999 FEW020 28/20 Q1006 NOSIG RMK RWY11R 28004KT RWY29R 00000KT RWY11L 33004KT,
LCEN,2023-08-08 06:20,86.00,68.00,55.04,230.00,4.00,0.00,29.71,,6.21,,FEW,,,,2000.00,,,,,,,,,,,89.41,LCEN 080620Z 23004KT 9999 FEW020 30/20 Q1006 NOSIG RMK RWY11R 28004KT RWY29R 00000KT RWY11L 33004KT,
LCEN,2023-08-08 06:50,86.00,66.20,51.72,240.00,5.00,0.00,29.71,,6.21,,FEW,,,,2000.00,,,,,,,,,,,88.39,LCEN 080650Z 24005KT 9999 FEW020 30/19 Q1006 NOSIG RMK RWY11R 02003KT RWY29R 00000KT RWY11L 26003KT,
LCEN,2023-08-08 07:20,86.00,64.40,48.58,130.00,4.00,0.00,29.71,,6.21,,FEW,,,,2000.00,,,,,,,,,,,87.49,LCEN 080720Z 13004KT 9999 FEW020 30/18 Q1006 NOSIG RMK RWY11R 27004KT RWY29R 00000KT RWY11L 13003KT,
LCEN,2023-08-08 07:50,87.80,64.40,45.88,100.00,5.00,0.00,29.71,,6.21,,FEW,,,,2000.00,,,,,,,,,,,89.33,LCEN 080750Z 10005KT 9999 FEW020 31/18 Q1006 NOSIG RMK RWY11R 12003KT RWY29R 00000KT RWY11L 00000KT,
LCEN,2023-08-08 08:20,89.60,59.00,35.81,350.00,5.00,0.00,29.71,,6.21,,FEW,,,,2000.00,,,,,,,,,,,88.86,LCEN 080820Z 35005KT 9999 FEW020 32/15 Q1006 NOSIG RMK RWY11R 10005KT RWY29R 10005KT RWY11L 02004KT,
LCEN,2023-08-08 08:50,93.20,62.60,36.35,100.00,4.00,0.00,29.68,,6.21,,FEW,,,,2000.00,,,,,,,,,,,94.20,LCEN 080850Z 10004KT 9999 FEW020 34/17 Q1005 NOSIG RMK RWY11R 23005KT RWY29R 00000KT RWY11L 16003KT,
LCEN,2023-08-08 09:20,91.40,62.60,38.45,140.00,6.00,0.00,29.68,,6.21,,FEW,,,,2000.00,,,,,,,,,,,92.23,LCEN 080920Z 14006KT 9999 FEW020 33/17 Q1005 NOSIG RMK RWY11R 12005KT RWY29R 04004KT RWY11L 10005KT,
LCEN,2023-08-08 09:50,93.20,59.00,31.99,130.00,9.00,0.00,29.68,,6.21,,FEW,,,,2000.00,,,,,,,,,,,92.57,LCEN 080950Z 13009KT 9999 FEW020 34/15 Q1005 NOSIG RMK RWY11R 11005KT RWY29R 04004KT RWY11L 00000KT,
LCEN,2023-08-08 10:20,95.00,60.80,32.27,120.00,7.00,0.00,29.68,,6.21,,FEW,,,,2000.00,,,,,,,,,,,95.30,LCEN 081020Z 12007KT 9999 FEW020 35/16 Q1005 NOSIG RMK RWY11R 13006KT RWY29R 17004KT RWY11L 18005KT,
LCEN,2023-08-08 10:50,95.00,62.60,34.39,90.00,8.00,0.00,29.68,,6.21,,FEW,,,,2000.00,,,,,,,,,,,96.22,LCEN 081050Z 09008KT 9999 FEW020 35/17 Q1005 NOSIG RMK RWY11R 11008KT RWY29R 12008KT RWY11L 13006KT,
LCEN,2023-08-08 11:20,95.00,62.60,34.39,150.00,8.00,0.00,29.68,,6.21,,FEW,,,,2000.00,,,,,,,,,,,96.22,LCEN 081120Z 15008KT 9999 FEW020 35/17 Q1005 NOSIG RMK RWY11R 14009KT RWY29R 15006KT RWY11L 15010KT,
LCEN,2023-08-08 11:50,95.00,64.40,36.63,130.00,12.00,0.00,29.65,,6.21,,FEW,,,,2000.00,,,,,,,,,,,97.26,LCEN 081150Z 13012KT 9999 FEW020 35/18 Q1004 NOSIG RMK RWY11R 15011KT RWY29R 16010KT RWY11L 15010KT,
LCEN,2023-08-08 12:20,95.00,66.20,39.00,150.00,12.00,0.00,29.65,,6.21,,FEW,,,,2000.00,,,,,,,,,,,98.46,LCEN 081220Z 15012KT 9999 FEW020 35/19 Q1004 NOSIG RMK RWY11R 15011KT RWY29R 16010KT RWY11L 15010KT,
LCEN,2023-08-08 12:50,95.00,68.00,41.50,150.00,12.00,0.00,29.65,,6.21,,FEW,,,,2000.00,,,,,,,,,,,99.82,LCEN 081250Z 15012KT 9999 FEW020 35/20 Q1004 NOSIG RMK RWY11R 14011KT RWY29R 16010KT RWY11L 15010KT,
LCEN,2023-08-08 13:20,95.00,66.20,39.00,130.00,11.00,0.00,29.65,,6.21,,FEW,,,,2000.00,,,,,,,,,,,98.46,LCEN 081320Z 13011KT 9999 FEW020 35/19 Q1004 NOSIG RMK RWY11R 13011KT RWY29R 13009KT RWY11L 14009KT,
LCEN,2023-08-08 13:50,93.20,68.00,43.88,100.00,8.00,0.00,29.65,,6.21,,FEW,,,,2000.00,,,,,,,,,,,97.67,LCEN 081350Z 10008KT 9999 FEW020 34/20 Q1004 NOSIG RMK RWY11R 12008KT RWY29R 15008KT RWY11L 15010KT,
LCEN,2023-08-08 14:20,93.20,68.00,43.88,120.00,10.00,0.00,29.65,,6.21,,FEW,,,,2000.00,,,,,,,,,,,97.67,LCEN 081420Z 12010KT 9999 FEW020 34/20 Q1004 NOSIG RMK RWY11R 07010KT RWY29R 10010KT RWY11L 12010KT,
LCEN,2023-08-08 14:50,93.20,66.20,41.23,100.00,7.00,0.00,29.65,,6.21,,FEW,,,,2000.00,,,,,,,,,,,96.35,LCEN 081450Z 10007KT 9999 FEW020 34/19 Q1004 NOSIG RMK RWY11R 10007KT RWY29R 09010KT RWY11L 12010KT,
LCEN,2023-08-08 15:20,91.40,66.20,43.61,100.00,12.00,0.00,29.65,,6.21,,FEW,,,,2000.00,,,,,,,,,,,94.29,LCEN 081520Z 10012KT 9999 FEW020 33/19 Q1004 NOSIG RMK RWY11R 09011KT RWY29R 10010KT RWY11L 11010KT,
LCEN,2023-08-08 15:50,89.60,68.00,49.10,90.00,10.00,0.00,29.65,,6.21,,FEW,,,,2000.00,,,,,,,,,,,93.47,LCEN 081550Z 09010KT 9999 FEW020 32/20 Q1004 NOSIG RMK RWY11R 10010KT RWY29R 10010KT RWY11L 10012KT,
LCEN,2023-08-08 16:20,87.80,66.20,48.84,120.00,7.00,0.00,29.65,,6.21,,FEW,,,,2000.00,,,,,,,,,,,90.31,LCEN 081620Z 12007KT 9999 FEW020 31/19 Q1004 NOSIG RMK RWY11R 10006KT RWY29R 13007KT RWY11L 10006KT,
LCEN,2023-08-08 16:50,86.00,68.00,55.04,120.00,6.00,0.00,29.68,,6.21,,FEW,,,,2000.00,,,,,,,,,,,89.41,LCEN 081650Z 12006KT 9999 FEW020 30/20 Q1005 NOSIG RMK RWY11R 31010KT RWY29R 25003KT RWY11L 31008KT,
LCEN,2023-08-08 17:20,84.20,68.00,58.32,290.00,11.00,0.00,29.68,,6.21,,,,,,,,,,,,,,,,,87.40,LCEN 081720Z 29011KT CAVOK 29/20 Q1005 NOSIG RMK RWY11R 31010KT RWY29R 31010KT RWY11L 31010KT,
LCEN,2023-08-08 17:50,82.40,68.00,61.81,320.00,8.00,0.00,29.68,,6.21,,,,,,,,,,,,,,,,,85.38,LCEN 081750Z 32008KT CAVOK 28/20 Q1005 NOSIG RMK RWY11R 32008KT RWY29R 33007KT RWY11L 33007KT,
LCEN,2023-08-08 18:20,82.40,68.00,61.81,300.00,9.00,0.00,29.71,,6.21,,,,,,,,,,,,,,,,,85.38,LCEN 081820Z 30009KT CAVOK 28/20 Q1006 NOSIG RMK RWY11R 32006KT RWY29R 31007KT RWY11L 32006KT,
LCEN,2023-08-08 18:50,80.60,68.00,65.54,300.00,8.00,0.00,29.71,,6.21,,,,,,,,,,,,,,,,,83.29,LCEN 081850Z 30008KT CAVOK 27/20 Q1006 NOSIG RMK RWY11R 30006KT RWY29R 30006KT RWY11L 30006KT,
LCEN,2023-08-08 19:20,80.60,69.80,69.71,290.00,8.00,0.00,29.71,,6.21,,,,,,,,,,,,,,,,,83.90,LCEN 081920Z 29008KT CAVOK 27/21 Q1006 NOSIG RMK RWY11R 29007KT RWY29R 29007KT RWY11L 30005KT,
LCEN,2023-08-08 19:50,78.80,69.80,73.95,290.00,9.00,0.00,29.71,,6.21,,,,,,,,,,,,,,,,,78.80,LCEN 081950Z 29009KT CAVOK 26/21 Q1006 NOSIG RMK RWY11R 30006KT RWY29R 30007KT RWY11L 30005KT,
LCEN,2023-08-08 20:20,78.80,69.80,73.95,290.00,9.00,0.00,29.71,,6.21,,,,,,,,,,,,,,,,,78.80,LCEN 082020Z 29009KT CAVOK 26/21 Q1006 NOSIG RMK RWY11R 30007KT RWY29R 30007KT RWY11L 31005KT,
LCEN,2023-08-08 20:50,78.80,71.60,78.62,290.00,8.00,0.00,29.71,,6.21,,,,,,,,,,,,,,,,,78.80,LCEN 082050Z 29008KT CAVOK 26/22 Q1006 NOSIG RMK RWY11R 29006KT RWY29R 29006KT RWY11L 30005KT,
LCEN,2023-08-08 21:20,78.80,71.60,78.62,290.00,8.00,0.00,29.71,,6.21,,,,,,,,,,,,,,,,,78.80,LCEN 082120Z 29008KT CAVOK 26/22 Q1006 NOSIG RMK RWY11R 29006KT RWY29R 29006KT RWY11L 29004KT,
LCEN,2023-08-08 21:50,78.80,71.60,78.62,290.00,7.00,0.00,29.68,,6.21,,,,,,,,,,,,,,,,,78.80,LCEN 082150Z 29007KT CAVOK 26/22 Q1005 NOSIG RMK RWY11R 30005KT RWY29R 29005KT RWY11L 30004KT,
LCEN,2023-08-08 22:20,77.00,71.60,83.44,300.00,6.00,0.00,29.68,,6.21,,,,,,,,,,,,,,,,,77.00,LCEN 082220Z 30006KT CAVOK 25/22 Q1005 NOSIG RMK RWY11R 30005KT RWY29R 30006KT RWY11L 30004KT,
LCEN,2023-08-08 22:50,77.00,69.80,78.48,280.00,4.00,0.00,29.68,,6.21,,,,,,,,,,,,,,,,,77.00,LCEN 082250Z 28004KT CAVOK 25/21 Q1005 NOSIG RMK RWY11R 31003KT RWY29R 00000KT RWY11L 00000KT,
LCEN,2023-08-08 23:20,77.00,71.60,83.44,200.00,3.00,0.00,29.68,,6.21,,,,,,,,,,,,,,,,,77.00,LCEN 082320Z 20003KT CAVOK 25/22 Q1005 NOSIG RMK RWY11R 27003KT RWY29R 00000KT RWY11L 00000KT,
LCEN,2023-08-08 23:50,77.00,69.80,78.48,220.00,3.00,0.00,29.68,,6.21,,,,,,,,,,,,,,,,,77.00,LCEN 082350Z 22003KT CAVOK 25/21 Q1005 NOSIG RMK RWY11R 21004KT RWY29R 00000KT RWY11L 00000KT,
LCEN,2023-08-09 00:20,77.00,69.80,78.48,240.00,5.00,0.00,29.68,,6.21,,,,,,,,,,,,,,,,,77.00,LCEN 090020Z 24005KT CAVOK 25/21 Q1005 NOSIG RMK RWY11R 22004KT RWY29R 00000KT RWY11L 00000KT,
LCEN,2023-08-09 00:50,75.20,69.80,83.32,240.00,4.00,0.00,29.68,,6.21,,,,,,,,,,,,,,,,,75.20,LCEN 090050Z 24004KT CAVOK 24/21 Q1005 NOSIG RMK RWY11R 22004KT RWY29R 22004KT RWY11L 00000KT,
LCEN,2023-08-09 01:20,75.20,69.80,83.32,250.00,5.00,0.00,29.68,,6.21,,,,,,,,,,,,,,,,,75.20,LCEN 090120Z 25005KT CAVOK 24/21 Q1005 NOSIG RMK RWY11R 27005KT RWY29R 00000KT RWY11L 00000KT,
LCEN,2023-08-09 01:50,75.20,68.00,78.34,240.00,5.00,0.00,29.68,,6.21,,,,,,,,,,,,,,,,,75.20,LCEN 090150Z 24005KT CAVOK 24/20 Q1005 NOSIG RMK RWY11R 24003KT RWY29R 00000KT RWY11L 00000KT,
LCEN,2023-08-09 02:20,75.20,68.00,78.34,230.00,4.00,0.00,29.71,,6.21,,,,,,,,,,,,,,,,,75.20,LCEN 090220Z 23004KT CAVOK 24/20 Q1006 NOSIG RMK RWY11R 24003KT RWY29R 00000KT RWY11L 00000KT,
LCEN,2023-08-09 02:50,75.20,68.00,78.34,250.00,3.00,0.00,29.71,,6.21,,,,,,,,,,,,,,,,,75.20,LCEN 090250Z 25003KT CAVOK 24/20 Q1006 NOSIG RMK RWY11R 21004KT RWY29R 25003KT RWY11L 00000KT,
LCEN,2023-08-09 03:20,73.40,66.20,78.19,240.00,5.00,0.00,29.71,,6.21,,,,,,,,,,,,,,,,,73.40,LCEN 090320Z 24005KT CAVOK 23/19 Q1006 NOSIG RMK RWY11R 24003KT RWY29R 00000KT RWY11L 00000KT,
LCEN,2023-08-09 03:50,75.20,68.00,78.34,0.00,0.00,0.00,29.71,,6.21,,,,,,,,,,,,,,,,,75.20,LCEN 090350Z 00000KT CAVOK 24/20 Q1006 NOSIG RMK RWY11R 24003KT RWY29R 00000KT RWY11L 00000KT,
LCEN,2023-08-09 04:20,75.20,68.00,78.34,210.00,4.00,0.00,29.74,,6.21,,FEW,,,,2000.00,,,,,,,,,,,75.20,LCEN 090420Z 21004KT 9999 FEW020 24/20 Q1007 NOSIG RMK RWY11R 24003KT RWY29R 00000KT RWY11L 00000KT,
LCEN,2023-08-09 04:50,78.80,69.80,73.95,270.00,3.00,0.00,29.74,,6.21,,FEW,,,,2000.00,,,,,,,,,,,78.80,LCEN 090450Z 27003KT 9999 FEW020 26/21 Q1007 NOSIG RMK RWY11R 24003KT RWY29R 27003KT RWY11L 00000KT,
LCEN,2023-08-09 05:20,82.40,69.80,65.74,240.00,3.00,0.00,29.74,,6.21,,FEW,,,,2000.00,,,,,,,,,,,86.22,LCEN 090520Z 24003KT 9999 FEW020 28/21 Q1007 NOSIG RMK RWY11R 32003KT RWY29R 00000KT RWY11L 00000KT,
LCEN,2023-08-09 05:50,84.20,71.60,65.95,70.00,3.00,0.00,29.74,,6.21,,FEW,,,,2000.00,,,,,,,,,,,89.60,LCEN 090550Z 07003KT 9999 FEW020 29/22 Q1007 NOSIG RMK RWY11R 12003KT RWY29R 00000KT RWY11L 00000KT,
LCEN,2023-08-09 06:20,86.00,71.60,62.25,110.00,4.00,0.00,29.74,,6.21,,FEW,,,,2000.00,,,,,,,,,,,91.92,LCEN 090620Z 11004KT 9999 FEW020 30/22 Q1007 NOSIG RMK RWY11R 23004KT RWY29 00000KT RWY11L 00000KT,
LCEN,2023-08-09 06:50,87.80,69.80,55.29,250.00,4.00,0.00,29.74,,6.21,,FEW,,,,2000.00,,,,,,,,,,,92.71,LCEN 090650Z 25004KT 9999 FEW020 31/21 Q1007 NOSIG RMK RWY11R 14004KT RWY29R 00000KT RWY11L 00000KT,
LCEN,2023-08-09 07:20,87.80,69.80,55.29,110.00,5.00,0.00,29.74,,6.21,,FEW,,,,2000.00,,,,,,,,,,,92.71,LCEN 090720Z 11005KT 9999 FEW020 31/21 Q1007 NOSIG RMK RWY11R 12005KT RWY29R 00000KT RWY11L 14004KT,
LCEN,2023-08-09 07:50,89.60,69.80,52.23,140.00,7.00,0.00,29.74,,6.21,,FEW,,,,2000.00,,,,,,,,,,,94.85,LCEN 090750Z 14007KT 9999 FEW020 32/21 Q1007 NOSIG RMK RWY11R 10005KT RWY29R 16003KT RWY11L 14005KT,
LCEN,2023-08-09 08:20,91.40,68.00,46.41,130.00,4.00,0.00,29.74,,6.21,,FEW,,,,2000.00,,,,,,,,,,,95.55,LCEN 090820Z 13004KT 080V250 9999 FEW020 33/20 Q1007 NOSIG RMK RWY11R 14007KT 050V210 RWY29R 12005KT RWY11L 15006KT,
LCEN,2023-08-09 08:50,91.40,66.20,43.61,90.00,6.00,0.00,29.74,,6.21,,FEW,,,,2000.00,,,,,,,,,,,94.29,LCEN 090850Z 09006KT 9999 FEW020 33/19 Q1007 NOSIG RMK RWY11R 10007KT RWY29R 13004KT RWY11L 14005KT,
LCEN,2023-08-09 09:20,93.20,66.20,41.23,140.00,7.00,0.00,29.74,,6.21,,FEW,,,,2000.00,,,,,,,,,,,96.35,LCEN 090920Z 14007KT 9999 FEW020 34/19 Q1007 NOSIG RMK RWY11R 14008KT RWY29R 16009KT RWY11L 12004KT,
LCEN,2023-08-09 09:50,93.20,66.20,41.23,150.00,9.00,0.00,29.74,,6.21,,FEW,,,,2000.00,,,,,,,,,,,96.35,LCEN 090950Z 15009KT 9999 FEW020 34/19 Q1007 NOSIG RMK RWY11R 11008KT RWY29R 16008KT RWY11L 14006KT,
LCEN,2023-08-09 10:20,95.00,66.20,39.00,120.00,11.00,0.00,29.74,,6.21,,FEW,,,,2000.00,,,,,,,,,,,98.46,LCEN 091020Z 12011KT 9999 FEW020 35/19 Q1007 NOSIG RMK RWY11R 14010KT RWY29R 15007KT RWY11L 13009KT 090V160,
LCEN,2023-08-09 10:50,95.00,64.40,36.63,150.00,11.00,0.00,29.74,,6.21,,FEW,,,,2000.00,,,,,,,,,,,97.26,LCEN 091050Z 15011KT 9999 FEW020 35/18 Q1007 NOSIG RMK RWY11R 13007KT RWY29R 16009KT RWY11L 14006KT,
LCEN,2023-08-09 11:20,95.00,64.40,36.63,160.00,7.00,0.00,29.74,,6.21,,FEW,,,,2000.00,,,,,,,,,,,97.26,LCEN 091120Z 16007KT 9999 FEW020 35/18 Q1007 NOSIG RMK RWY11R 12007KT RWY29R 16007KT RWY11L 12007KT 010V170,
LCEN,2023-08-09 11:50,96.80,64.40,34.66,140.00,11.00,0.00,29.71,,6.21,,FEW,,,,2000.00,,,,,,,,,,,99.37,LCEN 091150Z 14011KT 9999 FEW020 36/18 Q1006 NOSIG RMK RWY11R 13011KT RWY29R 15008KT RWY11L 16008KT 110V210,
LCEN,2023-08-09 12:20,95.00,64.40,36.63,140.00,10.00,0.00,29.71,,6.21,,FEW,,,,2000.00,,,,,,,,,,,97.26,LCEN 091220Z 14010KT 9999 FEW020 35/18 Q1006 NOSIG RMK RWY11R 13010KT RWY29R 14007KT RWY11L 15008KT 050V200,
LCEN,2023-08-09 12:50,95.00,66.20,39.00,150.00,10.00,0.00,29.71,,6.21,,FEW,,,,2000.00,,,,,,,,,,,98.46,LCEN 091250Z 15010KT 100V230 9999 FEW020 35/19 Q1006 NOSIG RMK RWY11R 16009KT 100V210 RWY29R 16009KT 090V210 RWY11L 16008KT,
LCEN,2023-08-09 13:20,95.00,64.40,36.63,200.00,10.00,0.00,29.71,,6.21,,FEW,,,,2000.00,,,,,,,,,,,97.26,LCEN 091320Z 20010KT 9999 FEW020 35/18 Q1006 NOSIG RMK RWY11R 15009KT 140V310 RWY29R 15009KT RWY11L 18008KT,
LCEN,2023-08-09 13:50,95.00,66.20,39.00,150.00,10.00,0.00,29.71,,6.21,,FEW,,,,2000.00,,,,,,,,,,,98.46,LCEN 091350Z 15010KT 120V200 9999 FEW020 35/19 Q1006 NOSIG RMK RWY11R 21008KT RWY29R 15008KT RWY11L 25008KT,
LCEN,2023-08-09 14:20,93.20,68.00,43.88,160.00,12.00,0.00,29.71,,6.21,,FEW,,,,2000.00,,,,,,,,,,,97.67,LCEN 091420Z 16012KT 9999 FEW020 34/20 Q1006 NOSIG RMK RWY11R 27011KT RWY29R 20009KT RWY11L 27011KT 240V310,
LCEN,2023-08-09 14:50,93.20,69.80,46.67,240.00,8.00,0.00,29.71,,6.21,,FEW,,,,2000.00,,,,,,,,,,,99.17,LCEN 091450Z 24008KT 9999 FEW020 34/21 Q1006 NOSIG RMK RWY11R 28012KT RWY29R 28010KT RWY11L 29011KT,
LCEN,2023-08-09 15:20,91.40,69.80,49.36,270.00,12.00,0.00,29.71,,6.21,,FEW,,,,2000.00,,,,,,,,,,,96.99,LCEN 091520Z 27012KT 9999 FEW020 33/21 Q1006 NOSIG RMK RWY11R 28012KT RWY29R 28010KT RWY11L 29011KT,
LCEN,2023-08-09 15:50,89.60,69.80,52.23,270.00,12.00,0.00,29.74,,6.21,,FEW,,,,2000.00,,,,,,,,,,,94.85,LCEN 091550Z 27012KT 9999 FEW020 32/21 Q1007 NOSIG RMK RWY11R 28014KT RWY29R 27012KT RWY11L 29013KT,
LCEN,2023-08-09 16:20,87.80,69.80,55.29,270.00,14.00,0.00,29.74,,6.21,,FEW,,,,2000.00,,,,,,,,,,,92.71,LCEN 091620Z 27014KT 9999 FEW020 31/21 Q1007 NOSIG RMK RWY11R 28015KT RWY29R 28013KT RWY11L 29013KT,
LCEN,2023-08-09 16:50,86.00,69.80,58.55,280.00,16.00,0.00,29.74,,6.21,,FEW,,,,2000.00,,,,,,,,,,,90.58,LCEN 091650Z 28016KT 9999 FEW020 30/21 Q1007 NOSIG RMK RWY11R 29015KT RWY29R 28014KT RWY11L 30013KT,
LCEN,2023-08-09 17:20,84.20,69.80,62.03,270.00,13.00,0.00,29.74,,6.21,,FEW,,,,2000.00,,,,,,,,,,,88.43,LCEN 091720Z 27013KT 9999 FEW020 29/21 Q1007 NOSIG RMK RWY11R 29013KT RWY29R 28013KT RWY11L 29010KT,
LCEN,2023-08-09 17:50,84.20,69.80,62.03,270.00,14.00,0.00,29.77,,6.21,,FEW,,,,2000.00,,,,,,,,,,,88.43,LCEN 091750Z 27014KT 9999 FEW020 29/21 Q1008 NOSIG RMK RWY11R 29013KT RWY29R 28012KT RWY11L 29011KT,
LCEN,2023-08-09 18:20,82.40,69.80,65.74,270.00,11.00,0.00,29.77,,6.21,,FEW,,,,2000.00,,,,,,,,,,,86.22,LCEN 091820Z 27011KT 9999 FEW020 28/21 Q1008 NOSIG RMK RWY11R 29012KT RWY29R 28011KT RWY11L 29010KT,
LCEN,2023-08-09 18:50,82.40,69.80,65.74,270.00,11.00,0.00,29.77,,6.21,,FEW,,,,2000.00,,,,,,,,,,,86.22,LCEN 091850Z 27011KT 9999 FEW020 28/21 Q1008 NOSIG RMK RWY11R 28009KT RWY29R 28009KT RWY11L 29008KT,
LCEN,2023-08-09 19:20,82.40,71.60,69.90,280.00,10.00,0.00,29.77,,6.21,,FEW,,,,2000.00,,,,,,,,,,,87.18,LCEN 091920Z 28010KT 9999 FEW020 28/22 Q1008 NOSIG RMK RWY11R 29008KT RWY29R 28009KT RWY11L 29007KT,
LCEN,2023-08-09 19:50,82.40,69.80,65.74,270.00,9.00,0.00,29.77,,6.21,,FEW,,,,2000.00,,,,,,,,,,,86.22,LCEN 091950Z 27009KT 9999 FEW020 28/21 Q1008 NOSIG RMK RWY11R 28007KT RWY29R 28007KT RWY11L 28005KT,
LCEN,2023-08-09 20:20,80.60,71.60,74.11,290.00,8.00,0.00,29.80,,6.21,,FEW,,,,2000.00,,,,,,,,,,,84.57,LCEN 092020Z 29008KT 9999 FEW020 27/22 Q1009 NOSIG RMK RWY11R 30006KT RWY29R 29006KT RWY11L 30005KT,
LCEN,2023-08-09 20:50,80.60,71.60,74.11,300.00,7.00,0.00,29.80,,6.21,,FEW,,,,2000.00,,,,,,,,,,,84.57,LCEN 092050Z 30007KT 9999 FEW020 27/22 Q1009 NOSIG RMK RWY11R 30006KT RWY29R 30006KT RWY11L 31005KT,
LCEN,2023-08-09 21:20,80.60,71.60,74.11,300.00,7.00,0.00,29.80,,6.21,,FEW,,,,2000.00,,,,,,,,,,,84.57,LCEN 092120Z 30007KT 9999 FEW020 27/22 Q1009 NOSIG RMK RWY11R 30007KT RWY29R 30007KT RWYL 31006KT,
LCEN,2023-08-09 21:50,80.60,71.60,74.11,290.00,7.00,0.00,29.80,,6.21,,FEW,,,,2000.00,,,,,,,,,,,84.57,LCEN 092150Z 29007KT 9999 FEW020 27/22 Q1009 NOSIG RMK RWY11R 29008KT RWY29R 29007KT RWY11L 29006KT,
LCEN,2023-08-09 22:20,78.80,71.60,78.62,280.00,9.00,0.00,29.77,,6.21,,FEW,,,,2000.00,,,,,,,,,,,78.80,LCEN 092220Z 28009KT 9999 FEW020 26/22 Q1008 NOSIG RMK RWY11R 29007KT RWY29R 28007KT RWY11L 29005KT,
LCEN,2023-08-09 22:50,78.80,71.60,78.62,280.00,9.00,0.00,29.77,,6.21,,FEW,,,,2000.00,,,,,,,,,,,78.80,LCEN 092250Z 28009KT 9999 FEW020 26/22 Q1008 NOSIG RMK RWY11R 30004KT RWY29R 29008KT RWY11L 30006KT,
LCEN,2023-08-09 23:20,78.80,71.60,78.62,290.00,10.00,0.00,29.77,,6.21,,FEW,,,,2000.00,,,,,,,,,,,78.80,LCEN 092320Z 29010KT 9999 FEW020 26/22 Q1008 NOSIG RMK RWY11R 29007KT RWY29R 29007KT RWY11L 30006KT,
LCEN,2023-08-09 23:50,78.80,71.60,78.62,290.00,9.00,0.00,29.77,,6.21,,FEW,,,,2000.00,,,,,,,,,,,78.80,LCEN 092350Z 29009KT 9999 FEW020 26/22 Q1008 NOSIG RMK RWY11R 30006KT RWY29R 30007KT RWY11L 30005KT,
LCEN,2023-08-10 00:20,78.80,71.60,78.62,290.00,8.00,0.00,29.77,,6.21,,FEW,,,,2000.00,,,,,,,,,,,78.80,LCEN 100020Z 29008KT 9999 FEW020 26/22 Q1008 NOSIG RMK RWY11R 31005KT RWY29R 30007KT RWY11L 31005KT,
LCEN,2023-08-10 00:50,77.00,71.60,83.44,290.00,9.00,0.00,29.77,,6.21,,FEW,,,,2000.00,,,,,,,,,,,77.00,LCEN 100050Z 29009KT 9999 FEW020 25/22 Q1008 NOSIG RMK RWY11R 30006KT RWY29R 30007KT RWY11L 31006KT,
LCEN,2023-08-10 01:20,77.00,71.60,83.44,290.00,8.00,0.00,29.77,,6.21,,FEW,,,,2000.00,,,,,,,,,,,77.00,LCEN 100120Z 29008KT 9999 FEW020 25/22 Q1008 NOSIG RMK RWY11R 29006KT RWY29R 30006KT RWY11L 30006KT,
LCEN,2023-08-10 01:50,77.00,71.60,83.44,290.00,8.00,0.00,29.77,,6.21,,FEW,,,,2000.00,,,,,,,,,,,77.00,LCEN 100150Z 29008KT 9999 FEW020 25/22 Q1008 NOSIG RMK RWY11R 30005KT RWY29R 29006KT RWY11L 30005KT,
LCEN,2023-08-10 02:50,77.00,69.80,78.48,170.00,5.00,0.00,29.80,,6.21,,FEW,,,,2000.00,,,,,,,,,,,77.00,LCEN 100250Z 17005KT 9999 FEW020 25/21 Q1009 NOSIG RMK RWY11R 21005KT RWY29R 19004KT RWY11L 27003KT,
LCEN,2023-08-10 03:20,75.20,69.80,83.32,230.00,4.00,0.00,29.80,,6.21,,FEW,,,,2000.00,,,,,,,,,,,75.20,LCEN 100320Z 23004KT 9999 FEW020 24/21 Q1009 NOSIG RMK RWY11R 21005KT RWY29R 22005KT RWY11L 21001KT,
LCEN,2023-08-10 03:50,77.00,69.80,78.48,210.00,3.00,0.00,29.80,,6.21,,FEW,,,,2000.00,,,,,,,,,,,77.00,LCEN 100350Z 21003KT 9999 FEW020 25/21 Q1009 NOSIG RMK RWY11R 21005KT RWY29R 21004KT RWY11L 00000KT,
LCEN,2023-08-10 04:20,77.00,71.60,83.44,0.00,0.00,0.00,29.80,,6.21,,FEW,,,,2000.00,,,,,,,,,,,77.00,LCEN 100420Z 00000KT 9999 FEW020 25/22 Q1009 NOSIG RMK RWY11R 20004KT RWY29R 00000KT RWY11L 00000KT,
LCEN,2023-08-10 04:50,80.60,71.60,74.11,0.00,0.00,0.00,29.83,,6.21,,FEW,,,,2000.00,,,,,,,,,,,84.57,LCEN 100450Z 00000KT 9999 FEW020 27/22 Q1010 NOSIG RMK RWY11R 00000KT RWY29R 00000KT RWY11L 00000KT,
LCEN,2023-08-10 05:20,82.40,71.60,69.90,0.00,0.00,0.00,29.83,,6.21,,FEW,,,,2000.00,,,,,,,,,,,87.18,COR LCEN 100520Z 00000KT 9999 FEW020 28/22 Q1010 NOSIG RMK RWY11R 00000KT RWY29R 00000KT RWY11L 00000KT,
LCEN,2023-08-10 05:50,84.20,71.60,65.95,100.00,3.00,0.00,29.83,,6.21,,SCT,,,,2000.00,,,,,,,,,,,89.60,LCEN 100550Z 10003KT 9999 SCT020 29/22 Q1010 NOSIG RMK RWY11R 12005KT RWY29R 11003KT RWY11L 00000KT,
LCEN,2023-08-10 06:20,86.00,69.80,58.55,100.00,5.00,0.00,29.83,,6.21,,SCT,,,,2000.00,,,,,,,,,,,90.58,LCEN 100620Z 10005KT 9999 SCT020 30/21 Q1010 NOSIG RMK RWY11R 15003KT RWY29R 13006KT 090V170 RWY11L 16003KT,
LCEN,2023-08-10 06:50,87.80,69.80,55.29,130.00,7.00,0.00,29.83,,6.21,,BKN,,,,2000.00,,,,,,,,,,,92.71,LCEN 100650Z 13007KT 9999 BKN020 31/21 Q1010 NOSIG RMK RWY11R 15005KT RWY29R 16005KT RWY11L 15003KT,
LCEN,2023-08-10 07:20,87.80,69.80,55.29,230.00,7.00,0.00,29.83,,6.21,,BKN,,,,2000.00,,,,,,,,,,,92.71,LCEN 100720Z 23007KT 9999 BKN020 31/21 Q1010 NOSIG RMK RWY11R 12007KT RWY29R 14006KT RWY11L 17006KT,
LCEN,2023-08-10 07:50,89.60,69.80,52.23,160.00,8.00,0.00,29.83,,6.21,,BKN,,,,2000.00,,,,,,,,,,,94.85,COR LCEN 100750Z 16008KT 9999 BKN020 32/21 Q1010 NOSIG RMK RWY11R 16007KT RWY29R 18007KT 130V230 RWY11L 14005KT,
LCEN,2023-08-10 08:20,87.80,69.80,55.29,120.00,9.00,0.00,29.83,,6.21,,BKN,,,,2000.00,,,,,,,,,,,92.71,LCEN 100820Z 12009KT 9999 BKN020 31/21 Q1010 NOSIG RMK RWY11R 14007KT RWY29R 18006KT 140V230 RWY11L 18005KT,
LCEN,2023-08-10 08:50,91.40,68.00,46.41,160.00,8.00,0.00,29.83,,6.21,,SCT,,,,2000.00,,,,,,,,,,,95.55,LCEN 100850Z 16008KT 9999 SCT020 33/20 Q1010 NOSIG RMK RWY11R 13006KT RWY29R 19007KT 140V230 RWY11L 12008KT 090V210,
LCEN,2023-08-10 09:20,91.40,68.00,46.41,120.00,6.00,0.00,29.83,,6.21,,SCT,,,,2000.00,,,,,,,,,,,95.55,LCEN 100920Z 12006KT 9999 SCT020 33/20 Q1010 NOSIG RMK RWY11R 14009KT RWY29R 15007KT 110V180 RWY11L 16010KT,
LCEN,2023-08-10 09:50,93.20,68.00,43.88,120.00,6.00,0.00,29.83,,6.21,,SCT,,,,2000.00,,,,,,,,,,,97.67,LCEN 100950Z 12006KT 9999 SCT020 34/20 Q1010 NOSIG RMK RWY11R 15009KT RWY29R 13005KT RWY11L 15010KT,
LCEN,2023-08-10 10:20,93.20,68.00,43.88,210.00,8.00,0.00,29.83,,6.21,,SCT,,,,2000.00,,,,,,,,,,,97.67,LCEN 101020Z 21008KT 9999 SCT020 34/20 Q1010 NOSIG RMK RWY11R 15009KT RWY29R 19010KT RWY11L 15008KT 110V190,
LCEN,2023-08-10 10:50,93.20,66.20,41.23,130.00,6.00,0.00,29.80,,6.21,,SCT,,,,2500.00,,,,,,,,,,,96.35,LCEN 101050Z 13006KT 9999 SCT025 34/19 Q1009 NOSIG RMK RWY11R 12006KT RWY29R 08004KT RWY11L 14004KT,
LCEN,2023-08-10 11:20,95.00,66.20,39.00,200.00,8.00,0.00,29.80,,6.21,,FEW,,,,2500.00,,,,,,,,,,,98.46,LCEN 101120Z 20008KT 9999 FEW025 35/19 Q1009 NOSIG RMK RWY11R 11007KT RWY29R 15005KT RWY11L 11005KT,
LCEN,2023-08-10 11:50,96.80,66.20,36.90,130.00,10.00,0.00,29.80,,6.21,,FEW,,,,2500.00,,,,,,,,,,,100.60,LCEN 101150Z 13010KT 9999 FEW025 36/19 Q1009 NOSIG RMK RWY11R 12006KT RWY29R 17007KT RWY11L 19007KT 160V240,
LCEN,2023-08-10 12:20,96.80,68.00,39.27,210.00,10.00,0.00,29.80,,6.21,,FEW,,,,2500.00,,,,,,,,,,,102.01,LCEN 101220Z 21010KT 9999 FEW025 36/20 Q1009 NOSIG RMK RWY11R 15011KT RWY29R 17010KT 150V220 RWY11L 16009KT 120V190,
LCEN,2023-08-10 12:50,95.00,68.00,41.50,170.00,10.00,0.00,29.80,,6.21,,FEW,,,,2000.00,,,,,,,,,,,99.82,LCEN 101250Z 17010KT 130V200 9999 FEW020 35/20 Q1009 NOSIG RMK RWY11R 16009KT RWY29R 17010KT 130V200 RWY11L 15010KT 110V200,
LCEN,2023-08-10 13:20,93.20,68.00,43.88,150.00,11.00,0.00,29.80,,6.21,,FEW,,,,2500.00,,,,,,,,,,,97.67,LCEN 101320Z 15011KT 9999 FEW025 34/20 Q1009 NOSIG RMK RWY11R 15011KT RWY29R 17010KT 130V210 RWY11L 16010KT,
LCEN,2023-08-10 13:50,91.40,68.00,46.41,160.00,9.00,0.00,29.80,,6.21,,SCT,,,,2500.00,,,,,,,,,,,95.55,LCEN 101350Z 16009KT 9999 SCT025 33/20 Q1009 NOSIG RMK RWY11R 15010KT RWY29R 17009KT RWY11L 17011KT 120V190,
LCEN,2023-08-10 14:20,93.20,68.00,43.88,160.00,9.00,0.00,29.80,,6.21,,SCT,,,,2500.00,,,,,,,,,,,97.67,LCEN 101420Z 16009KT 140V210 9999 SCT025 34/20 Q1009 NOSIG RMK RWY11R 21010KT RWY29R 18008KT 150V210 RWY11L 26013KT 210V300,
LCEN,2023-08-10 14:50,93.20,71.60,49.62,200.00,10.00,0.00,29.80,,6.21,,SCT,,,,2500.00,,,,,,,,,,,100.88,LCEN 101450Z 20010KT 9999 SCT025 34/22 Q1009 NOSIG RMK RWY11R 28013KT RWY29R 27009KT 230V290 RWY11L 28013KT,
LCEN,2023-08-10 15:20,91.40,71.60,52.48,230.00,9.00,0.00,29.80,,6.21,,SCT,,,,3000.00,,,,,,,,,,,98.64,LCEN 101520Z 23009KT 9999 SCT030 33/22 Q1009 NOSIG RMK RWY11R 28015KT RWY29R 27011KT RWY11L 29013KT,
LCEN,2023-08-10 15:50,89.60,71.60,55.53,260.00,10.00,0.00,29.80,,6.21,,SCT,,,,3000.00,,,,,,,,,,,96.41,COR LCEN 101550Z 26010KT 9999 SCT030 32/22 Q1009 NOSIG RMK RWY11R 28015KT RWY29R 27014KT RWY11L 29014KT,
LCEN,2023-08-10 16:20,87.80,69.80,55.29,260.00,12.00,0.00,29.80,,6.21,,FEW,,,,2500.00,,,,,,,,,,,92.71,COR LCEN 101620Z 26012KT 9999 FEW025 31/21 Q1009 NOSIG RMK RWY11R 28015KT RWY29R 27014KT RWY11L 29013KT,
LCEN,2023-08-10 16:50,86.00,69.80,58.55,240.00,11.00,0.00,29.80,,6.21,,FEW,,,,2500.00,,,,,,,,,,,90.58,LCEN 101650Z 24011KT 9999 FEW025 30/21 Q1009 NOSIG RMK RWY11R 28015KT RWY29R 27014KT RWY11L 28013KT,
LCEN,2023-08-10 17:20,86.00,69.80,58.55,240.00,10.00,0.00,29.83,,6.21,,FEW,,,,2500.00,,,,,,,,,,,90.58,LCEN 101720Z 24010KT 9999 FEW025 30/21 Q1010 NOSIG RMK RWY11R 28014KT RWY29R 28013KT RWY11L 29012KT,
LCEN,2023-08-10 17:50,84.20,69.80,62.03,240.00,11.00,0.00,29.83,,6.21,,FEW,,,,2500.00,,,,,,,,,,,88.43,LCEN 101750Z 24011KT 9999 FEW025 29/21 Q1010 NOSIG RMK RWY11R 28013KT RWY29R 28013KT RWY11L 29011KT,
LCEN,2023-08-10 18:20,84.20,69.80,62.03,240.00,10.00,0.00,29.83,,6.21,,FEW,,,,2500.00,,,,,,,,,,,88.43,COR LCEN 101820Z 24010KT 9999 FEW025 29/21 Q1010 NOSIG RMK RWY11R 29012KT RWY29R 28011KT RWY11L 30011KT,
LCEN,2023-08-10 18:50,82.40,71.60,69.90,260.00,9.00,0.00,29.83,,6.21,,FEW,,,,2500.00,,,,,,,,,,,87.18,LCEN 101850Z 26009KT 9999 FEW025 28/22 Q1010 NOSIG RMK RWY11R 29010KT RWY29R 29010KT RWY11L 30008KT,
LCEN,2023-08-10 19:20,82.40,69.80,65.74,300.00,9.00,0.00,29.83,,6.21,,FEW,,,,2500.00,,,,,,,,,,,86.22,LCEN 101920Z 30009KT 9999 FEW025 28/21 Q1010 NOSIG RMK RWY11R 32007KT RWY29R 31007KT RWY11L 33007KT,
LCEN,2023-08-10 19:50,82.40,69.80,65.74,330.00,7.00,0.00,29.83,,6.21,,FEW,,,,2500.00,,,,,,,,,,,86.22,LCEN 101950Z 33007KT 9999 FEW025 28/21 Q1010 NOSIG RMK RWY11R 34006KT RWY29R 35006KT RWY11L 35005KT,
LCEN,2023-08-10 20:20,80.60,69.80,69.71,340.00,5.00,0.00,29.85,,6.21,,FEW,,,,2500.00,,,,,,,,,,,83.90,LCEN 102020Z 34005KT 9999 FEW025 27/21 Q1011 NOSIG RMK RWY11R 35004KT RWY29R 01004KT RWY11L 01004KT,
LCEN,2023-08-10 20:50,80.60,69.80,69.71,330.00,4.00,0.00,29.85,,6.21,,FEW,,,,2500.00,,,,,,,,,,,83.90,LCEN 102050Z 33004KT 9999 FEW025 27/21 Q1011 NOSIG RMK RWY11R 34005KT RWY29R 35003KT RWY11L 35003KT,
LCEN,2023-08-10 21:20,78.80,69.80,73.95,320.00,4.00,0.00,29.85,,6.21,,FEW,,,,2500.00,,,,,,,,,,,78.80,LCEN 102120Z 32004KT 9999 FEW025 26/21 Q1011 NOSIG RMK RWY11R 33005KT RWY29R 00000KT RWY11L 34004KT,
LCEN,2023-08-10 21:50,80.60,69.80,69.71,310.00,3.00,0.00,29.85,,6.21,,FEW,,,,2500.00,,,,,,,,,,,83.90,LCEN 102150Z 31003KT 9999 FEW025 27/21 Q1011 NOSIG RMK RWY11R 32004KT RWY29R 31003KT RWY11L 31005KT 290V350,
LCEN,2023-08-10 22:20,78.80,69.80,73.95,310.00,4.00,0.00,29.83,,6.21,,FEW,,,,2500.00,,,,,,,,,,,78.80,LCEN 102220Z 31004KT 9999 FEW025 26/21 Q1010 NOSIG RMK RWY11R 29005KT RWY29R 30003KT RWY11L 30004KT,
LCEN,2023-08-10 22:50,78.80,71.60,78.62,280.00,5.00,0.00,29.83,,6.21,,FEW,,,,2500.00,,,,,,,,,,,78.80,LCEN 102250Z 28005KT 9999 FEW025 26/22 Q1010 NOSIG RMK RWY11R 28005KT RWY29R 28005KT RWY11L 29004KT,
LCEN,2023-08-10 23:20,78.80,71.60,78.62,280.00,7.00,0.00,29.83,,6.21,,FEW,,,,2500.00,,,,,,,,,,,78.80,LCEN 102320Z 28007KT 9999 FEW025 26/22 Q1010 NOSIG RMK RWY11R 28005KT RWY29R 29005KT RWY11L 28004KT,
LCEN,2023-08-10 23:50,78.80,71.60,78.62,240.00,5.00,0.00,29.83,,6.21,,FEW,,,,2500.00,,,,,,,,,,,78.80,LCEN 102350Z 24005KT 9999 FEW025 26/22 Q1010 NOSIG RMK RWY11R 28006KT RWY29R 29006KT RWY11L 29005KT,