station,valid,tmpf,dwpf,relh,drct,sknt,p01i,alti,mslp,vsby,gust,skyc1,skyc2,skyc3,skyc4,skyl1,skyl2,skyl3,skyl4,wxcodes,ice_accretion_1hr,ice_accretion_3hr,ice_accretion_6hr,peak_wind_gust,peak_wind_drct,peak_wind_time,feel,metar,snowdepth
LFPO,2024-12-05 00:00,41.00,39.20,93.24,220.00,6.00,0.00,30.36,,6.21,,BKN,,,,900.00,,,,,,,,,,,36.37,LFPO 050000Z 22006KT 9999 BKN009 05/04 Q1028 NOSIG,
LFPO,2024-12-05 00:30,41.00,39.20,93.24,200.00,6.00,0.00,30.33,,6.21,,BKN,,,,800.00,,,,,,,,,,,36.37,LFPO 050030Z 20006KT 160V230 9999 BKN008 05/04 Q1027 NOSIG,
LFPO,2024-12-05 01:00,41.00,39.20,93.24,200.00,9.00,0.00,30.33,,6.21,,BKN,,,,700.00,,,,,,,,,,,34.70,LFPO 050100Z 20009KT 9999 BKN007 05/04 Q1027 NOSIG,
LFPO,2024-12-05 01:30,41.00,39.20,93.24,190.00,7.00,0.00,30.30,,5.59,,OVC,,,,600.00,,,,,,,,,,,35.75,LFPO 050130Z AUTO 19007KT 9000 OVC006 05/04 Q1026 TEMPO BKN004,
LFPO,2024-12-05 02:00,41.00,39.20,93.24,190.00,9.00,0.00,30.30,,4.97,,OVC,,,,600.00,,,,,,,,,,,34.70,LFPO 050200Z AUTO 19009KT 8000 OVC006 05/04 Q1026 TEMPO BKN004,
LFPO,2024-12-05 02:30,41.00,39.20,93.24,190.00,10.00,0.00,30.30,,5.59,,OVC,,,,600.00,,,,,,,,,,,34.25,LFPO 050230Z AUTO 19010KT 9000 OVC006 05/04 Q1026 TEMPO BKN004,
LFPO,2024-12-05 03:00,41.00,39.20,93.24,200.00,9.00,0.00,30.27,,5.59,,OVC,,,,600.00,,,,,,,,,,,34.70,LFPO 050300Z AUTO 20009KT 9000 OVC006 05/04 Q1025 TEMPO BKN004,
LFPO,2024-12-05 03:30,41.00,39.20,93.24,200.00,10.00,0.00,30.27,,6.21,,OVC,,,,600.00,,,,,,,,,,,34.25,LFPO 050330Z AUTO 20010KT 9999 OVC006 05/04 Q1025 TEMPO BKN004,
LFPO,2024-12-05 04:00,41.00,39.20,93.24,200.00,9.00,0.00,30.24,,6.21,,OVC,,,,600.00,,,,,,,,,,,34.70,LFPO 050400Z AUTO 20009KT 9999 OVC006 05/04 Q1024 TEMPO BKN004,
LFPO,2024-12-05 04:30,41.00,39.20,93.24,200.00,8.00,0.00,30.24,,4.97,,BKN,,,,600.00,,,,,,,,,,,35.20,LFPO 050430Z 20008KT 170V230 8000 BKN006 05/04 Q1024 NOSIG,
LFPO,2024-12-05 05:00,41.00,39.20,93.24,200.00,9.00,0.00,30.24,,6.21,,BKN,BKN,,,600.00,3000.00,,,,,,,,,,34.70,LFPO 050500Z 20009KT 9999 BKN006 BKN030 05/04 Q1024 NOSIG,
LFPO,2024-12-05 06:00,41.00,39.20,93.24,200.00,10.00,0.00,30.21,,6.21,,FEW,BKN,,,600.00,3000.00,,,,,,,,,,34.25,LFPO 050600Z 20010KT 9999 FEW006 BKN030 05/04 Q1023 BECMG BKN006,
LFPO,2024-12-05 06:30,41.00,37.40,86.89,200.00,10.00,0.00,30.21,,6.21,,FEW,BKN,,,1100.00,6600.00,,,,,,,,,,34.25,LFPO 050630Z 20010KT 9999 FEW011 BKN066 05/03 Q1023 BECMG BKN006,
LFPO,2024-12-05 07:00,41.00,37.40,86.89,200.00,11.00,0.00,30.18,,6.21,,FEW,OVC,,,1100.00,5000.00,,,-RA,,,,,,,33.84,LFPO 050700Z 20011KT 160V220 9999 -RA FEW011 OVC050 05/03 Q1022 BECMG BKN006,
LFPO,2024-12-05 07:30,41.00,39.20,93.24,200.00,12.00,0.00,30.15,,3.73,,SCT,OVC,,,2300.00,4600.00,,,-RA,,,,,,,33.46,LFPO 050730Z 20012KT 6000 -RA SCT023 OVC046 05/04 Q1021 BECMG BKN006,
LFPO,2024-12-05 08:00,41.00,39.20,93.24,200.00,13.00,0.00,30.15,,3.73,,BKN,OVC,,,1700.00,4600.00,,,-RA,,,,,,,33.10,LFPO 050800Z 20013KT 6000 -RA BKN017 OVC046 05/04 Q1021 BECMG BKN006,
LFPO,2024-12-05 08:30,41.00,39.20,93.24,200.00,11.00,0.00,30.15,,1.86,,BKN,OVC,,,1000.00,1600.00,,,-RA,,,,,,,33.84,LFPO 050830Z 20011KT 3000 -RA BKN010 OVC016 05/04 Q1021 BECMG BKN006,
LFPO,2024-12-05 09:00,41.00,39.20,93.24,200.00,13.00,0.00,30.12,,1.86,,BKN,,,,700.00,,,,-RA,,,,,,,33.10,LFPO 050900Z 20013KT 3000 -RA BKN007 05/04 Q1020 NOSIG,
LFPO,2024-12-05 09:30,41.00,41.00,100.00,200.00,12.00,0.00,30.12,,1.86,,OVC,,,,600.00,,,,-RA,,,,,,,33.46,LFPO 050930Z 20012KT 3000 -RA OVC006 05/05 Q1020 NOSIG,
LFPO,2024-12-05 10:00,41.00,41.00,100.00,200.00,11.00,0.00,30.12,,1.86,,OVC,,,,500.00,,,,-DZ BR,,,,,,,33.84,LFPO 051000Z 20011KT 150V220 3000 -DZ BR OVC005 05/05 Q1020 TEMPO BKN004,
LFPO,2024-12-05 10:30,42.80,41.00,93.30,200.00,10.00,0.00,30.09,,1.86,,OVC,,,,500.00,,,,-DZ BR,,,,,,,36.51,LFPO 051030Z 20010KT 180V240 3000 -DZ BR OVC005 06/05 Q1019 TEMPO OVC004,
LFPO,2024-12-05 11:00,42.80,42.80,100.00,200.00,11.00,0.00,30.09,,2.49,,OVC,,,,500.00,,,,-DZ BR,,,,,,,36.11,LFPO 051100Z 20011KT 4000 -DZ BR OVC005 06/06 Q1019 NOSIG,
LFPO,2024-12-05 11:30,44.60,44.60,100.00,210.00,11.00,0.00,30.06,,2.49,,OVC,,,,500.00,,,,-DZ BR,,,,,,,38.39,LFPO 051130Z 21011KT 4000 -DZ BR OVC005 07/07 Q1018 NOSIG,
LFPO,2024-12-05 12:00,44.60,44.60,100.00,210.00,13.00,0.00,30.06,,2.80,,OVC,,,,600.00,,,,-DZ BR,,,,,,,37.71,LFPO 051200Z 21013KT 4500 -DZ BR OVC006 07/07 Q1018 NOSIG,
LFPO,2024-12-05 12:30,46.40,44.60,93.40,210.00,13.00,0.00,30.06,,3.73,,OVC,,,,600.00,,,,-DZ,,,,,,,40.02,LFPO 051230Z 21013KT 6000 -DZ OVC006 08/07 Q1018 NOSIG,
LFPO,2024-12-05 13:00,46.40,44.60,93.40,210.00,11.00,0.00,30.03,,3.73,,OVC,,,,500.00,,,,-DZ,,,,,,,40.66,LFPO 051300Z 21011KT 180V240 6000 -DZ OVC005 08/07 Q1017 NOSIG,
LFPO,2024-12-05 13:30,46.40,44.60,93.40,200.00,10.00,0.00,30.03,,4.97,,OVC,,,,500.00,,,,-DZ,,,,,,,41.03,LFPO 051330Z 20010KT 8000 -DZ OVC005 08/07 Q1017 TEMPO BKN004,
LFPO,2024-12-05 14:00,46.40,46.40,100.00,210.00,11.00,0.00,30.03,,4.97,,OVC,,,,500.00,,,,,,,,,,,40.66,LFPO 051400Z 21011KT 8000 OVC005 08/08 Q1017 TEMPO BKN004,
LFPO,2024-12-05 14:30,48.20,46.40,93.45,220.00,10.00,0.00,30.03,,2.49,,OVC,,,,500.00,,,,-DZ BR,,,,,,,43.28,LFPO 051430Z 22010KT 4000 -DZ BR OVC005 09/08 Q1017 TEMPO BKN004,
LFPO,2024-12-05 15:00,48.20,46.40,93.45,210.00,10.00,0.00,30.00,,1.86,,OVC,,,,500.00,,,,-DZ BR,,,,,,,43.28,LFPO 051500Z 21010KT 3000 -DZ BR OVC005 09/08 Q1016 TEMPO BKN004,
LFPO,2024-12-05 15:30,48.20,46.40,93.45,210.00,10.00,0.00,30.00,,1.86,,OVC,,,,500.00,,,,-DZ BR,,,,,,,43.28,LFPO 051530Z 21010KT 3000 -DZ BR OVC005 09/08 Q1016 TEMPO BKN004,
LFPO,2024-12-05 16:00,48.20,46.40,93.45,210.00,11.00,0.00,30.00,,2.49,,OVC,,,,400.00,,,,-DZ BR,,,,,,,42.94,LFPO 051600Z 21011KT 4000 -DZ BR OVC004 09/08 Q1016 NOSIG,
LFPO,2024-12-05 16:30,48.20,48.20,100.00,210.00,11.00,0.00,29.97,,2.49,,OVC,,,,400.00,,,,-DZ BR,,,,,,,42.94,LFPO 051630Z 21011KT 4000 -DZ BR OVC004 09/09 Q1015 NOSIG,
LFPO,2024-12-05 17:00,48.20,48.20,100.00,210.00,10.00,0.00,29.97,,2.49,,OVC,,,,400.00,,,,-DZ BR,,,,,,,43.28,LFPO 051700Z 21010KT 4000 -DZ BR OVC004 09/09 Q1015 NOSIG,
LFPO,2024-12-05 17:30,48.20,48.20,100.00,190.00,8.00,0.00,29.94,,2.49,,OVC,,,,400.00,,,,-DZ BR,,,,,,,44.07,LFPO 051730Z 19008KT 160V220 4000 -DZ BR OVC004 09/09 Q1014 NOSIG,
LFPO,2024-12-05 18:00,48.20,48.20,100.00,200.00,12.00,0.00,29.91,,2.49,,OVC,,,,400.00,,,,-DZ BR,,,,,,,42.62,LFPO 051800Z 20012KT 4000 -DZ BR OVC004 09/09 Q1013 NOSIG,
LFPO,2024-12-05 18:30,50.00,48.20,93.50,200.00,11.00,0.00,29.88,,6.21,,OVC,,,,500.00,,,,,,,,,,,50.00,LFPO 051830Z AUTO 20011KT 160V220 9999 OVC005 10/09 Q1012,
LFPO,2024-12-05 19:00,50.00,48.20,93.50,200.00,12.00,0.00,29.85,,6.21,,OVC,,,,400.00,,,,,,,,,,,50.00,LFPO 051900Z AUTO 20012KT 180V240 9999 OVC004 10/09 Q1011,
LFPO,2024-12-05 19:30,50.00,48.20,93.50,210.00,14.00,0.00,29.85,,4.35,,OVC,,,,400.00,,,,,,,,,,,50.00,LFPO 051930Z AUTO 21014KT 7000 OVC004 10/09 Q1011,
LFPO,2024-12-05 20:00,50.00,50.00,100.00,220.00,14.00,0.00,29.85,,6.21,26.00,OVC,,,,500.00,,,,,,,,,,,50.00,LFPO 052000Z AUTO 22014G26KT 9999 OVC005 10/10 Q1011,
LFPO,2024-12-05 20:30,50.00,50.00,100.00,220.00,13.00,0.00,29.83,,6.21,,OVC,///,,,500.00,,,,-RA,,,,,,,50.00,LFPO 052030Z AUTO 22013KT 190V250 9999 -RA OVC005/// //////TCU 10/10 Q1010,
LFPO,2024-12-05 21:00,51.80,50.00,93.55,230.00,14.00,0.00,29.83,,6.21,,OVC,///,,,700.00,,,,-RA,,,,,,,51.80,LFPO 052100Z AUTO 23014KT 9999 -RA OVC007/// //////TCU 11/10 Q1010,
LFPO,2024-12-05 21:30,51.80,51.80,100.00,230.00,14.00,0.00,29.83,,6.21,,OVC,,,,600.00,,,,,,,,,,,51.80,LFPO 052130Z AUTO 23014KT 9999 OVC006 11/11 Q1010,
LFPO,2024-12-05 22:00,53.60,51.80,93.60,220.00,14.00,0.00,29.80,,6.21,,OVC,,,,700.00,,,,,,,,,,,53.60,LFPO 052200Z AUTO 22014KT 9999 OVC007 12/11 Q1009,
LFPO,2024-12-05 22:30,53.60,51.80,93.60,230.00,12.00,0.00,29.80,,6.21,,OVC,,,,700.00,,,,,,,,,,,53.60,LFPO 052230Z AUTO 23012KT 9999 OVC007 12/11 Q1009,
LFPO,2024-12-05 23:00,53.60,51.80,93.60,230.00,14.00,0.00,29.77,,6.21,,BKN,OVC,///,,700.00,1700.00,,,RA,,,,,,,53.60,LFPO 052300Z AUTO 23014KT 9999 2500 RA BKN007/// OVC017/// //////TCU 12/11 Q1008,
LFPO,2024-12-05 23:30,55.40,53.60,93.65,240.00,13.00,0.00,29.77,,6.21,,BKN,BKN,OVC,///,1000.00,1500.00,2500.00,,-RA,,,,,,,55.40,LFPO 052330Z AUTO 24013KT 9999 -RA BKN010/// BKN015/// OVC025/// //////CB 13/12 Q1008,
LFPO,2024-12-06 00:00,53.60,48.20,81.87,290.00,19.00,0.00,29.83,,6.21,35.00,FEW,SCT,BKN,///,900.00,1400.00,4300.00,,-RA,,,,,,,53.60,LFPO 060000Z AUTO 29019G35KT 9999 -RA FEW009/// SCT014/// BKN043/// //////CB 12/09 Q1010,
LFPO,2024-12-06 00:30,53.60,46.40,76.50,300.00,17.00,0.00,29.83,,6.21,,SCT,BKN,OVC,///,4600.00,5600.00,6800.00,,,,,,,,,53.60,LFPO 060030Z AUTO 30017KT 9999 SCT046/// BKN056/// OVC068/// //////TCU 12/08 Q1010,
LFPO,2024-12-06 01:00,53.60,44.60,71.45,300.00,16.00,0.00,29.83,,6.21,,,,,,,,,,,,,,,,,53.60,LFPO 060100Z AUTO 30016KT CAVOK 12/07 Q1010,
LFPO,2024-12-06 01:30,51.80,44.60,76.34,290.00,15.00,0.00,29.85,,6.21,,,,,,,,,,,,,,,,,51.80,LFPO 060130Z AUTO 29015KT CAVOK 11/07 Q1011,
LFPO,2024-12-06 02:00,51.80,44.60,76.34,290.00,11.00,0.00,29.88,,6.21,,FEW,SCT,,,3800.00,5800.00,,,,,,,,,,51.80,LFPO 060200Z AUTO 29011KT 9999 FEW038 SCT058 11/07 Q1012,
LFPO,2024-12-06 02:30,50.00,42.80,76.18,280.00,10.00,0.00,29.88,,6.21,,BKN,,,,3600.00,,,,,,,,,,,50.00,LFPO 060230Z AUTO 28010KT 9999 BKN036 10/06 Q1012,
LFPO,2024-12-06 03:00,48.20,42.80,81.47,270.00,11.00,0.00,29.91,,6.21,,FEW,,,,3900.00,,,,,,,,,,,42.94,LFPO 060300Z AUTO 27011KT 9999 FEW039 09/06 Q1013,
LFPO,2024-12-06 03:30,48.20,41.00,76.01,270.00,10.00,0.00,29.91,,6.21,,FEW,,,,3600.00,,,,,,,,,,,43.28,LFPO 060330Z AUTO 27010KT 9999 FEW036 09/05 Q1013,
LFPO,2024-12-06 04:00,48.20,42.80,81.47,270.00,7.00,0.00,29.94,,6.21,,BKN,,,,3600.00,,,,,,,,,,,44.53,LFPO 060400Z AUTO 27007KT 9999 BKN036 09/06 Q1014,
LFPO,2024-12-06 04:30,48.20,42.80,81.47,280.00,10.00,0.00,29.97,,6.21,,BKN,OVC,,,3200.00,4100.00,,,,,,,,,,43.28,LFPO 060430Z AUTO 28010KT 9999 BKN032 OVC041 09/06 Q1015,
LFPO,2024-12-06 05:00,48.20,42.80,81.47,280.00,8.00,0.00,29.97,,6.21,,BKN,OVC,,,3700.00,4300.00,,,,,,,,,,44.07,LFPO 060500Z AUTO 28008KT 240V300 9999 BKN037 OVC043 09/06 Q1015,
LFPO,2024-12-06 05:30,48.20,42.80,81.47,280.00,8.00,0.00,30.00,,6.21,,BKN,BKN,,,3400.00,4100.00,,,,,,,,,,44.07,LFPO 060530Z AUTO 28008KT 9999 BKN034 BKN041 09/06 Q1016,
LFPO,2024-12-06 06:30,46.40,41.00,81.34,260.00,8.00,0.00,30.03,,6.21,,SCT,,,,3600.00,,,,,,,,,,,41.85,LFPO 060630Z 26008KT 9999 SCT036 08/05 Q1017 NOSIG,
LFPO,2024-12-06 07:00,46.40,41.00,81.34,270.00,8.00,0.00,30.06,,6.21,,BKN,,,,3600.00,,,,,,,,,,,41.85,LFPO 060700Z 27008KT 9999 BKN036 08/05 Q1018 NOSIG,
LFPO,2024-12-06 07:30,46.40,41.00,81.34,260.00,6.00,0.00,30.09,,6.21,,BKN,,,,3600.00,,,,,,,,,,,42.87,LFPO 060730Z 26006KT 9999 BKN036 08/05 Q1019 NOSIG,
LFPO,2024-12-06 08:00,46.40,41.00,81.34,290.00,6.00,0.00,30.09,,6.21,,SCT,BKN,,,4000.00,26000.00,,,,,,,,,,42.87,LFPO 060800Z 29006KT 9999 SCT040 BKN260 08/05 Q1019 NOSIG,
LFPO,2024-12-06 08:30,46.40,41.00,81.34,280.00,5.00,0.00,30.12,,6.21,,FEW,SCT,,,4000.00,26000.00,,,,,,,,,,43.50,LFPO 060830Z 28005KT 250V310 9999 FEW040 SCT260 08/05 Q1020 NOSIG,
LFPO,2024-12-06 09:00,48.20,41.00,76.01,290.00,9.00,0.00,30.12,,6.21,,FEW,SCT,,,4000.00,16000.00,,,,,,,,,,43.66,LFPO 060900Z 29009KT 250V320 9999 FEW040 SCT160 09/05 Q1020 NOSIG,
LFPO,2024-12-06 09:30,48.20,41.00,76.01,290.00,8.00,0.00,30.12,,6.21,,,,,,,,,,,,,,,,,44.07,LFPO 060930Z 29008KT CAVOK 09/05 Q1020 NOSIG,
LFPO,2024-12-06 10:00,50.00,41.00,71.07,300.00,6.00,0.00,30.15,,6.21,,,,,,,,,,,,,,,,,50.00,LFPO 061000Z 30006KT 260V320 CAVOK 10/05 Q1021 NOSIG,
LFPO,2024-12-06 10:30,48.20,39.20,70.88,300.00,9.00,0.00,30.15,,6.21,,,,,,,,,,,,,,,,,43.66,LFPO 061030Z 30009KT 260V340 CAVOK 09/04 Q1021 NOSIG,
LFPO,2024-12-06 11:00,50.00,39.20,66.27,300.00,8.00,0.00,30.15,,6.21,,,,,,,,,,,,,,,,,50.00,LFPO 061100Z 30008KT 260V330 CAVOK 10/04 Q1021 NOSIG,
LFPO,2024-12-06 11:30,50.00,39.20,66.27,300.00,9.00,0.00,30.15,,6.21,,,,,,,,,,,,,,,,,50.00,LFPO 061130Z 30009KT 260V340 CAVOK 10/04 Q1021 NOSIG,
LFPO,2024-12-06 12:00,50.00,39.20,66.27,290.00,8.00,0.00,30.15,,6.21,,,,,,,,,,,,,,,,,50.00,LFPO 061200Z AUTO 29008KT CAVOK 10/04 Q1021 NOSIG,
LFPO,2024-12-06 12:30,50.00,39.20,66.27,300.00,13.00,0.00,30.15,,6.21,,,,,,,,,,,,,,,,,50.00,LFPO 061230Z 30013KT CAVOK 10/04 Q1021 NOSIG,
LFPO,2024-12-06 13:00,51.80,39.20,61.99,300.00,10.00,0.00,30.15,,6.21,,,,,,,,,,,,,,,,,51.80,LFPO 061300Z 30010KT 270V330 CAVOK 11/04 Q1021 NOSIG,
LFPO,2024-12-06 13:30,51.80,39.20,61.99,280.00,10.00,0.00,30.18,,6.21,,,,,,,,,,,,,,,,,51.80,LFPO 061330Z 28010KT CAVOK 11/04 Q1022 NOSIG,
LFPO,2024-12-06 14:00,50.00,39.20,66.27,290.00,9.00,0.00,30.15,,6.21,,,,,,,,,,,,,,,,,50.00,LFPO 061400Z 29009KT CAVOK 10/04 Q1021 NOSIG,
LFPO,2024-12-06 14:30,50.00,39.20,66.27,280.00,6.00,0.00,30.18,,6.21,,,,,,,,,,,,,,,,,50.00,LFPO 061430Z 28006KT 250V320 CAVOK 10/04 Q1022 NOSIG,
LFPO,2024-12-06 15:00,50.00,39.20,66.27,280.00,6.00,0.00,30.15,,6.21,,,,,,,,,,,,,,,,,50.00,LFPO 061500Z 28006KT CAVOK 10/04 Q1021 NOSIG,
LFPO,2024-12-06 15:30,48.20,39.20,70.88,270.00,6.00,0.00,30.18,,6.21,,,,,,,,,,,,,,,,,45.04,LFPO 061530Z 27006KT CAVOK 09/04 Q1022 NOSIG,
LFPO,2024-12-06 16:00,48.20,39.20,70.88,230.00,4.00,0.00,30.15,,6.21,,,,,,,,,,,,,,,,,46.34,LFPO 061600Z 23004KT CAVOK 09/04 Q1021 NOSIG,
LFPO,2024-12-06 16:30,46.40,39.20,75.84,220.00,4.00,0.00,30.18,,6.21,,,,,,,,,,,,,,,,,44.24,LFPO 061630Z 22004KT CAVOK 08/04 Q1022 NOSIG,
LFPO,2024-12-06 17:00,48.20,39.20,70.88,210.00,5.00,0.00,30.15,,6.21,,,,,,,,,,,,,,,,,45.63,LFPO 061700Z 21005KT CAVOK 09/04 Q1021 NOSIG,
LFPO,2024-12-06 17:30,46.40,41.00,81.34,190.00,5.00,0.00,30.15,,6.21,,FEW,BKN,,,3000.00,23000.00,,,,,,,,,,43.50,LFPO 061730Z 19005KT 9999 FEW030 BKN230 08/05 Q1021 NOSIG,
LFPO,2024-12-06 18:00,46.40,41.00,81.34,200.00,5.00,0.00,30.15,,6.21,,,,,,,,,,,,,,,,,43.50,LFPO 061800Z 20005KT CAVOK 08/05 Q1021 NOSIG,
LFPO,2024-12-06 18:30,46.40,41.00,81.34,180.00,6.00,0.00,30.15,,6.21,,,,,,,,,,,,,,,,,42.87,LFPO 061830Z 18006KT CAVOK 08/05 Q1021 NOSIG,
LFPO,2024-12-06 19:00,46.40,41.00,81.34,180.00,6.00,0.00,30.12,,6.21,,,,,,,,,,,,,,,,,42.87,LFPO 061900Z 18006KT CAVOK 08/05 Q1020 NOSIG,
LFPO,2024-12-06 19:30,46.40,41.00,81.34,200.00,8.00,0.00,30.12,,6.21,,,,,,,,,,,,,,,,,41.85,LFPO 061930Z 20008KT CAVOK 08/05 Q1020 NOSIG,
LFPO,2024-12-06 20:00,46.40,41.00,81.34,190.00,8.00,0.00,30.09,,6.21,,,,,,,,,,,,,,,,,41.85,LFPO 062000Z 19008KT CAVOK 08/05 Q1019 NOSIG,
LFPO,2024-12-06 20:30,46.40,42.80,87.19,200.00,10.00,0.00,30.09,,6.21,,,,,,,,,,,,,,,,,41.03,LFPO 062030Z 20010KT CAVOK 08/06 Q1019 NOSIG,
LFPO,2024-12-06 21:00,46.40,42.80,87.19,190.00,10.00,0.00,30.06,,6.21,,,,,,,,,,,,,,,,,41.03,LFPO 062100Z 19010KT CAVOK 08/06 Q1018 NOSIG,
LFPO,2024-12-06 21:30,46.40,42.80,87.19,200.00,9.00,0.00,30.03,,6.21,,FEW,SCT,BKN,,4600.00,9000.00,17000.00,,,,,,,,,41.42,LFPO 062130Z 20009KT 9999 FEW046 SCT090 BKN170 08/06 Q1017 NOSIG,
LFPO,2024-12-06 22:00,48.20,42.80,81.47,190.00,10.00,0.00,30.00,,6.21,,SCT,BKN,,,4000.00,7300.00,,,,,,,,,,43.28,LFPO 062200Z 19010KT 9999 SCT040 BKN073 09/06 Q1016 NOSIG,
LFPO,2024-12-06 22:30,46.40,42.80,87.19,190.00,8.00,0.00,30.00,,6.21,,SCT,BKN,BKN,,4000.00,5000.00,7300.00,,,,,,,,,41.85,LFPO 062230Z 19008KT 9999 SCT040 BKN050 BKN073 08/06 Q1016 NOSIG,
LFPO,2024-12-06 23:00,48.20,42.80,81.47,200.00,9.00,0.00,29.97,,6.21,,SCT,BKN,,,3300.00,4100.00,,,,,,,,,,43.66,LFPO 062300Z 20009KT 9999 SCT033 BKN041 09/06 Q1015 NOSIG,
LFPO,2024-12-06 23:30,46.40,44.60,93.40,190.00,10.00,0.00,29.97,,6.21,,SCT,SCT,BKN,,1000.00,1500.00,2500.00,,,,,,,,,41.03,LFPO 062330Z 19010KT 9999 SCT010 SCT015 BKN025 08/07 Q1015 NOSIG,
LFPO,2024-12-06 23:36,46.40,44.60,93.40,190.00,9.00,0.00,29.94,,6.21,,SCT,SCT,BKN,,1000.00,1500.00,2500.00,,-DZ,,,,,,,41.42,COR LFPO 062336Z 19009KT 9999 -DZ SCT010 SCT015 BKN025 08/07 Q1014 TEMPO 4000 RADZ,
LFPO,2024-12-07 00:00,46.40,44.60,93.40,190.00,10.00,0.00,29.94,,5.59,,BKN,BKN,BKN,,900.00,1500.00,2300.00,,,,,,,,,41.03,LFPO 070000Z 19010KT 9000 BKN009 BKN015 BKN023 08/07 Q1014 TEMPO 4000 RADZ,
LFPO,2024-12-07 00:08,46.40,44.60,93.40,190.00,10.00,0.00,29.91,,5.59,,BKN,BKN,BKN,,900.00,1500.00,2300.00,,,,,,,,,41.03,COR LFPO 070008Z 19010KT 9000 BKN009 BKN015 BKN023 08/07 Q1013 TEMPO 4000 RADZ,
LFPO,2024-12-07 00:30,48.20,44.60,87.28,190.00,10.00,0.00,29.91,,6.21,,OVC,,,,900.00,,,,,,,,,,,43.28,LFPO 070030Z 19010KT 9999 OVC009 09/07 Q1013 TEMPO 4000 RADZ,
LFPO,2024-12-07 01:00,48.20,46.40,93.45,200.00,10.00,0.00,29.88,,6.21,,OVC,,,,800.00,,,,,,,,,,,43.28,LFPO 070100Z 20010KT 9999 OVC008 09/08 Q1012 TEMPO 4000 RADZ,
LFPO,2024-12-07 01:30,48.20,46.40,93.45,200.00,11.00,0.00,29.85,,6.21,,OVC,///,,,800.00,,,,-RA,,,,,,,42.94,LFPO 070130Z AUTO 20011KT 9999 -RA OVC008/// //////CB 09/08 Q1011 TEMPO 20015G25KT 4000 -RA BKN005,
LFPO,2024-12-07 02:00,48.20,46.40,93.45,190.00,12.00,0.00,29.83,,4.35,,OVC,///,,,800.00,,,,RA,,,,,,,42.62,LFPO 070200Z AUTO 19012KT 7000 RA OVC008/// //////CB 09/08 Q1010 TEMPO 20015G25KT 4000 -RA BKN005,
LFPO,2024-12-07 02:30,48.20,48.20,100.00,190.00,12.00,0.00,29.80,,3.73,,OVC,///,,,600.00,,,,RA,,,,,,,42.62,LFPO 070230Z AUTO 19012KT 6000 RA OVC006/// //////CB 09/09 Q1009 TEMPO 20015G30KT 3000 RA BKN007,
LFPO,2024-12-07 03:00,50.00,48.20,93.50,190.00,11.00,0.00,29.74,,6.21,,BKN,OVC,///,,600.00,1100.00,,,-RA,,,,,,,50.00,LFPO 070300Z AUTO 19011KT 9999 -RA BKN006/// OVC011/// //////TCU 10/09 Q1007 TEMPO 20015G30KT 3000 RA BKN007,
LFPO,2024-12-07 03:30,50.00,48.20,93.50,200.00,13.00,0.00,29.71,,3.73,,OVC,///,,,600.00,,,,RA,,,,,,,50.00,LFPO 070330Z AUTO 20013KT 6000 RA OVC006/// //////TCU 10/09 Q1006 TEMPO 20015G30KT 3000 RA BKN007,
LFPO,2024-12-07 04:00,51.80,50.00,93.55,210.00,14.00,0.00,29.71,,6.21,,BKN,OVC,///,,700.00,1100.00,,,-RA,,,,,,,51.80,LFPO 070400Z AUTO 21014KT 9999 -RA BKN007/// OVC011/// //////TCU 11/10 Q1006 TEMPO 20015G30KT 3000 RA BKN007,
LFPO,2024-12-07 04:30,51.80,50.00,93.55,210.00,13.00,0.00,29.65,,6.21,,OVC,,,,800.00,,,,-RA,,,,,,,51.80,COR LFPO 070430Z 21013KT 9999 -RA OVC008 11/10 Q1004 TEMPO 3000 RA,
LFPO,2024-12-07 05:00,53.60,51.80,93.60,210.00,13.00,0.00,29.65,,4.35,,OVC,,,,700.00,,,,-RA,,,,,,,53.60,LFPO 070500Z 21013KT 180V250 7000 -RA OVC007 12/11 Q1004 TEMPO 3000 RA,
LFPO,2024-12-07 05:30,51.80,48.20,87.47,260.00,15.00,0.00,29.65,,6.21,,SCT,BKN,,,700.00,1900.00,,,,,,,,,,51.80,LFPO 070530Z 26015KT 9999 SCT007 BKN019 11/09 Q1004 RERA NOSIG,
LFPO,2024-12-07 06:00,51.80,48.20,87.47,250.00,12.00,0.00,29.65,,6.21,,BKN,,,,4600.00,,,,,,,,,,,51.80,LFPO 070600Z 25012KT 9999 BKN046 11/09 Q1004 RERA NOSIG,
LFPO,2024-12-07 06:30,51.80,46.40,81.74,260.00,12.00,0.00,29.65,,6.21,,FEW,BKN,,,2200.00,4000.00,,,,,,,,,,51.80,LFPO 070630Z 26012KT 9999 FEW022 BKN040 11/08 Q1004 TEMPO 26015G25KT,
LFPO,2024-12-07 07:00,50.00,44.60,81.61,250.00,10.00,0.00,29.65,,6.21,,BKN,BKN,BKN,,3300.00,21000.00,26000.00,,,,,,,,,50.00,LFPO 070700Z 25010KT 9999 BKN033 BKN210 BKN260 10/07 Q1004 TEMPO 25015G25KT,
LFPO,2024-12-07 07:30,50.00,44.60,81.61,240.00,10.00,0.00,29.62,,6.21,,SCT,,,,3000.00,,,,,,,,,,,50.00,LFPO 070730Z 24010KT 9999 SCT030 10/07 Q1003 TEMPO 24015G25KT,
LFPO,2024-12-07 08:00,50.00,44.60,81.61,240.00,11.00,0.00,29.62,,6.21,,BKN,,,,2600.00,,,,,,,,,,,50.00,LFPO 070800Z 24011KT 9999 BKN026 10/07 Q1003 TEMPO 24015G25KT,
LFPO,2024-12-07 08:30,50.00,42.80,76.18,250.00,13.00,0.00,29.62,,6.21,,FEW,,,,2300.00,,,,,,,,,,,50.00,LFPO 070830Z 25013KT 9999 FEW023 10/06 Q1003 TEMPO 25015G30KT SHRA SCT030TCU,
LFPO,2024-12-07 09:00,50.00,44.60,81.61,250.00,11.00,0.00,29.65,,6.21,,SCT,,,,2500.00,,,,,,,,,,,50.00,LFPO 070900Z 25011KT 9999 SCT025 10/07 Q1004 TEMPO 25015G30KT SHRA SCT030TCU,
LFPO,2024-12-07 09:30,50.00,42.80,76.18,250.00,15.00,0.00,29.65,,6.21,27.00,FEW,SCT,,,2500.00,2900.00,,,,,,,,,,50.00,LFPO 070930Z 25015G27KT 9999 FEW025TCU SCT029 10/06 Q1004 TEMPO 25020G37KT SHRA,
LFPO,2024-12-07 10:00,50.00,42.80,76.18,260.00,15.00,0.00,29.62,,6.21,25.00,FEW,BKN,,,2700.00,9000.00,,,,,,,,,,50.00,LFPO 071000Z 26015G25KT 9999 FEW027 BKN090 10/06 Q1003 TEMPO 26018G35KT,
LFPO,2024-12-07 10:30,50.00,42.80,76.18,250.00,17.00,0.00,29.62,,6.21,,FEW,BKN,,,2700.00,9000.00,,,,,,,,,,50.00,LFPO 071030Z 25017KT 9999 FEW027 BKN090 10/06 Q1003 TEMPO 25018G35KT,
LFPO,2024-12-07 11:00,50.00,41.00,71.07,260.00,18.00,0.00,29.62,,6.21,,FEW,SCT,BKN,,2500.00,2800.00,10000.00,,,,,,,,,50.00,LFPO 071100Z 26018KT 9999 FEW025TCU SCT028 BKN100 10/05 Q1003 BECMG 26020G35KT SCT030,
LFPO,2024-12-07 11:30,50.00,41.00,71.07,260.00,18.00,0.00,29.62,,6.21,,BKN,BKN,,,2800.00,13000.00,,,,,,,,,,50.00,LFPO 071130Z 26018KT 220V280 9999 BKN028 BKN130 10/05 Q1003 BECMG 26020G35KT,
LFPO,2024-12-07 12:04,50.00,41.00,71.07,250.00,17.00,0.00,29.59,,6.21,,BKN,,,,2900.00,,,,,,,,,,,50.00,LFPO 071204Z 25017KT 9999 BKN029 10/05 Q1002 BECMG 25020G35KT,
LFPO,2024-12-07 12:30,50.00,41.00,71.07,250.00,19.00,0.00,29.59,,6.21,29.00,SCT,BKN,,,2700.00,6000.00,,,,,,,,,,50.00,LFPO 071230Z 25019G29KT 9999 SCT027 BKN060 10/05 Q1002 NOSIG,
LFPO,2024-12-07 13:00,50.00,39.20,66.27,250.00,20.00,0.00,29.59,,6.21,,SCT,SCT,,,2700.00,6000.00,,,,,,,,,,50.00,LFPO 071300Z 25020KT 9999 SCT027 SCT060 10/04 Q1002 BECMG 25020G37KT SCT020TCU,
LFPO,2024-12-07 13:30,50.00,39.20,66.27,250.00,19.00,0.00,29.59,,6.21,,SCT,FEW,,,2700.00,6000.00,,,VCSH,,,,,,,50.00,LFPO 071330Z 25019KT 9999 VCSH SCT027 FEW060TCU 10/04 Q1002 BECMG 25022G40KT SHRA,
LFPO,2024-12-07 14:00,48.20,37.40,66.05,250.00,20.00,0.00,29.56,,6.21,,FEW,FEW,SCT,,3300.00,3500.00,15000.00,,VCSH,,,,,,,40.66,LFPO 071400Z 25020KT 9999 VCSH FEW033 FEW035TCU SCT150 09/03 Q1001 BECMG 26022G40KT SHRA,
LFPO,2024-12-07 14:34,48.20,37.40,66.05,250.00,17.00,0.00,29.56,,6.21,,FEW,SCT,,,3200.00,17000.00,,,,,,,,,,41.30,LFPO 071434Z 25017KT 9999 FEW032 SCT170 09/03 Q1001 TEMPO 25022G40KT 4500 SHRA BKN016TCU,
LFPO,2024-12-07 15:00,48.20,37.40,66.05,250.00,20.00,0.00,29.56,,6.21,,BKN,BKN,,,3200.00,17000.00,,,,,,,,,,40.66,LFPO 071500Z 25020KT 9999 BKN032 BKN170 09/03 Q1001 TEMPO 25020G37KT 3500 SHRA BKN016TCU,
LFPO,2024-12-07 15:39,46.40,37.40,70.68,250.00,20.00,0.00,29.56,,6.21,,FEW,BKN,BKN,,3000.00,3200.00,12000.00,,-SHRA,,,,,,,38.26,LFPO 071539Z 25020KT 9999 -SHRA FEW030TCU BKN032 BKN120 08/03 Q1001 TEMPO 25020G37KT 3500 SHRA,
LFPO,2024-12-07 16:00,46.40,39.20,75.84,250.00,18.00,0.00,29.56,,6.21,,BKN,BKN,,,2400.00,4000.00,,,-RA,,,,,,,38.70,LFPO 071600Z 25018KT 9999 -RA BKN024TCU BKN040 08/04 Q1001 TEMPO 25020G35KT 3500 SHRA,
LFPO,2024-12-07 16:30,44.60,39.20,81.20,230.00,17.00,0.00,29.53,,6.21,,BKN,BKN,,,2400.00,4000.00,,,-RA,,,,,,,36.58,LFPO 071630Z 23017KT 9999 -RA BKN024TCU BKN040 07/04 Q1000 TEMPO 25020G35KT 3500 RA,
LFPO,2024-12-07 17:00,44.60,41.00,87.09,230.00,16.00,0.00,29.53,,4.97,27.00,BKN,,,,1800.00,,,,-RA,,,,,,,36.84,LFPO 071700Z 23016G27KT 200V260 8000 -RA BKN018 07/05 Q1000 TEMPO 25020G37KT 4500 RA BKN014TCU,
LFPO,2024-12-07 17:30,44.60,41.00,87.09,250.00,16.00,0.00,29.53,,4.97,,BKN,,,,1600.00,,,,-RA,,,,,,,36.84,LFPO 071730Z 25016KT 8000 -RA BKN016 07/05 Q1000 TEMPO 25017G32KT 4500 RA BKN014TCU,
LFPO,2024-12-07 18:00,44.60,41.00,87.09,250.00,15.00,0.00,29.53,,5.59,,FEW,BKN,,,1300.00,1500.00,,,-RA,,,,,,,37.11,LFPO 071800Z 25015KT 220V280 9000 -RA FEW013TCU BKN015 07/05 Q1000 TEMPO 25015G30KT 4500 RA BKN014TCU,
LFPO,2024-12-07 18:30,44.60,41.00,87.09,260.00,15.00,0.00,29.53,,4.35,,FEW,BKN,,,1300.00,1500.00,,,-RA,,,,,,,37.11,LFPO 071830Z 26015KT 7000 -RA FEW013TCU BKN015 07/05 Q1000 RERA TEMPO 26015G30KT 4500 RA BKN014TCU,
LFPO,2024-12-07 19:00,44.60,41.00,87.09,260.00,13.00,0.00,29.53,,4.35,,BKN,FEW,,,1600.00,1800.00,,,-RA,,,,,,,37.71,LFPO 071900Z 26013KT 7000 -RA BKN016 FEW018TCU 07/05 Q1000 RERA TEMPO 26015G25KT 4500 RA BKN014TCU,
LFPO,2024-12-07 19:30,44.60,41.00,87.09,270.00,10.00,0.00,29.53,,4.97,,BKN,FEW,,,1400.00,1800.00,,,-RA,,,,,,,38.77,LFPO 071930Z 27010KT 8000 -RA BKN014 FEW018TCU 07/05 Q1000 RERA NOSIG,
LFPO,2024-12-07 20:00,44.60,42.80,93.35,280.00,12.00,0.00,29.53,,6.21,,BKN,FEW,,,1200.00,1800.00,,,-RA,,,,,,,38.04,LFPO 072000Z 28012KT 9999 -RA BKN012 FEW018TCU 07/06 Q1000 NOSIG,
LFPO,2024-12-07 20:30,44.60,42.80,93.35,280.00,11.00,0.00,29.53,,6.21,,BKN,FEW,,,1400.00,2000.00,,,-RA,,,,,,,38.39,LFPO 072030Z 28011KT 9999 -RA BKN014 FEW020TCU 07/06 Q1000 NOSIG,
LFPO,2024-12-07 21:00,44.60,41.00,87.09,290.00,13.00,0.00,29.56,,6.21,,BKN,FEW,,,1500.00,2100.00,,,-RA,,,,,,,37.71,LFPO 072100Z 29013KT 9999 -RA BKN015 FEW021TCU 07/05 Q1001 NOSIG,
LFPO,2024-12-07 21:30,44.60,41.00,87.09,290.00,12.00,0.00,29.56,,6.21,,BKN,FEW,,,1500.00,2100.00,,,-RA,,,,,,,38.04,LFPO 072130Z 29012KT 9999 -RA BKN015 FEW021TCU 07/05 Q1001 NOSIG,
LFPO,2024-12-07 22:00,44.60,41.00,87.09,290.00,14.00,0.00,29.56,,6.21,,BKN,BKN,,,1600.00,2300.00,,,-RA,,,,,,,37.40,LFPO 072200Z 29014KT 9999 -RA BKN016 BKN023 07/05 Q1001 NOSIG,
LFPO,2024-12-07 22:30,44.60,41.00,87.09,290.00,13.00,0.00,29.56,,6.21,,BKN,BKN,,,1200.00,2000.00,,,-RA,,,,,,,37.71,LFPO 072230Z 29013KT 9999 -RA BKN012 BKN020 07/05 Q1001 NOSIG,
LFPO,2024-12-07 23:00,44.60,41.00,87.09,290.00,12.00,0.00,29.59,,6.21,,BKN,BKN,,,1200.00,2000.00,,,-RA,,,,,,,38.04,LFPO 072300Z 29012KT 9999 -RA BKN012 BKN020 07/05 Q1002 NOSIG,
LFPO,2024-12-07 23:30,44.60,41.00,87.09,290.00,12.00,0.00,29.59,,4.97,,BKN,OVC,,,1200.00,1800.00,,,-RA,,,,,,,38.04,LFPO 072330Z AUTO 29012KT 8000 -RA BKN012 OVC018 07/05 Q1002 TEMPO 4000 SHRA BKN012 BKN018TCU BECMG 28015G25KT,
LFPO,2024-12-08 00:00,44.60,42.80,93.35,290.00,12.00,0.00,29.59,,6.21,,BKN,OVC,,,1200.00,1700.00,,,-RA,,,,,,,38.04,LFPO 080000Z AUTO 29012KT 9999 -RA BKN012 OVC017 07/06 Q1002 TEMPO 4000 SHRA BKN012 BKN018TCU BECMG 28015G25KT,
LFPO,2024-12-08 00:30,44.60,41.00,87.09,290.00,12.00,0.00,29.62,,6.21,,BKN,BKN,OVC,,1500.00,2000.00,2500.00,,,,,,,,,38.04,LFPO 080030Z AUTO 29012KT 9999 BKN015 BKN020 OVC025 07/05 Q1003 TEMPO 4000 SHRA BKN012 BKN018TCU BECMG 28015G25KT,
LFPO,2024-12-08 01:00,44.60,42.80,93.35,290.00,13.00,0.00,29.62,,6.21,,BKN,BKN,OVC,,1300.00,2000.00,2500.00,,-RA,,,,,,,37.71,LFPO 080100Z AUTO 29013KT 9999 -RA BKN013 BKN020 OVC025 07/06 Q1003 TEMPO 4000 SHRA BKN012 BKN018TCU BECMG 28015G25KT,
LFPO,2024-12-08 01:30,44.60,41.00,87.09,300.00,11.00,0.00,29.62,,6.21,,BKN,OVC,,,1300.00,2000.00,,,-RADZ,,,,,,,38.39,LFPO 080130Z AUTO 30011KT 270V330 9999 -RADZ BKN013 OVC020 07/05 Q1003 TEMPO 4000 SHRA BKN012 BKN018TCU BECMG 28015G25KT,
LFPO,2024-12-08 02:00,44.60,41.00,87.09,300.00,12.00,0.00,29.62,,6.21,,OVC,,,,1200.00,,,,-DZ,,,,,,,38.04,LFPO 080200Z AUTO 30012KT 270V330 9999 -DZ OVC012 07/05 Q1003 TEMPO 4000 SHRA BKN012 BKN018TCU BECMG 28015G25KT,
LFPO,2024-12-08 02:30,44.60,41.00,87.09,290.00,12.00,0.00,29.65,,6.21,,BKN,BKN,,,1200.00,2000.00,,,-RA,,,,,,,38.04,LFPO 080230Z 29012KT 9999 -RA BKN012 BKN020 07/05 Q1004 NOSIG,
LFPO,2024-12-08 03:00,44.60,41.00,87.09,300.00,11.00,0.00,29.65,,6.21,,BKN,BKN,,,1300.00,2000.00,,,-RA,,,,,,,38.39,LFPO 080300Z 30011KT 270V330 9999 -RA BKN013 BKN020 07/05 Q1004 NOSIG,
LFPO,2024-12-08 03:30,44.60,41.00,87.09,300.00,13.00,0.00,29.65,,6.21,23.00,BKN,BKN,,,1400.00,2000.00,,,-RA,,,,,,,37.71,LFPO 080330Z 30013G23KT 9999 -RA BKN014 BKN020 07/05 Q1004 NOSIG,
LFPO,2024-12-08 04:00,44.60,41.00,87.09,300.00,13.00,0.00,29.65,,4.97,,BKN,BKN,,,1200.00,2000.00,,,-RA,,,,,,,37.71,LFPO 080400Z 30013KT 8000 -RA BKN012 BKN020 07/05 Q1004 NOSIG,
LFPO,2024-12-08 04:30,44.60,41.00,87.09,310.00,13.00,0.00,29.65,,6.21,,BKN,BKN,,,1400.00,2000.00,,,,,,,,,,37.71,LFPO 080430Z 31013KT 9999 BKN014 BKN020 07/05 Q1004 NOSIG,
LFPO,2024-12-08 05:00,46.40,41.00,81.34,310.00,13.00,0.00,29.65,,6.21,25.00,BKN,BKN,,,1800.00,2300.00,,,,,,,,,,40.02,LFPO 080500Z 31013G25KT 270V340 9999 BKN018 BKN023 08/05 Q1004 NOSIG,
LFPO,2024-12-08 05:30,46.40,41.00,81.34,310.00,15.00,0.00,29.65,,6.21,26.00,BKN,BKN,,,2000.00,2500.00,,,,,,,,,,39.45,LFPO 080530Z 31015G26KT 280V340 9999 BKN020 BKN025 08/05 Q1004 NOSIG,
LFPO,2024-12-08 06:00,46.40,41.00,81.34,320.00,18.00,0.00,29.65,,6.21,29.00,BKN,BKN,,,2000.00,2500.00,,,,,,,,,,38.70,LFPO 080600Z 32018G29KT 9999 BKN020 BKN025 08/05 Q1004 NOSIG,
LFPO,2024-12-08 06:30,46.40,41.00,81.34,310.00,15.00,0.00,29.65,,6.21,,BKN,BKN,,,1800.00,2900.00,,,,,,,,,,39.45,LFPO 080630Z 31015KT 280V340 9999 BKN018 BKN029 08/05 Q1004 NOSIG,
LFPO,2024-12-08 07:00,46.40,42.80,87.19,310.00,15.00,0.00,29.68,,6.21,,BKN,BKN,,,1500.00,2600.00,,,-RA,,,,,,,39.45,LFPO 080700Z 31015KT 9999 -RA BKN015 BKN026 08/06 Q1005 NOSIG,
LFPO,2024-12-08 07:30,46.40,42.80,87.19,310.00,14.00,0.00,29.68,,2.73,,BKN,BKN,,,1400.00,2000.00,,,-RA,,,,,,,39.72,LFPO 080730Z 31014KT 4400 -RA BKN014 BKN020 08/06 Q1005 NOSIG,
LFPO,2024-12-08 08:00,46.40,42.80,87.19,310.00,17.00,0.00,29.68,,4.35,,BKN,BKN,,,1400.00,2000.00,,,-RA,,,,,,,38.94,LFPO 080800Z 31017KT 7000 -RA BKN014 BKN020 08/06 Q1005 TEMPO 3000 SHRA BKN014TCU,
LFPO,2024-12-08 08:30,46.40,42.80,87.19,320.00,18.00,0.00,29.71,,2.49,28.00,BKN,BKN,,,1200.00,2000.00,,,-RA,,,,,,,38.70,LFPO 080830Z 32018G28KT 4000 -RA BKN012 BKN020 08/06 Q1006 TEMPO 3000 SHRA BKN014TCU,
LFPO,2024-12-08 09:00,46.40,42.80,87.19,320.00,17.00,0.00,29.71,,2.49,,BKN,BKN,,,1200.00,2000.00,,,-RA,,,,,,,38.94,LFPO 080900Z 32017KT 4000 -RA BKN012 BKN020 08/06 Q1006 TEMPO 3000 SHRA BKN014TCU,
LFPO,2024-12-08 09:30,46.40,42.80,87.19,320.00,18.00,0.00,29.71,,2.49,,BKN,BKN,,,1400.00,2000.00,,,-RA,,,,,,,38.70,LFPO 080930Z 32018KT 4000 -RA BKN014 BKN020 08/06 Q1006 TEMPO 3000 SHRA BKN014TCU,
LFPO,2024-12-08 10:00,46.40,42.80,87.19,320.00,17.00,0.00,29.71,,2.49,,BKN,BKN,,,1400.00,2000.00,,,-RA,,,,,,,38.94,LFPO 081000Z 32017KT 300V360 4000 -RA BKN014 BKN020 08/06 Q1006 TEMPO 3000 SHRA BKN014TCU,
LFPO,2024-12-08 10:30,46.40,42.80,87.19,330.00,17.00,0.00,29.71,,4.97,,FEW,BKN,BKN,,1500.00,1500.00,2000.00,,-RA,,,,,,,38.94,LFPO 081030Z 33017KT 8000 -RA FEW015TCU BKN015 BKN020 08/06 Q1006 TEMPO 3000 SHRA BKN014TCU,
LFPO,2024-12-08 11:00,46.40,42.80,87.19,330.00,17.00,0.00,29.71,,4.97,,FEW,FEW,BKN,BKN,1100.00,1400.00,1400.00,2000.00,-RA,,,,,,,38.94,LFPO 081100Z 33017KT 8000 -RA FEW011 FEW014TCU BKN014 BKN020 08/06 Q1006 TEMPO 33020G30KT 3500 SHRA,
LFPO,2024-12-08 11:30,46.40,42.80,87.19,330.00,17.00,0.00,29.71,,6.21,27.00,FEW,BKN,BKN,,1400.00,1600.00,2500.00,,-RA,,,,,,,38.94,LFPO 081130Z 33017G27KT 9999 -RA FEW014TCU BKN016 BKN025 08/06 Q1006 TEMPO 3500 SHRA BKN013TCU,
LFPO,2024-12-08 12:00,46.40,42.80,87.19,330.00,18.00,0.00,29.74,,4.35,,BKN,BKN,,,1600.00,2500.00,,,-RA,,,,,,,38.70,LFPO 081200Z 33018KT 7000 -RA BKN016 BKN025 08/06 Q1007 TEMPO 33020G30KT 3500 SHRA BKN013TCU,
LFPO,2024-12-08 12:30,46.40,42.80,87.19,340.00,17.00,0.00,29.74,,4.97,,BKN,BKN,,,1600.00,2500.00,,,-RA,,,,,,,38.94,LFPO 081230Z 34017KT 310V010 8000 -RA BKN016 BKN025 08/06 Q1007 TEMPO 33020G30KT 3500 SHRA BKN013TCU,
LFPO,2024-12-08 13:00,46.40,42.80,87.19,340.00,16.00,0.00,29.74,,4.35,,BKN,BKN,,,1900.00,2600.00,,,-RA,,,,,,,39.19,LFPO 081300Z 34016KT 7000 -RA BKN019 BKN026 08/06 Q1007 TEMPO 33020G30KT 3500 SHRA BKN013TCU,
LFPO,2024-12-08 13:30,46.40,42.80,87.19,340.00,15.00,0.00,29.74,,4.35,,BKN,BKN,,,1900.00,2600.00,,,-RA,,,,,,,39.45,LFPO 081330Z 34015KT 310V010 7000 -RA BKN019 BKN026 08/06 Q1007 TEMPO 33020G30KT 3500 SHRA BKN013TCU,
LFPO,2024-12-08 14:00,46.40,42.80,87.19,340.00,14.00,0.00,29.74,,6.21,,BKN,BKN,,,1900.00,2600.00,,,-RA,,,,,,,39.72,LFPO 081400Z 34014KT 320V020 9999 -RA BKN019 BKN026 08/06 Q1007 TEMPO 33020G30KT 3500 SHRA BKN013TCU,
LFPO,2024-12-08 14:30,44.60,42.80,93.35,350.00,17.00,0.00,29.77,,6.21,,BKN,BKN,,,1500.00,2600.00,,,-RA,,,,,,,36.58,LFPO 081430Z 35017KT 310V010 9999 4000N -RA BKN015 BKN026 07/06 Q1008 TEMPO 33020G30KT 3500 SHRA BKN013TCU,
LFPO,2024-12-08 15:00,44.60,42.80,93.35,360.00,14.00,0.00,29.77,,4.97,,BKN,BKN,,,1500.00,2600.00,,,-RA,,,,,,,37.40,LFPO 081500Z 36014KT 330V030 8000 -RA BKN015 BKN026 07/06 Q1008 TEMPO 33020G30KT 3500 SHRA BKN013TCU,
LFPO,2024-12-08 15:30,44.60,42.80,93.35,350.00,14.00,0.00,29.80,,2.49,,FEW,BKN,BKN,,1000.00,1500.00,2100.00,,-RA,,,,,,,37.40,LFPO 081530Z 35014KT 4000 -RA FEW010 BKN015 BKN021 07/06 Q1009 TEMPO 33020G30KT 3500 SHRA BKN013TCU,
LFPO,2024-12-08 16:00,44.60,42.80,93.35,350.00,14.00,0.00,29.80,,4.97,,BKN,BKN,,,1200.00,2100.00,,,-RA,,,,,,,37.40,LFPO 081600Z 35014KT 8000 -RA BKN012 BKN021 07/06 Q1009 NOSIG,
LFPO,2024-12-08 16:30,44.60,42.80,93.35,360.00,14.00,0.00,29.80,,4.97,,BKN,,,,1100.00,,,,-RA,,,,,,,37.40,LFPO 081630Z 36014KT 320V030 8000 -RA BKN011 07/06 Q1009 NOSIG,
LFPO,2024-12-08 17:00,44.60,42.80,93.35,10.00,14.00,0.00,29.83,,4.97,,BKN,,,,1000.00,,,,-RA,,,,,,,37.40,LFPO 081700Z 01014KT 340V040 8000 -RA BKN010 07/06 Q1010 NOSIG,
LFPO,2024-12-08 17:30,44.60,42.80,93.35,10.00,15.00,0.00,29.83,,4.97,,BKN,,,,1100.00,,,,,,,,,,,37.11,LFPO 081730Z 01015KT 350V050 8000 BKN011 07/06 Q1010 NOSIG,
LFPO,2024-12-08 18:00,44.60,42.80,93.35,10.00,13.00,0.00,29.85,,4.97,,BKN,,,,1000.00,,,,,,,,,,,37.71,LFPO 081800Z 01013KT 8000 BKN010 07/06 Q1011 TEMPO BKN009,
LFPO,2024-12-08 18:30,44.60,42.80,93.35,10.00,13.00,0.00,29.88,,6.21,,OVC,,,,1100.00,,,,,,,,,,,37.71,LFPO 081830Z 01013KT 9999 OVC011 07/06 Q1012 TEMPO BKN009,
LFPO,2024-12-08 19:00,44.60,42.80,93.35,20.00,14.00,0.00,29.88,,6.21,,BKN,,,,1100.00,,,,,,,,,,,37.40,LFPO 081900Z 02014KT 9999 BKN011 07/06 Q1012 TEMPO BKN009,
LFPO,2024-12-08 19:30,44.60,42.80,93.35,20.00,14.00,0.00,29.91,,6.21,,BKN,,,,1100.00,,,,,,,,,,,37.40,LFPO 081930Z 02014KT 9999 BKN011 07/06 Q1013 TEMPO BKN009,
LFPO,2024-12-08 20:00,44.60,41.00,87.09,20.00,15.00,0.00,29.91,,6.21,,BKN,,,,1100.00,,,,,,,,,,,37.11,LFPO 082000Z 02015KT 9999 BKN011 07/05 Q1013 TEMPO BKN009,
LFPO,2024-12-08 20:30,44.60,41.00,87.09,20.00,13.00,0.00,29.94,,6.21,,BKN,BKN,,,1300.00,7600.00,,,,,,,,,,37.71,LFPO 082030Z 02013KT 9999 BKN013 BKN076 07/05 Q1014 NOSIG,
LFPO,2024-12-08 21:00,44.60,41.00,87.09,20.00,11.00,0.00,29.94,,6.21,,BKN,BKN,,,1300.00,2300.00,,,,,,,,,,38.39,LFPO 082100Z 02011KT 9999 BKN013 BKN023 07/05 Q1014 NOSIG,
LFPO,2024-12-08 21:30,44.60,41.00,87.09,20.00,14.00,0.00,29.97,,6.21,,BKN,BKN,,,1300.00,2300.00,,,,,,,,,,37.40,LFPO 082130Z 02014KT 9999 BKN013 BKN023 07/05 Q1015 NOSIG,
LFPO,2024-12-08 22:00,44.60,41.00,87.09,30.00,13.00,0.00,30.00,,6.21,,BKN,BKN,BKN,,1300.00,2300.00,4000.00,,,,,,,,,37.71,LFPO 082200Z 03013KT 9999 BKN013 BKN023 BKN040 07/05 Q1016 NOSIG,
LFPO,2024-12-08 22:30,44.60,41.00,87.09,30.00,12.00,0.00,30.00,,6.21,,BKN,BKN,,,1400.00,3900.00,,,,,,,,,,38.04,LFPO 082230Z 03012KT 9999 BKN014 BKN039 07/05 Q1016 NOSIG,
LFPO,2024-12-08 23:00,44.60,41.00,87.09,30.00,11.00,0.00,30.03,,6.21,,SCT,SCT,BKN,,1500.00,2600.00,3300.00,,,,,,,,,38.39,LFPO 082300Z 03011KT 9999 SCT015 SCT026 BKN033 07/05 Q1017 NOSIG,
LFPO,2024-12-08 23:30,44.60,41.00,87.09,20.00,12.00,0.00,30.03,,6.21,,SCT,SCT,BKN,,1600.00,2700.00,3300.00,,,,,,,,,38.04,LFPO 082330Z 02012KT 9999 SCT016 SCT027 BKN033 07/05 Q1017 NOSIG,
LFPO,2024-12-09 00:00,44.60,41.00,87.09,30.00,12.00,0.00,30.06,,6.21,,SCT,SCT,BKN,,1700.00,3000.00,3600.00,,,,,,,,,38.04,LFPO 090000Z 03012KT 9999 SCT017 SCT030 BKN036 07/05 Q1018 NOSIG,
LFPO,2024-12-09 00:30,44.60,39.20,81.20,20.00,12.00,0.00,30.06,,6.21,,SCT,BKN,,,2000.00,3600.00,,,,,,,,,,38.04,LFPO 090030Z 02012KT 9999 SCT020 BKN036 07/04 Q1018 NOSIG,
LFPO,2024-12-09 01:00,44.60,39.20,81.20,20.00,13.00,0.00,30.06,,6.21,,SCT,BKN,,,1800.00,3600.00,,,,,,,,,,37.71,LFPO 090100Z 02013KT 9999 SCT018 BKN036 07/04 Q1018 NOSIG,
LFPO,2024-12-09 01:30,44.60,39.20,81.20,20.00,12.00,0.00,30.09,,6.21,,BKN,BKN,,,1500.00,14000.00,,,,,,,,,,38.04,LFPO 090130Z AUTO 02012KT 9999 BKN015 BKN140 07/04 Q1019 TEMPO BKN008,
LFPO,2024-12-09 02:00,42.80,39.20,86.99,20.00,15.00,0.00,30.09,,6.21,,BKN,OVC,,,1500.00,2000.00,,,,,,,,,,34.78,LFPO 090200Z AUTO 02015KT 9999 BKN015 OVC020 06/04 Q1019 TEMPO BKN008,
LFPO,2024-12-09 02:30,42.80,39.20,86.99,20.00,17.00,0.00,30.09,,6.21,,OVC,,,,1500.00,,,,,,,,,,,34.22,LFPO 090230Z AUTO 02017KT 9999 OVC015 06/04 Q1019 TEMPO BKN008,
LFPO,2024-12-09 03:00,42.80,37.40,81.07,20.00,14.00,0.00,30.09,,6.21,,BKN,OVC,,,1600.00,16000.00,,,,,,,,,,35.08,LFPO 090300Z AUTO 02014KT 9999 BKN016 OVC160 06/03 Q1019 TEMPO BKN008,
LFPO,2024-12-09 03:30,41.00,37.40,86.89,20.00,14.00,0.00,30.09,,6.21,,BKN,,,,1700.00,,,,,,,,,,,32.76,LFPO 090330Z AUTO 02014KT 9999 BKN017 05/03 Q1019 TEMPO BKN008,
LFPO,2024-12-09 04:00,41.00,37.40,86.89,20.00,16.00,0.00,30.12,,6.21,,OVC,,,,1500.00,,,,,,,,,,,32.15,LFPO 090400Z AUTO 02016KT 9999 OVC015 05/03 Q1020 TEMPO BKN008,
LFPO,2024-12-09 04:30,41.00,37.40,86.89,20.00,13.00,0.00,30.12,,6.21,,BKN,,,,1600.00,,,,,,,,,,,33.10,LFPO 090430Z 02013KT 350V050 9999 BKN016 05/03 Q1020 NOSIG,
LFPO,2024-12-09 05:00,42.80,37.40,81.07,20.00,12.00,0.00,30.12,,6.21,,SCT,BKN,,,1900.00,2800.00,,,,,,,,,,35.75,LFPO 090500Z 02012KT 340V040 9999 SCT019 BKN028 06/03 Q1020 NOSIG,
LFPO,2024-12-09 05:30,42.80,37.40,81.07,10.00,13.00,0.00,30.12,,6.21,,BKN,BKN,,,1500.00,3000.00,,,,,,,,,,35.40,LFPO 090530Z 01013KT 350V050 9999 BKN015 BKN030 06/03 Q1020 NOSIG,
LFPO,2024-12-09 06:00,42.80,39.20,86.99,20.00,12.00,0.00,30.12,,6.21,,SCT,BKN,,,1300.00,2600.00,,,-RA,,,,,,,35.75,LFPO 090600Z 02012KT 9999 -RA SCT013 BKN026 06/04 Q1020 TEMPO BKN012,
LFPO,2024-12-09 06:30,42.80,39.20,86.99,10.00,12.00,0.00,30.12,,6.21,,BKN,BKN,,,1200.00,2400.00,,,-RA,,,,,,,35.75,LFPO 090630Z 01012KT 340V040 9999 -RA BKN012 BKN024 06/04 Q1020 NOSIG,
LFPO,2024-12-09 07:00,42.80,39.20,86.99,20.00,11.00,0.00,30.12,,6.21,,BKN,BKN,,,1300.00,2600.00,,,,,,,,,,36.11,LFPO 090700Z 02011KT 9999 BKN013 BKN026 06/04 Q1020 NOSIG,
LFPO,2024-12-09 07:30,42.80,39.20,86.99,20.00,12.00,0.00,30.15,,6.21,,BKN,BKN,,,1500.00,3300.00,,,-RA,,,,,,,35.75,LFPO 090730Z 02012KT 350V050 9999 -RA BKN015 BKN033 06/04 Q1021 NOSIG,
LFPO,2024-12-09 08:00,42.80,39.20,86.99,30.00,15.00,0.00,30.15,,6.21,,BKN,BKN,,,1500.00,3300.00,,,-RA,,,,,,,34.78,LFPO 090800Z 03015KT 350V050 9999 -RA BKN015 BKN033 06/04 Q1021 NOSIG,
LFPO,2024-12-09 08:30,41.00,37.40,86.89,30.00,16.00,0.00,30.15,,6.21,,BKN,BKN,,,1600.00,2500.00,,,-RA,,,,,,,32.15,LFPO 090830Z 03016KT 9999 -RA BKN016 BKN025 05/03 Q1021 NOSIG,
LFPO,2024-12-09 09:00,41.00,37.40,86.89,20.00,15.00,0.00,30.15,,6.21,,BKN,BKN,,,1600.00,2500.00,,,,,,,,,,32.45,LFPO 090900Z 02015KT 350V050 9999 BKN016 BKN025 05/03 Q1021 NOSIG,
LFPO,2024-12-09 09:30,41.00,35.60,80.93,20.00,15.00,0.00,30.18,,6.21,,BKN,BKN,,,2000.00,2800.00,,,-RA,,,,,,,32.45,LFPO 090930Z 02015KT 9999 -RA BKN020 BKN028 05/02 Q1022 NOSIG,
LFPO,2024-12-09 10:00,41.00,35.60,80.93,30.00,16.00,0.00,30.18,,6.21,,BKN,BKN,,,2000.00,2800.00,,,-RA,,,,,,,32.15,LFPO 091000Z 03016KT 9999 -RA BKN020 BKN028 05/02 Q1022 NOSIG,
LFPO,2024-12-09 10:30,42.80,33.80,70.28,30.00,15.00,0.00,30.18,,6.21,,SCT,BKN,,,2100.00,3800.00,,,,,,,,,,34.78,LFPO 091030Z 03015KT 9999 SCT021 BKN038 06/01 Q1022 NOSIG,
LFPO,2024-12-09 11:00,42.80,35.60,75.50,40.00,14.00,0.00,30.18,,6.21,,BKN,BKN,,,2200.00,4000.00,,,,,,,,,,35.08,LFPO 091100Z 04014KT 9999 BKN022 BKN040 06/02 Q1022 TEMPO 02015G30KT,
LFPO,2024-12-09 11:30,42.80,35.60,75.50,40.00,14.00,0.00,30.18,,6.21,,BKN,BKN,,,2200.00,4000.00,,,,,,,,,,35.08,LFPO 091130Z 04014KT 9999 BKN022 BKN040 06/02 Q1022 TEMPO 02015G30KT,
LFPO,2024-12-09 12:00,42.80,35.60,75.50,30.00,14.00,0.00,30.18,,6.21,,BKN,BKN,,,2200.00,4000.00,,,,,,,,,,35.08,LFPO 091200Z 03014KT 9999 BKN022 BKN040 06/02 Q1022 TEMPO 02015G30KT,
LFPO,2024-12-09 12:30,42.80,35.60,75.50,30.00,16.00,0.00,30.18,,6.21,,BKN,BKN,,,2000.00,4000.00,,,,,,,,,,34.50,LFPO 091230Z 03016KT 9999 BKN020 BKN040 06/02 Q1022 TEMPO 02015G30KT,
LFPO,2024-12-09 13:00,42.80,37.40,81.07,30.00,13.00,0.00,30.18,,6.21,,SCT,BKN,,,1700.00,3400.00,,,,,,,,,,35.40,LFPO 091300Z 03013KT 9999 SCT017 BKN034 06/03 Q1022 TEMPO 02015G30KT,
LFPO,2024-12-09 13:30,42.80,37.40,81.07,20.00,13.00,0.00,30.15,,6.21,23.00,SCT,BKN,,,1700.00,3600.00,,,,,,,,,,35.40,LFPO 091330Z 02013G23KT 9999 SCT017 BKN036 06/03 Q1021 TEMPO 02015G30KT,
LFPO,2024-12-09 14:00,42.80,37.40,81.07,20.00,11.00,0.00,30.15,,6.21,,BKN,BKN,,,1600.00,3100.00,,,,,,,,,,36.11,LFPO 091400Z 02011KT 9999 BKN016 BKN031 06/03 Q1021 NOSIG,
LFPO,2024-12-09 14:30,42.80,39.20,86.99,20.00,12.00,0.00,30.15,,6.21,,BKN,BKN,,,1800.00,3000.00,,,-RA,,,,,,,35.75,LFPO 091430Z 02012KT 350V050 9999 -RA BKN018 BKN030 06/04 Q1021 NOSIG,
LFPO,2024-12-09 15:00,42.80,39.20,86.99,20.00,13.00,0.00,30.15,,6.21,,BKN,BKN,,,1800.00,3000.00,,,,,,,,,,35.40,LFPO 091500Z 02013KT 9999 BKN018 BKN030 06/04 Q1021 NOSIG,
LFPO,2024-12-09 15:30,42.80,37.40,81.07,20.00,13.00,0.00,30.15,,6.21,,BKN,BKN,,,1800.00,2500.00,,,,,,,,,,35.40,LFPO 091530Z 02013KT 9999 BKN018 BKN025 06/03 Q1021 NOSIG,
LFPO,2024-12-09 16:00,42.80,37.40,81.07,20.00,16.00,0.00,30.18,,6.21,,OVC,,,,1700.00,,,,-RA,,,,,,,34.50,LFPO 091600Z 02016KT 9999 -RA OVC017 06/03 Q1022 NOSIG,
LFPO,2024-12-09 16:04,42.80,39.20,86.99,30.00,15.00,0.00,30.18,,4.35,,OVC,,,,1700.00,,,,-RA,,,,,,,34.78,COR LFPO 091604Z 03015KT 7000 -RA OVC017 06/04 Q1022 NOSIG,
LFPO,2024-12-09 16:30,41.00,39.20,93.24,30.00,13.00,0.00,30.18,,4.35,,OVC,,,,1500.00,,,,-RA,,,,,,,33.10,LFPO 091630Z 03013KT 7000 -RA OVC015 05/04 Q1022 NOSIG,
LFPO,2024-12-09 17:00,41.00,39.20,93.24,20.00,13.00,0.00,30.18,,4.35,,OVC,,,,1300.00,,,,-RA,,,,,,,33.10,LFPO 091700Z 02013KT 7000 -RA OVC013 05/04 Q1022 NOSIG,
LFPO,2024-12-09 17:30,41.00,37.40,86.89,30.00,14.00,0.00,30.18,,4.35,,BKN,BKN,,,1300.00,2000.00,,,-RA,,,,,,,32.76,LFPO 091730Z 03014KT 7000 -RA BKN013 BKN020 05/03 Q1022 NOSIG,
LFPO,2024-12-09 18:00,41.00,37.40,86.89,30.00,14.00,0.00,30.18,,6.21,,BKN,BKN,,,1300.00,2000.00,,,,,,,,,,32.76,LFPO 091800Z 03014KT 9999 BKN013 BKN020 05/03 Q1022 NOSIG,
LFPO,2024-12-09 18:30,41.00,37.40,86.89,40.00,13.00,0.00,30.21,,6.21,,BKN,BKN,,,1300.00,2000.00,,,,,,,,,,33.10,LFPO 091830Z 04013KT 9999 BKN013 BKN020 05/03 Q1023 NOSIG,
LFPO,2024-12-09 19:00,41.00,37.40,86.89,40.00,12.00,0.00,30.21,,6.21,,BKN,BKN,,,1400.00,2000.00,,,,,,,,,,33.46,LFPO 091900Z 04012KT 9999 BKN014 BKN020 05/03 Q1023 NOSIG,
LFPO,2024-12-09 19:30,41.00,37.40,86.89,30.00,12.00,0.00,30.21,,6.21,,BKN,BKN,,,1600.00,2300.00,,,,,,,,,,33.46,LFPO 091930Z 03012KT 9999 BKN016 BKN023 05/03 Q1023 NOSIG,
LFPO,2024-12-09 20:00,41.00,37.40,86.89,30.00,11.00,0.00,30.21,,6.21,,BKN,BKN,,,1500.00,7300.00,,,,,,,,,,33.84,LFPO 092000Z 03011KT 9999 BKN015 BKN073 05/03 Q1023 NOSIG,
LFPO,2024-12-09 20:30,41.00,37.40,86.89,40.00,12.00,0.00,30.21,,6.21,,BKN,BKN,,,1400.00,7000.00,,,,,,,,,,33.46,LFPO 092030Z 04012KT 9999 BKN014 BKN070 05/03 Q1023 NOSIG,
LFPO,2024-12-09 21:00,41.00,37.40,86.89,30.00,12.00,0.00,30.21,,6.21,,BKN,BKN,,,1300.00,3300.00,,,,,,,,,,33.46,LFPO 092100Z 03012KT 9999 BKN013 BKN033 05/03 Q1023 NOSIG,
LFPO,2024-12-09 21:30,41.00,37.40,86.89,30.00,14.00,0.00,30.24,,6.21,,BKN,BKN,,,1400.00,3300.00,,,,,,,,,,32.76,LFPO 092130Z 03014KT 9999 BKN014 BKN033 05/03 Q1024 NOSIG,
LFPO,2024-12-09 22:00,41.00,37.40,86.89,40.00,12.00,0.00,30.24,,6.21,,BKN,BKN,,,1500.00,3300.00,,,,,,,,,,33.46,LFPO 092200Z 04012KT 9999 BKN015 BKN033 05/03 Q1024 NOSIG,
LFPO,2024-12-09 22:30,41.00,37.40,86.89,40.00,10.00,0.00,30.24,,6.21,,BKN,BKN,,,1400.00,3300.00,,,,,,,,,,34.25,LFPO 092230Z 04010KT 9999 BKN014 BKN033 05/03 Q1024 NOSIG,
LFPO,2024-12-09 23:00,41.00,37.40,86.89,40.00,12.00,0.00,30.24,,6.21,,BKN,BKN,,,1400.00,3300.00,,,-RA,,,,,,,33.46,LFPO 092300Z 04012KT 9999 -RA BKN014 BKN033 05/03 Q1024 NOSIG,
LFPO,2024-12-09 23:30,41.00,35.60,80.93,40.00,13.00,0.00,30.24,,6.21,,FEW,BKN,,,1600.00,3600.00,,,,,,,,,,33.10,LFPO 092330Z 04013KT 9999 FEW016 BKN036 05/02 Q1024 NOSIG,
