station,valid,tmpf,dwpf,relh,drct,sknt,p01i,alti,mslp,vsby,gust,skyc1,skyc2,skyc3,skyc4,skyl1,skyl2,skyl3,skyl4,wxcodes,ice_accretion_1hr,ice_accretion_3hr,ice_accretion_6hr,peak_wind_gust,peak_wind_drct,peak_wind_time,feel,metar,snowdepth
LIPZ,1721348400,78.8,68.0,69.52,10.0,7.0,0.0,30.0,,6.21,,NCD,,,,,,,,,,,,,,,78.8,LIPZ 190020Z AUTO 01007KT 9999 // NCD 26/20 Q1016,
LIPZ,1721350200,78.8,66.2,65.33,20.0,8.0,0.0,30.0,,6.21,,NCD,,,,,,,,,,,,,,,78.8,LIPZ 190050Z AUTO 02008KT 9999 // NCD 26/19 Q1016,
LIPZ,1721352000,78.8,66.2,65.33,20.0,8.0,0.0,30.0,,6.21,,NCD,,,,,,,,,,,,,,,78.8,LIPZ 190120Z AUTO 02008KT 9999 // NCD 26/19 Q1016,
LIPZ,1721353800,77.0,66.2,69.33,20.0,7.0,0.0,30.0,,6.21,,NCD,,,,,,,,,,,,,,,77.0,LIPZ 190150Z AUTO 02007KT 9999 // NCD 25/19 Q1016,
LIPZ,1721355600,77.0,66.2,69.33,40.0,8.0,0.0,30.0,,6.21,,NCD,,,,,,,,,,,,,,,77.0,LIPZ 190220Z AUTO 04008KT 9999 // NCD 25/19 Q1016,
LIPZ,1721357400,77.0,66.2,69.33,40.0,7.0,0.0,30.0,,6.21,,NCD,,,,,,,,,,,,,,,77.0,LIPZ 190250Z AUTO 04007KT 9999 // NCD 25/19 Q1016,
LIPZ,1721359200,77.0,66.2,69.33,10.0,5.0,0.0,30.0,,6.21,,NCD,,,,,,,,,,,,,,,77.0,LIPZ 190320Z AUTO 01005KT 9999 // NCD 25/19 Q1016,
LIPZ,1721361000,75.2,66.2,73.61,30.0,5.0,0.0,30.0,,6.21,,NCD,,,,,,,,,,,,,,,75.2,LIPZ 190350Z AUTO 03005KT 9999 // NCD 24/19 Q1016,
LIPZ,1721362800,77.0,66.2,69.33,350.0,5.0,0.0,30.0,,6.21,,NCD,,,,,,,,,,,,,,,77.0,LIPZ 190420Z AUTO 35005KT 320V030 9999 // NCD 25/19 Q1016,
LIPZ,1721364600,78.8,66.2,65.33,10.0,6.0,0.0,30.0,,6.21,,NCD,,,,,,,,,,,,,,,78.8,LIPZ 190450Z AUTO 01006KT 9999 // NCD 26/19 Q1016,
LIPZ,1721366400,80.6,66.2,61.58,20.0,7.0,0.0,30.0,,6.21,,,,,,,,,,,,,,,,,82.75,LIPZ 190520Z 02007KT CAVOK 27/19 Q1016 NOSIG,
LIPZ,1721368200,80.6,68.0,65.54,20.0,7.0,0.0,30.0,,6.21,,,,,,,,,,,,,,,,,83.29,LIPZ 190550Z 02007KT CAVOK 27/20 Q1016 NOSIG,
LIPZ,1721370000,82.4,68.0,61.81,20.0,7.0,0.0,30.0,,6.21,,,,,,,,,,,,,,,,,85.38,LIPZ 190620Z 02007KT CAVOK 28/20 Q1016 NOSIG,
LIPZ,1721371800,84.2,68.0,58.32,30.0,7.0,0.0,30.0,,6.21,,,,,,,,,,,,,,,,,87.4,LIPZ 190650Z 03007KT CAVOK 29/20 Q1016 NOSIG,
LIPZ,1721373600,86.0,68.0,55.04,60.0,7.0,0.0,30.0,,6.21,,,,,,,,,,,,,,,,,89.41,LIPZ 190720Z 06007KT CAVOK 30/20 Q1016 NOSIG,
LIPZ,1721375400,87.8,68.0,51.98,60.0,6.0,0.0,30.0,,6.21,,,,,,,,,,,,,,,,,91.43,LIPZ 190750Z 06006KT 010V080 CAVOK 31/20 Q1016 NOSIG,
LIPZ,1721377200,87.8,68.0,51.98,50.0,6.0,0.0,30.0,,6.21,,,,,,,,,,,,,,,,,91.43,LIPZ 190820Z 05006KT 010V090 CAVOK 31/20 Q1016 NOSIG,
LIPZ,1721379000,89.6,66.2,46.14,70.0,7.0,0.0,30.0,,6.21,,,,,,,,,,,,,,,,,92.27,LIPZ 190850Z 07007KT CAVOK 32/19 Q1016 NOSIG,
LIPZ,1721380800,89.6,68.0,49.1,60.0,6.0,0.0,30.0,,6.21,,,,,,,,,,,,,,,,,93.47,LIPZ 190920Z 06006KT 020V090 CAVOK 32/20 Q1016 NOSIG,
LIPZ,1721382600,89.6,68.0,49.1,100.0,5.0,0.0,29.97,,6.21,,,,,,,,,,,,,,,,,93.47,LIPZ 190950Z 10005KT 070V140 CAVOK 32/20 Q1015 NOSIG,
LIPZ,1721384400,89.6,69.8,52.23,130.0,5.0,0.0,29.97,,6.21,,,,,,,,,,,,,,,,,94.85,LIPZ 191020Z 13005KT 100V160 CAVOK 32/21 Q1015 NOSIG,
LIPZ,1721386200,89.6,68.0,49.1,130.0,5.0,0.0,29.97,,6.21,,,,,,,,,,,,,,,,,93.47,LIPZ 191050Z 13005KT CAVOK 32/20 Q1015 NOSIG,
LIPZ,1721388000,89.6,68.0,49.1,150.0,6.0,0.0,29.97,,6.21,,,,,,,,,,,,,,,,,93.47,LIPZ 191120Z 15006KT 120V180 CAVOK 32/20 Q1015 NOSIG,
LIPZ,1721389800,91.4,71.6,52.48,150.0,5.0,0.0,29.94,,6.21,,,,,,,,,,,,,,,,,98.64,LIPZ 191150Z 15005KT CAVOK 33/22 Q1014 NOSIG,
LIPZ,1721391600,91.4,69.8,49.36,140.0,5.0,0.0,29.94,,6.21,,,,,,,,,,,,,,,,,96.99,LIPZ 191220Z 14005KT CAVOK 33/21 Q1014 NOSIG,
LIPZ,1721393400,91.4,69.8,49.36,160.0,5.0,0.0,29.91,,6.21,,,,,,,,,,,,,,,,,96.99,LIPZ 191250Z 16005KT CAVOK 33/21 Q1013 NOSIG,
LIPZ,1721395200,93.2,69.8,46.67,210.0,6.0,0.0,29.91,,6.21,,,,,,,,,,,,,,,,,99.17,LIPZ 191320Z 21006KT 160V240 CAVOK 34/21 Q1013 NOSIG,
LIPZ,1721397000,93.2,69.8,46.67,190.0,4.0,0.0,29.91,,6.21,,,,,,,,,,,,,,,,,99.17,LIPZ 191350Z 19004KT 160V220 CAVOK 34/21 Q1013 NOSIG,
LIPZ,1721398800,91.4,69.8,49.36,160.0,3.0,0.0,29.88,,6.21,,,,,,,,,,,,,,,,,96.99,LIPZ 191420Z 16003KT 130V190 CAVOK 33/21 Q1012 NOSIG,
LIPZ,1721400600,93.2,71.6,49.62,180.0,4.0,0.0,29.88,,6.21,,,,,,,,,,,,,,,,,100.88,LIPZ 191450Z 18004KT 140V240 CAVOK 34/22 Q1012 NOSIG,
LIPZ,1721402400,91.4,69.8,49.36,220.0,8.0,0.0,29.88,,6.21,,,,,,,,,,,,,,,,,96.99,LIPZ 191520Z 22008KT CAVOK 33/21 Q1012 NOSIG,
LIPZ,1721404200,91.4,71.6,52.48,220.0,7.0,0.0,29.88,,6.21,,,,,,,,,,,,,,,,,98.64,LIPZ 191550Z 22007KT CAVOK 33/22 Q1012 NOSIG,
LIPZ,1721406000,91.4,71.6,52.48,200.0,6.0,0.0,29.85,,6.21,,,,,,,,,,,,,,,,,98.64,LIPZ 191620Z 20006KT CAVOK 33/22 Q1011 NOSIG,
LIPZ,1721407800,89.6,71.6,55.53,210.0,7.0,0.0,29.85,,6.21,,,,,,,,,,,,,,,,,96.41,LIPZ 191650Z 21007KT CAVOK 32/22 Q1011 NOSIG,
LIPZ,1721409600,89.6,71.6,55.53,210.0,6.0,0.0,29.85,,6.21,,,,,,,,,,,,,,,,,96.41,LIPZ 191720Z 21006KT CAVOK 32/22 Q1011 NOSIG,
LIPZ,1721411400,89.6,73.4,59.01,210.0,6.0,0.0,29.85,,6.21,,,,,,,,,,,,,,,,,98.2,LIPZ 191750Z 21006KT CAVOK 32/23 Q1011 NOSIG,
LIPZ,1721413200,89.6,71.6,55.53,220.0,6.0,0.0,29.85,,6.21,,,,,,,,,,,,,,,,,96.41,LIPZ 191820Z 22006KT CAVOK 32/22 Q1011 NOSIG,
LIPZ,1721415000,87.8,71.6,58.78,260.0,6.0,0.0,29.85,,6.21,,FEW,,,,7000.0,,,,,,,,,,,94.18,LIPZ 191850Z 26006KT 230V290 9999 FEW070 31/22 Q1011 NOSIG,
LIPZ,1721416800,87.8,69.8,55.29,320.0,5.0,0.0,29.85,,6.21,,,,,,,,,,,,,,,,,92.71,LIPZ 191920Z 32005KT 280V030 CAVOK 31/21 Q1011 NOSIG,
LIPZ,1721418600,87.8,66.2,48.84,360.0,6.0,0.0,29.85,,6.21,,,,,,,,,,,,,,,,,90.31,LIPZ 191950Z 36006KT CAVOK 31/19 Q1011 NOSIG,
LIPZ,1721420400,87.8,66.2,48.84,10.0,10.0,0.0,29.88,,6.21,,FEW,,,,7000.0,,,,,,,,,,,90.31,LIPZ 192020Z 01010KT 9999 FEW070 31/19 Q1012 NOSIG,
LIPZ,1721422200,82.4,69.8,65.74,60.0,10.0,0.0,29.88,,6.21,,FEW,,,,7000.0,,,,,,,,,,,86.22,LIPZ 192050Z 06010KT 9999 FEW070 28/21 Q1012 NOSIG,
LIPZ,1721424000,80.6,66.2,61.58,40.0,12.0,0.0,29.88,,6.21,,SCT,,,,7000.0,,,,,,,,,,,82.75,LIPZ 192120Z 04012KT 9999 SCT070 27/19 Q1012 NOSIG,
LIPZ,1721425800,80.6,64.4,57.84,30.0,12.0,0.0,29.88,,6.21,,SCT,,,,7000.0,,,,,,,,,,,82.27,LIPZ 192150Z 03012KT 9999 SCT070 27/18 Q1012 NOSIG,
LIPZ,1721427600,78.8,64.4,61.36,40.0,10.0,0.0,29.88,,6.21,,FEW,,,,7000.0,,,,,,,,,,,78.8,LIPZ 192220Z 04010KT 9999 FEW070 26/18 Q1012 NOSIG,
LIPZ,1721429400,78.8,66.2,65.33,30.0,9.0,0.0,29.85,,6.21,,SCT,,,,7000.0,,,,,,,,,,,78.8,LIPZ 192250Z 03009KT 9999 SCT070 26/19 Q1011 NOSIG,
LIPZ,1721431200,78.8,66.2,65.33,20.0,9.0,0.0,29.85,,6.21,,SCT,,,,7000.0,,,,,,,,,,,78.8,LIPZ 192320Z 02009KT 9999 SCT070 26/19 Q1011 NOSIG,
LIPZ,1721433000,78.8,66.2,65.33,20.0,9.0,0.0,29.85,,6.21,,FEW,,,,7000.0,,,,,,,,,,,78.8,LIPZ 192350Z 02009KT 9999 FEW070 26/19 Q1011 NOSIG,
LIPZ,1721434800,78.8,66.2,65.33,20.0,10.0,0.0,29.85,,6.21,,FEW,,,,5000.0,,,,,,,,,,,78.8,LIPZ 200020Z 02010KT 9999 FEW050 26/19 Q1011 NOSIG,
LIPZ,1721436600,77.0,66.2,69.33,300.0,10.0,0.0,29.85,,6.21,,FEW,SCT,,,4000.0,5000.0,,,-TSRA,,,,,,,77.0,LIPZ 200050Z 30010KT 9999 -TSRA FEW040CB SCT050 25/19 Q1011 NOSIG,
LIPZ,1721438400,71.6,69.8,94.06,270.0,3.0,0.0,29.85,,4.35,,FEW,BKN,,,2000.0,4500.0,,,-RA VCTS,,,,,,,71.6,LIPZ 200120Z 27003KT 250V310 7000 -RA VCTS FEW020CB BKN045 22/21 Q1011 NOSIG,
LIPZ,1721440200,73.4,69.8,88.51,,2.0,0.0,29.85,,6.21,,FEW,BKN,,,2000.0,5000.0,,,-RA VCTS,,,,,,,73.4,LIPZ 200150Z VRB02KT 9999 -RA VCTS FEW020CB BKN050 23/21 Q1011 TEMPO TSRA,
LIPZ,1721442000,73.4,68.0,83.21,60.0,5.0,0.0,29.85,,6.21,,BKN,,,,4000.0,,,,,,,,,,,73.4,LIPZ 200220Z 06005KT 9999 BKN040 23/20 Q1011 TEMPO TSRA,
LIPZ,1721443800,71.6,69.8,94.06,300.0,9.0,0.0,29.85,,6.21,,BKN,,,,4000.0,,,,,,,,,,,71.6,LIPZ 200250Z 30009KT 270V350 9999 BKN040 22/21 Q1011 NOSIG,
LIPZ,1721445600,71.6,69.8,94.06,250.0,7.0,0.0,29.85,,6.21,,BKN,,,,5000.0,,,,,,,,,,,71.6,LIPZ 200320Z 25007KT 9999 BKN050 22/21 Q1011 NOSIG,
LIPZ,1721447400,71.6,69.8,94.06,260.0,3.0,0.0,29.83,,6.21,,BKN,,,,6000.0,,,,,,,,,,,71.6,LIPZ 200350Z 26003KT 9999 BKN060 22/21 Q1010 NOSIG,
LIPZ,1721449200,71.6,69.8,94.06,290.0,4.0,0.0,29.83,,6.21,,BKN,,,,7000.0,,,,,,,,,,,71.6,LIPZ 200420Z 29004KT 9999 BKN070 22/21 Q1010 NOSIG,
LIPZ,1721451000,71.6,69.8,94.06,320.0,5.0,0.0,29.83,,6.21,,,,,,,,,,,,,,,,,71.6,LIPZ 200450Z 32005KT 300V010 CAVOK 22/21 Q1010 NOSIG,
LIPZ,1721452800,71.6,69.8,94.06,330.0,7.0,0.0,29.83,,6.21,,,,,,,,,,,,,,,,,71.6,LIPZ 200520Z 33007KT 310V010 CAVOK 22/21 Q1010 NOSIG,
LIPZ,1721454600,73.4,69.8,88.51,330.0,6.0,0.0,29.83,,6.21,,,,,,,,,,,,,,,,,73.4,LIPZ 200550Z 33006KT 300V020 CAVOK 23/21 Q1010 NOSIG,
LIPZ,1721456400,73.4,69.8,88.51,320.0,7.0,0.0,29.83,,6.21,,FEW,,,,7000.0,,,,,,,,,,,73.4,LIPZ 200620Z 32007KT 9999 FEW070 23/21 Q1010 NOSIG,
LIPZ,1721458200,73.4,69.8,88.51,330.0,7.0,0.0,29.83,,6.21,,FEW,,,,7000.0,,,,,,,,,,,73.4,LIPZ 200650Z 33007KT 300V010 9999 FEW070 23/21 Q1010 NOSIG,
LIPZ,1721460000,75.2,69.8,83.32,330.0,7.0,0.0,29.83,,6.21,,FEW,,,,7000.0,,,,,,,,,,,75.2,LIPZ 200720Z 33007KT 9999 FEW070 24/21 Q1010 NOSIG,
LIPZ,1721461800,77.0,69.8,78.48,320.0,5.0,0.0,29.83,,6.21,,,,,,,,,,,,,,,,,77.0,LIPZ 200750Z 32005KT CAVOK 25/21 Q1010 NOSIG,
LIPZ,1721463600,80.6,66.2,61.58,20.0,9.0,0.0,29.83,,6.21,,,,,,,,,,,,,,,,,82.75,LIPZ 200820Z 02009KT 350V060 CAVOK 27/19 Q1010 NOSIG,
LIPZ,1721465400,80.6,68.0,65.54,60.0,8.0,0.0,29.83,,6.21,,FEW,,,,4000.0,,,,,,,,,,,83.29,LIPZ 200850Z 06008KT 9999 FEW040 27/20 Q1010 NOSIG,
LIPZ,1721467200,78.8,66.2,65.33,90.0,6.0,0.0,29.83,,6.21,,FEW,,,,3000.0,,,,,,,,,,,78.8,LIPZ 200920Z 09006KT 060V120 9999 FEW030 26/19 Q1010 NOSIG,
LIPZ,1721469000,80.6,66.2,61.58,80.0,6.0,0.0,29.83,,6.21,,FEW,,,,3000.0,,,,,,,,,,,82.75,LIPZ 200950Z 08006KT 9999 FEW030 27/19 Q1010 NOSIG,
LIPZ,1721470800,82.4,69.8,65.74,120.0,6.0,0.0,29.83,,6.21,,FEW,,,,3000.0,,,,,,,,,,,86.22,LIPZ 201020Z 12006KT 090V160 9999 FEW030 28/21 Q1010 NOSIG,
LIPZ,1721472600,82.4,68.0,61.81,140.0,6.0,0.0,29.83,,6.21,,FEW,,,,3000.0,,,,,,,,,,,85.38,LIPZ 201050Z 14006KT 110V170 9999 FEW030 28/20 Q1010 NOSIG,
LIPZ,1721474400,80.6,68.0,65.54,160.0,6.0,0.0,29.83,,6.21,,FEW,,,,3000.0,,,,,,,,,,,83.29,LIPZ 201120Z 16006KT 130V190 9999 FEW030 27/20 Q1010 NOSIG,
LIPZ,1721476200,80.6,66.2,61.58,160.0,4.0,0.0,29.83,,6.21,,FEW,,,,3000.0,,,,,,,,,,,82.75,LIPZ 201150Z 16004KT 120V190 9999 FEW030 27/19 Q1010 NOSIG,
LIPZ,1721478000,80.6,68.0,65.54,170.0,4.0,0.0,29.8,,6.21,,FEW,,,,3000.0,,,,,,,,,,,83.29,LIPZ 201220Z 17004KT 120V200 9999 FEW030 27/20 Q1009 NOSIG,
LIPZ,1721479800,82.4,69.8,65.74,160.0,5.0,0.0,29.8,,6.21,,FEW,,,,3000.0,,,,,,,,,,,86.22,LIPZ 201250Z 16005KT 110V190 9999 FEW030 28/21 Q1009 NOSIG,
LIPZ,1721481600,82.4,69.8,65.74,170.0,4.0,0.0,29.8,,6.21,,,,,,,,,,,,,,,,,86.22,LIPZ 201320Z 17004KT 140V210 CAVOK 28/21 Q1009 NOSIG,
LIPZ,1721483400,82.4,68.0,61.81,160.0,5.0,0.0,29.8,,6.21,,,,,,,,,,,,,,,,,85.38,LIPZ 201350Z 16005KT 130V190 CAVOK 28/20 Q1009 NOSIG,
LIPZ,1721485200,82.4,68.0,61.81,150.0,5.0,0.0,29.8,,6.21,,,,,,,,,,,,,,,,,85.38,LIPZ 201420Z 15005KT 130V190 CAVOK 28/20 Q1009 NOSIG,
LIPZ,1721487000,82.4,69.8,65.74,160.0,5.0,0.0,29.8,,6.21,,,,,,,,,,,,,,,,,86.22,LIPZ 201450Z 16005KT 130V200 CAVOK 28/21 Q1009 NOSIG,
LIPZ,1721488800,82.4,66.2,58.08,160.0,6.0,0.0,29.8,,6.21,,,,,,,,,,,,,,,,,84.63,LIPZ 201520Z 16006KT 130V190 CAVOK 28/19 Q1009 NOSIG,
LIPZ,1721490600,82.4,66.2,58.08,130.0,7.0,0.0,29.8,,6.21,,,,,,,,,,,,,,,,,84.63,LIPZ 201550Z 13007KT CAVOK 28/19 Q1009 NOSIG,
LIPZ,1721492400,82.4,68.0,61.81,140.0,7.0,0.0,29.77,,6.21,,,,,,,,,,,,,,,,,85.38,LIPZ 201620Z 14007KT CAVOK 28/20 Q1008 NOSIG,
LIPZ,1721494200,82.4,68.0,61.81,130.0,7.0,0.0,29.77,,6.21,,,,,,,,,,,,,,,,,85.38,LIPZ 201650Z 13007KT CAVOK 28/20 Q1008 NOSIG,
LIPZ,1721496000,80.6,66.2,61.58,120.0,5.0,0.0,29.77,,6.21,,,,,,,,,,,,,,,,,82.75,LIPZ 201720Z 12005KT CAVOK 27/19 Q1008 NOSIG,
LIPZ,1721497800,80.6,66.2,61.58,110.0,6.0,0.0,29.77,,6.21,,FEW,,,,5000.0,,,,,,,,,,,82.75,COR LIPZ 201750Z 11006KT 9999 FEW050 27/19 Q1008 NOSIG,
LIPZ,1721499600,80.6,66.2,61.58,120.0,6.0,0.0,29.77,,6.21,,FEW,,,,5000.0,,,,,,,,,,,82.75,LIPZ 201820Z 12006KT 9999 FEW050 27/19 Q1008 NOSIG,
LIPZ,1721501400,80.6,66.2,61.58,110.0,8.0,0.0,29.77,,6.21,,,,,,,,,,,,,,,,,82.75,LIPZ 201850Z 11008KT CAVOK 27/19 Q1008 NOSIG,
LIPZ,1721503200,80.6,68.0,65.54,120.0,9.0,0.0,29.8,,6.21,,FEW,,,,5000.0,,,,,,,,,,,83.29,LIPZ 201920Z 12009KT 9999 FEW050 27/20 Q1009 NOSIG,
LIPZ,1721505000,78.8,68.0,69.52,110.0,9.0,0.0,29.8,,6.21,,,,,,,,,,,,,,,,,78.8,LIPZ 201950Z 11009KT CAVOK 26/20 Q1009 NOSIG,
LIPZ,1721506800,80.6,68.0,65.54,110.0,8.0,0.0,29.8,,6.21,,,,,,,,,,,,,,,,,83.29,LIPZ 202020Z 11008KT CAVOK 27/20 Q1009 NOSIG,
LIPZ,1721508600,78.8,68.0,69.52,110.0,9.0,0.0,29.8,,6.21,,,,,,,,,,,,,,,,,78.8,LIPZ 202050Z 11009KT CAVOK 26/20 Q1009 NOSIG,
LIPZ,1721510400,78.8,68.0,69.52,90.0,6.0,0.0,29.8,,6.21,,,,,,,,,,,,,,,,,78.8,LIPZ 202120Z 09006KT CAVOK 26/20 Q1009 NOSIG,
LIPZ,1721512200,78.8,68.0,69.52,90.0,6.0,0.0,29.83,,6.21,,FEW,,,,6000.0,,,,,,,,,,,78.8,LIPZ 202150Z 09006KT 9999 FEW060 26/20 Q1010 NOSIG,
LIPZ,1721514000,78.8,68.0,69.52,90.0,7.0,0.0,29.83,,6.21,,SCT,,,,5500.0,,,,,,,,,,,78.8,LIPZ 202220Z 09007KT 9999 SCT055 26/20 Q1010 NOSIG,
LIPZ,1721515800,77.0,68.0,73.78,100.0,8.0,0.0,29.8,,6.21,,,,,,,,,,,,,,,,,77.0,LIPZ 202250Z 10008KT CAVOK 25/20 Q1009 NOSIG,
LIPZ,1721517600,77.0,68.0,73.78,90.0,5.0,0.0,29.8,,6.21,,FEW,,,,5500.0,,,,,,,,,,,77.0,LIPZ 202320Z 09005KT 9999 FEW055 25/20 Q1009 NOSIG,
LIPZ,1721519400,75.2,68.0,78.34,20.0,4.0,0.0,29.8,,6.21,,,,,,,,,,,,,,,,,75.2,LIPZ 202350Z 02004KT CAVOK 24/20 Q1009 NOSIG,
LIPZ,1721521200,75.2,68.0,78.34,20.0,6.0,0.0,29.8,,6.21,,,,,,,,,,,,,,,,,75.2,LIPZ 210020Z 02006KT CAVOK 24/20 Q1009 NOSIG,
LIPZ,1721523000,73.4,68.0,83.21,10.0,6.0,0.0,29.8,,6.21,,,,,,,,,,,,,,,,,73.4,LIPZ 210050Z 01006KT CAVOK 23/20 Q1009 NOSIG,
LIPZ,1721524800,73.4,68.0,83.21,20.0,7.0,0.0,29.8,,6.21,,,,,,,,,,,,,,,,,73.4,LIPZ 210120Z 02007KT CAVOK 23/20 Q1009 NOSIG,
LIPZ,1721526600,73.4,66.2,78.19,20.0,6.0,0.0,29.8,,6.21,,,,,,,,,,,,,,,,,73.4,LIPZ 210150Z 02006KT CAVOK 23/19 Q1009 NOSIG,
LIPZ,1721528400,73.4,66.2,78.19,20.0,5.0,0.0,29.8,,6.21,,,,,,,,,,,,,,,,,73.4,LIPZ 210220Z 02005KT CAVOK 23/19 Q1009 NOSIG,
LIPZ,1721530200,71.6,68.0,88.43,340.0,4.0,0.0,29.8,,6.21,,,,,,,,,,,,,,,,,71.6,LIPZ 210250Z 34004KT CAVOK 22/20 Q1009 NOSIG,
LIPZ,1721532000,73.4,66.2,78.19,350.0,5.0,0.0,29.8,,6.21,,,,,,,,,,,,,,,,,73.4,LIPZ 210320Z 35005KT CAVOK 23/19 Q1009 NOSIG,
LIPZ,1721533800,71.6,66.2,83.09,30.0,5.0,0.0,29.8,,6.21,,,,,,,,,,,,,,,,,71.6,LIPZ 210350Z 03005KT CAVOK 22/19 Q1009 NOSIG,
LIPZ,1721535600,71.6,66.2,83.09,30.0,5.0,0.0,29.8,,6.21,,,,,,,,,,,,,,,,,71.6,LIPZ 210420Z 03005KT CAVOK 22/19 Q1009 NOSIG,
LIPZ,1721537400,73.4,66.2,78.19,40.0,6.0,0.0,29.8,,6.21,,,,,,,,,,,,,,,,,73.4,LIPZ 210450Z 04006KT CAVOK 23/19 Q1009 NOSIG,
LIPZ,1721539200,75.2,66.2,73.61,60.0,5.0,0.0,29.8,,6.21,,,,,,,,,,,,,,,,,75.2,LIPZ 210520Z 06005KT CAVOK 24/19 Q1009 NOSIG,
LIPZ,1721541000,77.0,68.0,73.78,60.0,5.0,0.0,29.8,,6.21,,,,,,,,,,,,,,,,,77.0,LIPZ 210550Z 06005KT CAVOK 25/20 Q1009 NOSIG,
LIPZ,1721542800,77.0,66.2,69.33,80.0,5.0,0.0,29.8,,6.21,,,,,,,,,,,,,,,,,77.0,LIPZ 210620Z 08005KT CAVOK 25/19 Q1009 NOSIG,
LIPZ,1721544600,78.8,69.8,73.95,70.0,5.0,0.0,29.8,,6.21,,,,,,,,,,,,,,,,,78.8,LIPZ 210650Z 07005KT CAVOK 26/21 Q1009 NOSIG,
LIPZ,1721546400,78.8,68.0,69.52,90.0,5.0,0.0,29.8,,6.21,,,,,,,,,,,,,,,,,78.8,LIPZ 210720Z 09005KT 050V120 CAVOK 26/20 Q1009 NOSIG,
LIPZ,1721548200,78.8,68.0,69.52,100.0,4.0,0.0,29.8,,6.21,,,,,,,,,,,,,,,,,78.8,LIPZ 210750Z 10004KT 020V180 CAVOK 26/20 Q1009 NOSIG,
LIPZ,1721550000,80.6,68.0,65.54,90.0,4.0,0.0,29.8,,6.21,,,,,,,,,,,,,,,,,83.29,LIPZ 210820Z 09004KT 060V130 CAVOK 27/20 Q1009 NOSIG,
LIPZ,1721551800,80.6,69.8,69.71,100.0,4.0,0.0,29.8,,6.21,,,,,,,,,,,,,,,,,83.9,LIPZ 210850Z 10004KT 060V160 CAVOK 27/21 Q1009 NOSIG,
LIPZ,1721553600,82.4,66.2,58.08,130.0,5.0,0.0,29.8,,6.21,,,,,,,,,,,,,,,,,84.63,LIPZ 210920Z 13005KT 090V170 CAVOK 28/19 Q1009 NOSIG,
LIPZ,1721555400,82.4,66.2,58.08,120.0,5.0,0.0,29.8,,6.21,,,,,,,,,,,,,,,,,84.63,LIPZ 210950Z 12005KT 080V150 CAVOK 28/19 Q1009 NOSIG,
LIPZ,1721557200,82.4,66.2,58.08,150.0,4.0,0.0,29.8,,6.21,,,,,,,,,,,,,,,,,84.63,LIPZ 211020Z 15004KT 110V190 CAVOK 28/19 Q1009 NOSIG,
LIPZ,1721559000,84.2,69.8,62.03,130.0,5.0,0.0,29.8,,6.21,,,,,,,,,,,,,,,,,88.43,LIPZ 211050Z 13005KT 090V170 CAVOK 29/21 Q1009 NOSIG,
LIPZ,1721560800,84.2,68.0,58.32,130.0,6.0,0.0,29.8,,6.21,,,,,,,,,,,,,,,,,87.4,LIPZ 211120Z 13006KT 090V160 CAVOK 29/20 Q1009 NOSIG,
LIPZ,1721562600,84.2,66.2,54.8,130.0,7.0,0.0,29.8,,6.21,,,,,,,,,,,,,,,,,86.5,LIPZ 211150Z 13007KT CAVOK 29/19 Q1009 NOSIG,
LIPZ,1721564400,84.2,66.2,54.8,130.0,8.0,0.0,29.8,,6.21,,,,,,,,,,,,,,,,,86.5,LIPZ 211220Z 13008KT CAVOK 29/19 Q1009 NOSIG,
LIPZ,1721566200,84.2,66.2,54.8,150.0,7.0,0.0,29.8,,6.21,,,,,,,,,,,,,,,,,86.5,LIPZ 211250Z 15007KT CAVOK 29/19 Q1009 NOSIG,
LIPZ,1721568000,84.2,68.0,58.32,150.0,7.0,0.0,29.8,,6.21,,,,,,,,,,,,,,,,,87.4,LIPZ 211320Z 15007KT CAVOK 29/20 Q1009 NOSIG,
LIPZ,1721569800,84.2,69.8,62.03,160.0,8.0,0.0,29.77,,6.21,,,,,,,,,,,,,,,,,88.43,LIPZ 211350Z 16008KT CAVOK 29/21 Q1008 NOSIG,
LIPZ,1721571600,84.2,69.8,62.03,160.0,6.0,0.0,29.77,,6.21,,,,,,,,,,,,,,,,,88.43,LIPZ 211420Z 16006KT 130V190 CAVOK 29/21 Q1008 NOSIG,
LIPZ,1721573400,84.2,69.8,62.03,150.0,7.0,0.0,29.77,,6.21,,,,,,,,,,,,,,,,,88.43,LIPZ 211450Z 15007KT CAVOK 29/21 Q1008 NOSIG,
LIPZ,1721575200,82.4,69.8,65.74,150.0,9.0,0.0,29.77,,6.21,,,,,,,,,,,,,,,,,86.22,LIPZ 211520Z 15009KT CAVOK 28/21 Q1008 NOSIG,
LIPZ,1721577000,84.2,69.8,62.03,140.0,6.0,0.0,29.77,,6.21,,,,,,,,,,,,,,,,,88.43,LIPZ 211550Z 14006KT 120V180 CAVOK 29/21 Q1008 NOSIG,
LIPZ,1721578800,84.2,68.0,58.32,160.0,5.0,0.0,29.77,,6.21,,,,,,,,,,,,,,,,,87.4,LIPZ 211620Z 16005KT CAVOK 29/20 Q1008 NOSIG,
LIPZ,1721580600,82.4,69.8,65.74,150.0,7.0,0.0,29.77,,6.21,,,,,,,,,,,,,,,,,86.22,LIPZ 211650Z 15007KT 120V180 CAVOK 28/21 Q1008 NOSIG,
LIPZ,1721582400,82.4,71.6,69.9,160.0,6.0,0.0,29.77,,6.21,,,,,,,,,,,,,,,,,87.18,LIPZ 211720Z 16006KT 130V190 CAVOK 28/22 Q1008 NOSIG,
LIPZ,1721584200,82.4,69.8,65.74,160.0,6.0,0.0,29.77,,6.21,,FEW,,,,7000.0,,,,,,,,,,,86.22,LIPZ 211750Z 16006KT 9999 FEW070 28/21 Q1008 NOSIG,
LIPZ,1721586000,82.4,69.8,65.74,170.0,6.0,0.0,29.77,,6.21,,FEW,,,,7000.0,,,,,,,,,,,86.22,LIPZ 211820Z 17006KT 9999 FEW070 28/21 Q1008 NOSIG,
LIPZ,1721587800,82.4,71.6,69.9,140.0,6.0,0.0,29.77,,6.21,,FEW,,,,7000.0,,,,,,,,,,,87.18,LIPZ 211850Z 14006KT 9999 FEW070 28/22 Q1008 NOSIG,
LIPZ,1721589600,82.4,69.8,65.74,160.0,5.0,0.0,29.77,,6.21,,SCT,,,,7000.0,,,,,,,,,,,86.22,LIPZ 211920Z 16005KT 9999 SCT070 28/21 Q1008 NOSIG,
LIPZ,1721591400,80.6,71.6,74.11,160.0,4.0,0.0,29.8,,6.21,,FEW,,,,7000.0,,,,,,,,,,,84.57,LIPZ 211950Z 16004KT 9999 FEW070 27/22 Q1009 NOSIG,
LIPZ,1721593200,80.6,71.6,74.11,170.0,4.0,0.0,29.8,,6.21,,,,,,,,,,,,,,,,,84.57,LIPZ 212020Z 17004KT CAVOK 27/22 Q1009 NOSIG,
LIPZ,1721595000,80.6,73.4,78.76,180.0,5.0,0.0,29.8,,6.21,,,,,,,,,,,,,,,,,85.32,LIPZ 212050Z 18005KT CAVOK 27/23 Q1009 NOSIG,
LIPZ,1721596800,80.6,71.6,74.11,210.0,7.0,0.0,29.8,,6.21,,NCD,,,,,,,,,,,,,,,84.57,LIPZ 212120Z AUTO 21007KT 9999 // NCD 27/22 Q1009,
LIPZ,1721598600,80.6,73.4,78.76,200.0,4.0,0.0,29.8,,6.21,,NCD,,,,,,,,,,,,,,,85.32,LIPZ 212150Z AUTO 20004KT 9999 // NCD 27/23 Q1009,
LIPZ,1721600400,80.6,71.6,74.11,210.0,5.0,0.0,29.8,,6.21,,NCD,,,,,,,,,,,,,,,84.57,LIPZ 212220Z AUTO 21005KT 9999 // NCD 27/22 Q1009,
LIPZ,1721602200,78.8,73.4,83.55,340.0,4.0,0.0,29.83,,6.21,,NCD,,,,,,,,,,,,,,,78.8,LIPZ 212250Z AUTO 34004KT 300V040 9999 // NCD 26/23 Q1010,
LIPZ,1721604000,78.8,71.6,78.62,330.0,4.0,0.0,29.83,,6.21,,NCD,,,,,,,,,,,,,,,78.8,LIPZ 212320Z AUTO 33004KT 320V040 9999 // NCD 26/22 Q1010,
LIPZ,1721605800,78.8,71.6,78.62,350.0,4.0,0.0,29.83,,6.21,,SCT,,,,21000.0,,,,,,,,,,,78.8,LIPZ 212350Z AUTO 35004KT 320V030 9999 // SCT210/// 26/22 Q1010,
