station,valid,tmpf,dwpf,relh,drct,sknt,p01i,alti,mslp,vsby,gust,skyc1,skyc2,skyc3,skyc4,skyl1,skyl2,skyl3,skyl4,wxcodes,ice_accretion_1hr,ice_accretion_3hr,ice_accretion_6hr,peak_wind_gust,peak_wind_drct,peak_wind_time,feel,metar,snowdepth
LIRF,2024-07-12 00:20,73.40,69.80,88.51,,2.00,0.00,29.91,,6.21,,NCD,,,,,,,,,,,,,,,73.40,LIRF 120020Z AUTO VRB02KT 9999 NCD 23/21 Q1013,
LIRF,2024-07-12 00:50,71.60,64.40,78.04,100.00,3.00,0.00,29.91,,6.21,,NCD,,,,,,,,,,,,,,,71.60,LIRF 120050Z AUTO 10003KT 060V130 9999 NCD 22/18 Q1013,
LIRF,2024-07-12 01:20,69.80,64.40,82.98,80.00,4.00,0.00,29.91,,6.21,,NCD,,,,,,,,,,,,,,,69.80,LIRF 120120Z AUTO 08004KT 9999 NCD 21/18 Q1013,
LIRF,2024-07-12 01:50,69.80,62.60,77.90,90.00,3.00,0.00,29.91,,6.21,,NCD,,,,,,,,,,,,,,,69.80,LIRF 120150Z AUTO 09003KT 9999 NCD 21/17 Q1013,
LIRF,2024-07-12 02:20,69.80,62.60,77.90,80.00,4.00,0.00,29.91,,6.21,,NCD,,,,,,,,,,,,,,,69.80,LIRF 120220Z AUTO 08004KT 9999 NCD 21/17 Q1013,
LIRF,2024-07-12 02:50,68.00,62.60,82.86,,1.00,0.00,29.91,,6.21,,NCD,,,,,,,,,,,,,,,68.00,LIRF 120250Z AUTO VRB01KT 9999 NCD 20/17 Q1013,
LIRF,2024-07-12 03:20,64.40,60.80,88.09,10.00,3.00,0.00,29.91,,6.21,,NCD,,,,,,,,,,,,,,,64.40,LIRF 120320Z AUTO 01003KT 9999 NCD 18/16 Q1013,
LIRF,2024-07-12 03:50,66.20,62.60,88.18,60.00,3.00,0.00,29.91,,6.21,,NCD,,,,,,,,,,,,,,,66.20,LIRF 120350Z AUTO 06003KT 9999 NCD 19/17 Q1013,
LIRF,2024-07-12 04:20,66.20,62.60,88.18,40.00,2.00,0.00,29.91,,6.21,,NCD,,,,,,,,,,,,,,,66.20,LIRF 120420Z AUTO 04002KT 9999 NCD 19/17 Q1013,
LIRF,2024-07-12 04:50,69.80,64.40,82.98,50.00,3.00,0.00,29.91,,6.21,,NCD,,,,,,,,,,,,,,,69.80,LIRF 120450Z AUTO 05003KT 9999 NCD 21/18 Q1013,
LIRF,2024-07-12 05:20,73.40,69.80,88.51,90.00,4.00,0.00,29.91,,6.21,,,,,,,,,,,,,,,,,73.40,LIRF 120520Z 09004KT 060V150 CAVOK 23/21 Q1013 NOSIG,
LIRF,2024-07-12 05:50,77.00,71.60,83.44,150.00,5.00,0.00,29.91,,6.21,,,,,,,,,,,,,,,,,77.00,LIRF 120550Z 15005KT CAVOK 25/22 Q1013 NOSIG,
LIRF,2024-07-12 06:20,78.80,73.40,83.55,140.00,5.00,0.00,29.91,,6.21,,,,,,,,,,,,,,,,,78.80,LIRF 120620Z 14005KT 110V190 CAVOK 26/23 Q1013 NOSIG,
LIRF,2024-07-12 06:50,80.60,71.60,74.11,180.00,5.00,0.00,29.91,,6.21,,,,,,,,,,,,,,,,,84.57,LIRF 120650Z 18005KT 130V200 CAVOK 27/22 Q1013 NOSIG,
LIRF,2024-07-12 07:20,82.40,69.80,65.74,170.00,5.00,0.00,29.91,,6.21,,,,,,,,,,,,,,,,,86.22,LIRF 120720Z 17005KT 130V200 CAVOK 28/21 Q1013 NOSIG,
LIRF,2024-07-12 07:50,84.20,69.80,62.03,160.00,7.00,0.00,29.91,,6.21,,,,,,,,,,,,,,,,,88.43,LIRF 120750Z 16007KT 130V200 CAVOK 29/21 Q1013 NOSIG,
LIRF,2024-07-12 08:20,86.00,66.20,51.72,180.00,6.00,0.00,29.91,,6.21,,,,,,,,,,,,,,,,,88.39,LIRF 120820Z 18006KT CAVOK 30/19 Q1013 NOSIG,
LIRF,2024-07-12 08:50,86.00,66.20,51.72,190.00,6.00,0.00,29.91,,6.21,,,,,,,,,,,,,,,,,88.39,LIRF 120850Z 19006KT 150V220 CAVOK 30/19 Q1013 NOSIG,
LIRF,2024-07-12 09:20,86.00,64.40,48.58,210.00,8.00,0.00,29.91,,6.21,,,,,,,,,,,,,,,,,87.49,LIRF 120920Z 21008KT 180V250 CAVOK 30/18 Q1013 NOSIG,
LIRF,2024-07-12 09:50,87.80,66.20,48.84,200.00,7.00,0.00,29.91,,6.21,,,,,,,,,,,,,,,,,90.31,LIRF 120950Z 20007KT 150V240 CAVOK 31/19 Q1013 NOSIG,
LIRF,2024-07-12 10:20,86.00,66.20,51.72,210.00,8.00,0.00,29.91,,6.21,,,,,,,,,,,,,,,,,88.39,LIRF 121020Z 21008KT CAVOK 30/19 Q1013 NOSIG,
LIRF,2024-07-12 10:50,87.80,66.20,48.84,190.00,6.00,0.00,29.91,,6.21,,,,,,,,,,,,,,,,,90.31,LIRF 121050Z 19006KT 150V240 CAVOK 31/19 Q1013 NOSIG,
LIRF,2024-07-12 11:20,87.80,68.00,51.98,200.00,7.00,0.00,29.91,,6.21,,,,,,,,,,,,,,,,,91.43,LIRF 121120Z 20007KT 160V240 CAVOK 31/20 Q1013 NOSIG,
LIRF,2024-07-12 11:50,87.80,66.20,48.84,230.00,7.00,0.00,29.91,,6.21,,,,,,,,,,,,,,,,,90.31,LIRF 121150Z 23007KT 170V260 CAVOK 31/19 Q1013 NOSIG,
LIRF,2024-07-12 12:20,87.80,66.20,48.84,240.00,9.00,0.00,29.88,,6.21,,,,,,,,,,,,,,,,,90.31,LIRF 121220Z 24009KT 210V270 CAVOK 31/19 Q1012 NOSIG,
LIRF,2024-07-12 12:50,87.80,69.80,55.29,240.00,9.00,0.00,29.88,,6.21,,,,,,,,,,,,,,,,,92.71,LIRF 121250Z 24009KT CAVOK 31/21 Q1012 NOSIG,
LIRF,2024-07-12 13:20,87.80,68.00,51.98,230.00,9.00,0.00,29.88,,6.21,,,,,,,,,,,,,,,,,91.43,LIRF 121320Z 23009KT CAVOK 31/20 Q1012 NOSIG,
LIRF,2024-07-12 13:50,87.80,66.20,48.84,240.00,9.00,0.00,29.88,,6.21,,,,,,,,,,,,,,,,,90.31,LIRF 121350Z 24009KT 210V270 CAVOK 31/19 Q1012 NOSIG,
LIRF,2024-07-12 14:20,87.80,66.20,48.84,240.00,9.00,0.00,29.88,,6.21,,,,,,,,,,,,,,,,,90.31,LIRF 121420Z 24009KT CAVOK 31/19 Q1012 NOSIG,
LIRF,2024-07-12 14:50,87.80,66.20,48.84,240.00,10.00,0.00,29.88,,6.21,,,,,,,,,,,,,,,,,90.31,LIRF 121450Z 24010KT CAVOK 31/19 Q1012 NOSIG,
LIRF,2024-07-12 15:20,86.00,66.20,51.72,250.00,8.00,0.00,29.85,,6.21,,,,,,,,,,,,,,,,,88.39,LIRF 121520Z 25008KT 210V280 CAVOK 30/19 Q1011 NOSIG,
LIRF,2024-07-12 15:50,86.00,64.40,48.58,250.00,8.00,0.00,29.85,,6.21,,,,,,,,,,,,,,,,,87.49,LIRF 121550Z 25008KT CAVOK 30/18 Q1011 NOSIG,
LIRF,2024-07-12 16:20,86.00,66.20,51.72,250.00,7.00,0.00,29.85,,6.21,,,,,,,,,,,,,,,,,88.39,LIRF 121620Z 25007KT CAVOK 30/19 Q1011 NOSIG,
LIRF,2024-07-12 16:50,86.00,62.60,45.61,250.00,7.00,0.00,29.85,,6.21,,,,,,,,,,,,,,,,,86.72,LIRF 121650Z 25007KT 210V270 CAVOK 30/17 Q1011 NOSIG,
LIRF,2024-07-12 17:20,84.20,66.20,54.80,270.00,6.00,0.00,29.85,,6.21,,,,,,,,,,,,,,,,,86.50,LIRF 121720Z 27006KT CAVOK 29/19 Q1011 NOSIG,
LIRF,2024-07-12 17:50,84.20,62.60,48.32,270.00,4.00,0.00,29.85,,6.21,,,,,,,,,,,,,,,,,85.03,LIRF 121750Z 27004KT CAVOK 29/17 Q1011 NOSIG,
LIRF,2024-07-12 18:20,82.40,60.80,48.05,270.00,4.00,0.00,29.85,,6.21,,,,,,,,,,,,,,,,,82.90,LIRF 121820Z 27004KT CAVOK 28/16 Q1011 NOSIG,
LIRF,2024-07-12 18:50,80.60,62.60,54.30,270.00,4.00,0.00,29.85,,6.21,,,,,,,,,,,,,,,,,81.84,LIRF 121850Z 27004KT CAVOK 27/17 Q1011 NOSIG,
LIRF,2024-07-12 19:20,78.80,64.40,61.36,270.00,3.00,0.00,29.85,,6.21,,,,,,,,,,,,,,,,,78.80,LIRF 121920Z 27003KT CAVOK 26/18 Q1011 NOSIG,
LIRF,2024-07-12 19:50,78.80,66.20,65.33,290.00,2.00,0.00,29.85,,6.21,,,,,,,,,,,,,,,,,78.80,LIRF 121950Z 29002KT CAVOK 26/19 Q1011 NOSIG,
LIRF,2024-07-12 20:20,78.80,66.20,65.33,,1.00,0.00,29.85,,6.21,,,,,,,,,,,,,,,,,78.80,LIRF 122020Z VRB01KT CAVOK 26/19 Q1011 NOSIG,
LIRF,2024-07-12 20:50,77.00,66.20,69.33,,2.00,0.00,29.85,,6.21,,,,,,,,,,,,,,,,,77.00,LIRF 122050Z VRB02KT CAVOK 25/19 Q1011 NOSIG,
LIRF,2024-07-12 21:20,78.80,68.00,69.52,140.00,4.00,0.00,29.85,,6.21,,,,,,,,,,,,,,,,,78.80,LIRF 122120Z 14004KT 120V190 CAVOK 26/20 Q1011 NOSIG,
LIRF,2024-07-12 21:50,77.00,68.00,73.78,140.00,3.00,0.00,29.85,,6.21,,,,,,,,,,,,,,,,,77.00,LIRF 122150Z 14003KT 110V180 CAVOK 25/20 Q1011 NOSIG,
LIRF,2024-07-12 22:20,71.60,62.60,73.27,,2.00,0.00,29.85,,6.21,,,,,,,,,,,,,,,,,71.60,LIRF 122220Z VRB02KT CAVOK 22/17 Q1011 NOSIG,
LIRF,2024-07-12 22:50,71.60,60.80,68.75,30.00,3.00,0.00,29.85,,6.21,,,,,,,,,,,,,,,,,71.60,LIRF 122250Z 03003KT CAVOK 22/16 Q1011 NOSIG,
LIRF,2024-07-12 23:20,71.60,60.80,68.75,30.00,2.00,0.00,29.85,,6.21,,,,,,,,,,,,,,,,,71.60,LIRF 122320Z 03002KT CAVOK 22/16 Q1011 NOSIG,
LIRF,2024-07-12 23:50,69.80,60.80,73.09,30.00,2.00,0.00,29.85,,6.21,,,,,,,,,,,,,,,,,69.80,LIRF 122350Z 03002KT CAVOK 21/16 Q1011 NOSIG,
LIRF,2024-07-13 00:20,69.80,60.80,73.09,330.00,2.00,0.00,29.85,,6.21,,,,,,,,,,,,,,,,,69.80,LIRF 130020Z 33002KT CAVOK 21/16 Q1011 NOSIG,
LIRF,2024-07-13 00:50,69.80,60.80,73.09,40.00,2.00,0.00,29.85,,6.21,,,,,,,,,,,,,,,,,69.80,LIRF 130050Z 04002KT CAVOK 21/16 Q1011 NOSIG,
LIRF,2024-07-13 01:20,68.00,60.80,77.75,60.00,2.00,0.00,29.83,,6.21,,,,,,,,,,,,,,,,,68.00,LIRF 130120Z 06002KT CAVOK 20/16 Q1010 NOSIG,
LIRF,2024-07-13 01:50,69.80,60.80,73.09,80.00,4.00,0.00,29.83,,6.21,,,,,,,,,,,,,,,,,69.80,LIRF 130150Z 08004KT CAVOK 21/16 Q1010 NOSIG,
LIRF,2024-07-13 02:20,69.80,60.80,73.09,80.00,3.00,0.00,29.83,,6.21,,,,,,,,,,,,,,,,,69.80,LIRF 130220Z 08003KT CAVOK 21/16 Q1010 NOSIG,
LIRF,2024-07-13 02:50,68.00,60.80,77.75,70.00,3.00,0.00,29.83,,6.21,,,,,,,,,,,,,,,,,68.00,LIRF 130250Z 07003KT CAVOK 20/16 Q1010 NOSIG,
LIRF,2024-07-13 03:20,68.00,60.80,77.75,80.00,4.00,0.00,29.85,,6.21,,,,,,,,,,,,,,,,,68.00,LIRF 130320Z 08004KT CAVOK 20/16 Q1011 NOSIG,
LIRF,2024-07-13 03:50,68.00,60.80,77.75,80.00,4.00,0.00,29.85,,6.21,,,,,,,,,,,,,,,,,68.00,LIRF 130350Z 08004KT CAVOK 20/16 Q1011 NOSIG,
LIRF,2024-07-13 04:20,68.00,59.00,72.92,60.00,3.00,0.00,29.85,,6.21,,,,,,,,,,,,,,,,,68.00,LIRF 130420Z 06003KT CAVOK 20/15 Q1011 NOSIG,
LIRF,2024-07-13 04:50,71.60,60.80,68.75,80.00,7.00,0.00,29.85,,6.21,,,,,,,,,,,,,,,,,71.60,LIRF 130450Z 08007KT CAVOK 22/16 Q1011 NOSIG,
LIRF,2024-07-13 05:20,73.40,60.80,64.69,90.00,6.00,0.00,29.85,,6.21,,,,,,,,,,,,,,,,,73.40,LIRF 130520Z 09006KT CAVOK 23/16 Q1011 NOSIG,
LIRF,2024-07-13 05:50,77.00,60.80,57.36,80.00,5.00,0.00,29.85,,6.21,,,,,,,,,,,,,,,,,77.00,LIRF 130550Z 08005KT CAVOK 25/16 Q1011 NOSIG,
LIRF,2024-07-13 06:20,80.60,62.60,54.30,90.00,5.00,0.00,29.85,,6.21,,,,,,,,,,,,,,,,,81.84,LIRF 130620Z 09005KT 040V120 CAVOK 27/17 Q1011 NOSIG,
LIRF,2024-07-13 06:50,82.40,68.00,61.81,110.00,3.00,0.00,29.85,,6.21,,,,,,,,,,,,,,,,,85.38,LIRF 130650Z 11003KT 070V170 CAVOK 28/20 Q1011 NOSIG,
LIRF,2024-07-13 07:20,84.20,68.00,58.32,210.00,4.00,0.00,29.85,,6.21,,,,,,,,,,,,,,,,,87.40,LIRF 130720Z 21004KT 140V250 CAVOK 29/20 Q1011 NOSIG,
LIRF,2024-07-13 07:50,86.00,62.60,45.61,190.00,5.00,0.00,29.85,,6.21,,,,,,,,,,,,,,,,,86.72,LIRF 130750Z 19005KT 150V220 CAVOK 30/17 Q1011 NOSIG,
LIRF,2024-07-13 08:20,87.80,62.60,43.07,190.00,7.00,0.00,29.85,,6.21,,,,,,,,,,,,,,,,,88.48,LIRF 130820Z 19007KT 140V220 CAVOK 31/17 Q1011 NOSIG,
LIRF,2024-07-13 08:50,86.00,62.60,45.61,190.00,7.00,0.00,29.85,,6.21,,,,,,,,,,,,,,,,,86.72,LIRF 130850Z 19007KT CAVOK 30/17 Q1011 NOSIG,
LIRF,2024-07-13 09:20,87.80,62.60,43.07,190.00,8.00,0.00,29.85,,6.21,,,,,,,,,,,,,,,,,88.48,LIRF 130920Z 19008KT CAVOK 31/17 Q1011 NOSIG,
LIRF,2024-07-13 09:50,87.80,62.60,43.07,200.00,8.00,0.00,29.85,,6.21,,,,,,,,,,,,,,,,,88.48,LIRF 130950Z 20008KT 150V240 CAVOK 31/17 Q1011 NOSIG,
LIRF,2024-07-13 10:20,87.80,66.20,48.84,200.00,8.00,0.00,29.85,,6.21,,,,,,,,,,,,,,,,,90.31,LIRF 131020Z 20008KT 160V230 CAVOK 31/19 Q1011 NOSIG,
LIRF,2024-07-13 10:50,87.80,60.80,40.41,210.00,11.00,0.00,29.85,,6.21,,,,,,,,,,,,,,,,,87.75,LIRF 131050Z 21011KT CAVOK 31/16 Q1011 NOSIG,
LIRF,2024-07-13 11:20,87.80,68.00,51.98,200.00,9.00,0.00,29.85,,6.21,,FEW,,,,2500.00,,,,,,,,,,,91.43,LIRF 131120Z 20009KT 150V220 9999 FEW025 31/20 Q1011 NOSIG,
LIRF,2024-07-13 11:50,87.80,68.00,51.98,210.00,10.00,0.00,29.85,,6.21,,FEW,,,,1500.00,,,,,,,,,,,91.43,LIRF 131150Z 21010KT 180V240 9999 FEW015 31/20 Q1011 NOSIG,
LIRF,2024-07-13 12:20,86.00,71.60,62.25,210.00,11.00,0.00,29.85,,6.21,,FEW,,,,2500.00,,,,,,,,,,,91.92,LIRF 131220Z 21011KT 9999 FEW025 30/22 Q1011 NOSIG,
LIRF,2024-07-13 12:50,86.00,69.80,58.55,190.00,9.00,0.00,29.85,,6.21,,FEW,,,,2500.00,,,,,,,,,,,90.58,LIRF 131250Z 19009KT 160V220 9999 FEW025 30/21 Q1011 NOSIG,
LIRF,2024-07-13 13:20,86.00,68.00,55.04,200.00,10.00,0.00,29.85,,6.21,,,,,,,,,,,,,,,,,89.41,LIRF 131320Z 20010KT 170V240 CAVOK 30/20 Q1011 NOSIG,
LIRF,2024-07-13 13:50,87.80,71.60,58.78,210.00,10.00,0.00,29.85,,6.21,,,,,,,,,,,,,,,,,94.18,LIRF 131350Z 21010KT 170V240 CAVOK 31/22 Q1011 NOSIG,
LIRF,2024-07-13 14:20,86.00,71.60,62.25,200.00,9.00,0.00,29.85,,6.21,,,,,,,,,,,,,,,,,91.92,LIRF 131420Z 20009KT 150V230 CAVOK 30/22 Q1011 NOSIG,
LIRF,2024-07-13 14:50,86.00,69.80,58.55,200.00,10.00,0.00,29.85,,6.21,,,,,,,,,,,,,,,,,90.58,LIRF 131450Z 20010KT 160V220 CAVOK 30/21 Q1011 NOSIG,
LIRF,2024-07-13 15:20,86.00,71.60,62.25,180.00,7.00,0.00,29.85,,6.21,,,,,,,,,,,,,,,,,91.92,LIRF 131520Z 18007KT CAVOK 30/22 Q1011 NOSIG,
LIRF,2024-07-13 15:50,84.20,71.60,65.95,210.00,9.00,0.00,29.85,,6.21,,,,,,,,,,,,,,,,,89.60,LIRF 131550Z 21009KT 160V240 CAVOK 29/22 Q1011 NOSIG,
LIRF,2024-07-13 16:20,84.20,69.80,62.03,210.00,9.00,0.00,29.85,,6.21,,,,,,,,,,,,,,,,,88.43,LIRF 131620Z 21009KT 160V240 CAVOK 29/21 Q1011 NOSIG,
LIRF,2024-07-13 16:50,84.20,73.40,70.08,230.00,11.00,0.00,29.85,,6.21,,,,,,,,,,,,,,,,,90.94,LIRF 131650Z 23011KT CAVOK 29/23 Q1011 NOSIG,
LIRF,2024-07-13 17:20,82.40,73.40,74.28,240.00,9.00,0.00,29.85,,6.21,,,,,,,,,,,,,,,,,88.26,LIRF 131720Z 24009KT CAVOK 28/23 Q1011 NOSIG,
LIRF,2024-07-13 17:50,82.40,73.40,74.28,210.00,6.00,0.00,29.85,,6.21,,,,,,,,,,,,,,,,,88.26,LIRF 131750Z 21006KT 160V240 CAVOK 28/23 Q1011 NOSIG,
LIRF,2024-07-13 18:20,80.60,73.40,78.76,190.00,6.00,0.00,29.85,,6.21,,,,,,,,,,,,,,,,,85.32,LIRF 131820Z 19006KT CAVOK 27/23 Q1011 NOSIG,
LIRF,2024-07-13 18:50,80.60,73.40,78.76,230.00,7.00,0.00,29.85,,6.21,,FEW,,,,1200.00,,,,,,,,,,,85.32,LIRF 131850Z 23007KT 9999 FEW012 27/23 Q1011 NOSIG,
LIRF,2024-07-13 19:20,78.80,73.40,83.55,230.00,6.00,0.00,29.85,,6.21,,SCT,,,,1200.00,,,,,,,,,,,78.80,LIRF 131920Z 23006KT 9999 SCT012 26/23 Q1011 NOSIG,
LIRF,2024-07-13 19:50,78.80,73.40,83.55,250.00,5.00,0.00,29.85,,6.21,,SCT,,,,1200.00,,,,,,,,,,,78.80,LIRF 131950Z 25005KT 9999 SCT012 26/23 Q1011 NOSIG,
LIRF,2024-07-13 20:20,78.80,73.40,83.55,260.00,4.00,0.00,29.88,,6.21,,SCT,,,,1400.00,,,,,,,,,,,78.80,LIRF 132020Z 26004KT 9999 SCT014 26/23 Q1012 NOSIG,
LIRF,2024-07-13 20:50,77.00,73.40,88.67,,2.00,0.00,29.88,,6.21,,SCT,,,,1500.00,,,,,,,,,,,77.00,LIRF 132050Z VRB02KT 9999 SCT015 25/23 Q1012 NOSIG,
LIRF,2024-07-13 21:20,77.00,73.40,88.67,310.00,2.00,0.00,29.85,,6.21,,SCT,,,,1500.00,,,,,,,,,,,77.00,LIRF 132120Z 31002KT 9999 SCT015 25/23 Q1011 NOSIG,
LIRF,2024-07-13 21:50,75.20,73.40,94.14,60.00,3.00,0.00,29.88,,6.21,,FEW,SCT,,,1000.00,1500.00,,,,,,,,,,75.20,LIRF 132150Z 06003KT 9999 FEW010 SCT015 24/23 Q1012 NOSIG,
LIRF,2024-07-13 22:20,73.40,71.60,94.10,50.00,3.00,0.00,29.88,,6.21,,FEW,,,,1500.00,,,,,,,,,,,73.40,LIRF 132220Z 05003KT 9999 FEW015 23/22 Q1012 NOSIG,
LIRF,2024-07-13 22:50,73.40,71.60,94.10,60.00,3.00,0.00,29.88,,6.21,,FEW,,,,1200.00,,,,,,,,,,,73.40,LIRF 132250Z 06003KT 9999 FEW012 23/22 Q1012 NOSIG,
LIRF,2024-07-13 23:20,71.60,69.80,94.06,,2.00,0.00,29.88,,6.21,,FEW,,,,1500.00,,,,,,,,,,,71.60,LIRF 132320Z VRB02KT 9999 FEW015 22/21 Q1012 NOSIG,
LIRF,2024-07-13 23:50,73.40,71.60,94.10,,1.00,0.00,29.88,,6.21,,FEW,,,,1500.00,,,,,,,,,,,73.40,LIRF 132350Z VRB01KT 9999 FEW015 23/22 Q1012 NOSIG,
LIRF,2024-07-14 00:20,69.80,69.80,100.00,340.00,3.00,0.00,29.88,,6.21,,FEW,,,,1200.00,,,,,,,,,,,69.80,LIRF 140020Z 34003KT 9999 FEW012 21/21 Q1012 NOSIG,
LIRF,2024-07-14 00:50,71.60,69.80,94.06,10.00,2.00,0.00,29.88,,6.21,,,,,,,,,,,,,,,,,71.60,LIRF 140050Z 01002KT CAVOK 22/21 Q1012 NOSIG,
LIRF,2024-07-14 01:20,69.80,68.00,94.01,330.00,3.00,0.00,29.88,,6.21,,,,,,,,,,,,,,,,,69.80,LIRF 140120Z 33003KT CAVOK 21/20 Q1012 NOSIG,
LIRF,2024-07-14 01:50,69.80,69.80,100.00,30.00,2.00,0.00,29.85,,6.21,,,,,,,,,,,,,,,,,69.80,LIRF 140150Z 03002KT CAVOK 21/21 Q1011 NOSIG,
LIRF,2024-07-14 02:20,69.80,69.80,100.00,,1.00,0.00,29.85,,6.21,,,,,,,,,,,,,,,,,69.80,LIRF 140220Z VRB01KT CAVOK 21/21 Q1011 NOSIG,
LIRF,2024-07-14 02:50,69.80,69.80,100.00,360.00,1.00,0.00,29.85,,4.97,,NSC,,,,,,,,,,,,,,,69.80,LIRF 140250Z 36001KT 8000 NSC 21/21 Q1011 NOSIG,
LIRF,2024-07-14 03:20,69.80,69.80,100.00,320.00,3.00,0.00,29.88,,6.21,,SCT,,,,1400.00,,,,,,,,,,,69.80,LIRF 140320Z 32003KT 9999 SCT014 21/21 Q1012 NOSIG,
LIRF,2024-07-14 03:50,69.80,68.00,94.01,20.00,3.00,0.00,29.88,,6.21,,FEW,,,,1400.00,,,,,,,,,,,69.80,LIRF 140350Z 02003KT 9999 FEW014 21/20 Q1012 NOSIG,
LIRF,2024-07-14 04:20,69.80,69.80,100.00,50.00,4.00,0.00,29.88,,6.21,,,,,,,,,,,,,,,,,69.80,LIRF 140420Z 05004KT CAVOK 21/21 Q1012 NOSIG,
LIRF,2024-07-14 04:50,73.40,71.60,94.10,50.00,7.00,0.00,29.85,,6.21,,,,,,,,,,,,,,,,,73.40,LIRF 140450Z 05007KT CAVOK 23/22 Q1011 NOSIG,
LIRF,2024-07-14 05:20,73.40,69.80,88.51,50.00,6.00,0.00,29.85,,6.21,,,,,,,,,,,,,,,,,73.40,LIRF 140520Z 05006KT CAVOK 23/21 Q1011 NOSIG,
LIRF,2024-07-14 05:50,77.00,68.00,73.78,60.00,6.00,0.00,29.88,,6.21,,,,,,,,,,,,,,,,,77.00,LIRF 140550Z 06006KT CAVOK 25/20 Q1012 NOSIG,
LIRF,2024-07-14 06:20,80.60,69.80,69.71,70.00,4.00,0.00,29.88,,6.21,,,,,,,,,,,,,,,,,83.90,LIRF 140620Z 07004KT CAVOK 27/21 Q1012 NOSIG,
LIRF,2024-07-14 06:50,80.60,68.00,65.54,70.00,7.00,0.00,29.88,,6.21,,,,,,,,,,,,,,,,,83.29,LIRF 140650Z 07007KT CAVOK 27/20 Q1012 NOSIG,
LIRF,2024-07-14 07:20,82.40,68.00,61.81,60.00,6.00,0.00,29.88,,6.21,,,,,,,,,,,,,,,,,85.38,LIRF 140720Z 06006KT 030V090 CAVOK 28/20 Q1012 NOSIG,
LIRF,2024-07-14 07:50,86.00,66.20,51.72,130.00,3.00,0.00,29.88,,6.21,,,,,,,,,,,,,,,,,88.39,LIRF 140750Z 13003KT 080V220 CAVOK 30/19 Q1012 NOSIG,
LIRF,2024-07-14 08:20,86.00,64.40,48.58,,2.00,0.00,29.88,,6.21,,,,,,,,,,,,,,,,,87.49,LIRF 140820Z VRB02KT CAVOK 30/18 Q1012 NOSIG,
LIRF,2024-07-14 08:50,84.20,71.60,65.95,240.00,11.00,0.00,29.88,,6.21,,,,,,,,,,,,,,,,,89.60,LIRF 140850Z 24011KT CAVOK 29/22 Q1012 NOSIG,
LIRF,2024-07-14 09:20,86.00,68.00,55.04,230.00,10.00,0.00,29.88,,6.21,,,,,,,,,,,,,,,,,89.41,LIRF 140920Z 23010KT 180V260 CAVOK 30/20 Q1012 NOSIG,
LIRF,2024-07-14 09:50,86.00,68.00,55.04,230.00,10.00,0.00,29.91,,6.21,,,,,,,,,,,,,,,,,89.41,LIRF 140950Z 23010KT CAVOK 30/20 Q1013 NOSIG,
LIRF,2024-07-14 10:20,86.00,69.80,58.55,210.00,8.00,0.00,29.91,,6.21,,,,,,,,,,,,,,,,,90.58,LIRF 141020Z 21008KT 190V270 CAVOK 30/21 Q1013 NOSIG,
LIRF,2024-07-14 10:50,86.00,71.60,62.25,250.00,7.00,0.00,29.91,,6.21,,,,,,,,,,,,,,,,,91.92,LIRF 141050Z 25007KT 200V300 CAVOK 30/22 Q1013 NOSIG,
LIRF,2024-07-14 11:20,86.00,73.40,66.15,250.00,8.00,0.00,29.91,,6.21,,,,,,,,,,,,,,,,,93.45,LIRF 141120Z 25008KT 230V300 CAVOK 30/23 Q1013 NOSIG,
LIRF,2024-07-14 11:50,87.80,71.60,58.78,260.00,6.00,0.00,29.88,,6.21,,,,,,,,,,,,,,,,,94.18,LIRF 141150Z 26006KT 190V310 CAVOK 31/22 Q1012 NOSIG,
LIRF,2024-07-14 12:20,87.80,69.80,55.29,,7.00,0.00,29.88,,6.21,,,,,,,,,,,,,,,,,92.71,LIRF 141220Z VRB07KT CAVOK 31/21 Q1012 NOSIG,
LIRF,2024-07-14 12:50,87.80,71.60,58.78,240.00,8.00,0.00,29.88,,6.21,,,,,,,,,,,,,,,,,94.18,LIRF 141250Z 24008KT 200V270 CAVOK 31/22 Q1012 NOSIG,
LIRF,2024-07-14 13:20,86.00,71.60,62.25,250.00,9.00,0.00,29.88,,6.21,,,,,,,,,,,,,,,,,91.92,LIRF 141320Z 25009KT 220V280 CAVOK 30/22 Q1012 NOSIG,
LIRF,2024-07-14 13:50,84.20,73.40,70.08,260.00,10.00,0.00,29.88,,6.21,,,,,,,,,,,,,,,,,90.94,LIRF 141350Z 26010KT CAVOK 29/23 Q1012 NOSIG,
LIRF,2024-07-14 14:20,86.00,73.40,66.15,250.00,10.00,0.00,29.88,,6.21,,,,,,,,,,,,,,,,,93.45,LIRF 141420Z 25010KT 230V290 CAVOK 30/23 Q1012 NOSIG,
LIRF,2024-07-14 14:50,84.20,73.40,70.08,270.00,9.00,0.00,29.88,,6.21,,,,,,,,,,,,,,,,,90.94,LIRF 141450Z 27009KT CAVOK 29/23 Q1012 NOSIG,
LIRF,2024-07-14 15:20,86.00,73.40,66.15,260.00,8.00,0.00,29.88,,6.21,,,,,,,,,,,,,,,,,93.45,LIRF 141520Z 26008KT CAVOK 30/23 Q1012 NOSIG,
LIRF,2024-07-14 15:50,86.00,71.60,62.25,260.00,7.00,0.00,29.88,,6.21,,,,,,,,,,,,,,,,,91.92,LIRF 141550Z 26007KT CAVOK 30/22 Q1012 NOSIG,
LIRF,2024-07-14 16:20,86.00,69.80,58.55,270.00,6.00,0.00,29.88,,6.21,,,,,,,,,,,,,,,,,90.58,LIRF 141620Z 27006KT 230V300 CAVOK 30/21 Q1012 NOSIG,
LIRF,2024-07-14 16:50,84.20,69.80,62.03,260.00,7.00,0.00,29.88,,6.21,,,,,,,,,,,,,,,,,88.43,LIRF 141650Z 26007KT CAVOK 29/21 Q1012 NOSIG,
LIRF,2024-07-14 17:20,82.40,73.40,74.28,290.00,6.00,0.00,29.88,,6.21,,,,,,,,,,,,,,,,,88.26,LIRF 141720Z 29006KT 250V310 CAVOK 28/23 Q1012 NOSIG,
LIRF,2024-07-14 17:50,82.40,73.40,74.28,280.00,5.00,0.00,29.88,,6.21,,,,,,,,,,,,,,,,,88.26,LIRF 141750Z 28005KT CAVOK 28/23 Q1012 NOSIG,
LIRF,2024-07-14 18:20,80.60,73.40,78.76,280.00,6.00,0.00,29.88,,6.21,,,,,,,,,,,,,,,,,85.32,LIRF 141820Z 28006KT CAVOK 27/23 Q1012 NOSIG,
LIRF,2024-07-14 18:50,80.60,75.20,83.66,280.00,5.00,0.00,29.88,,6.21,,,,,,,,,,,,,,,,,86.17,LIRF 141850Z 28005KT CAVOK 27/24 Q1012 NOSIG,
LIRF,2024-07-14 19:20,78.80,75.20,88.75,270.00,3.00,0.00,29.88,,6.21,,,,,,,,,,,,,,,,,78.80,LIRF 141920Z 27003KT CAVOK 26/24 Q1012 NOSIG,
LIRF,2024-07-14 19:50,78.80,73.40,83.55,280.00,1.00,0.00,29.88,,6.21,,,,,,,,,,,,,,,,,78.80,LIRF 141950Z 28001KT CAVOK 26/23 Q1012 NOSIG,
LIRF,2024-07-14 20:20,77.00,73.40,88.67,290.00,2.00,0.00,29.88,,6.21,,,,,,,,,,,,,,,,,77.00,LIRF 142020Z 29002KT CAVOK 25/23 Q1012 NOSIG,
LIRF,2024-07-14 20:50,77.00,75.20,94.19,350.00,1.00,0.00,29.88,,6.21,,,,,,,,,,,,,,,,,77.00,LIRF 142050Z 35001KT CAVOK 25/24 Q1012 NOSIG,
LIRF,2024-07-14 21:20,75.20,73.40,94.14,60.00,3.00,0.00,29.91,,6.21,,,,,,,,,,,,,,,,,75.20,LIRF 142120Z 06003KT CAVOK 24/23 Q1013 NOSIG,
LIRF,2024-07-14 21:50,75.20,73.40,94.14,,1.00,0.00,29.91,,6.21,,,,,,,,,,,,,,,,,75.20,LIRF 142150Z VRB01KT CAVOK 24/23 Q1013 NOSIG,
LIRF,2024-07-14 22:20,73.40,71.60,94.10,260.00,3.00,0.00,29.88,,6.21,,,,,,,,,,,,,,,,,73.40,LIRF 142220Z 26003KT CAVOK 23/22 Q1012 NOSIG,
LIRF,2024-07-14 22:50,75.20,73.40,94.14,250.00,2.00,0.00,29.88,,6.21,,,,,,,,,,,,,,,,,75.20,LIRF 142250Z 25002KT CAVOK 24/23 Q1012 NOSIG,
LIRF,2024-07-14 23:20,73.40,71.60,94.10,,1.00,0.00,29.88,,6.21,,,,,,,,,,,,,,,,,73.40,LIRF 142320Z VRB01KT CAVOK 23/22 Q1012 NOSIG,
LIRF,2024-07-14 23:50,71.60,69.80,94.06,50.00,4.00,0.00,29.88,,6.21,,,,,,,,,,,,,,,,,71.60,LIRF 142350Z 05004KT CAVOK 22/21 Q1012 NOSIG,
