station,valid,lon,lat,elevation,tmpf,dwpf,relh,drct,sknt,p01i,alti,mslp,vsby,gust,skyc1,skyc2,skyc3,skyc4,skyl1,skyl2,skyl3,skyl4,wxcodes,ice_accretion_1hr,ice_accretion_3hr,ice_accretion_6hr,peak_wind_gust,peak_wind_drct,peak_wind_time,feel,metar,snowdepth
LTFH,2024-04-06 00:50,36.5671,41.2545,5.00,44.60,44.60,100.00,,2.00,0.00,30.18,,3.73,,FEW,,,,800.00,,,,,,,,,,,44.60,LTFH 060050Z VRB02KT 6000 FEW008 07/07 Q1022 NOSIG,
LTFH,2024-04-06 01:50,36.5671,41.2545,5.00,44.60,44.60,100.00,140.00,4.00,0.00,30.18,,0.50,,VV ,,,,200.00,,,,FG,,,,,,,42.13,LTFH 060150Z 14004KT 0800 R13/0375D R31/0550U FG VV002 07/07 Q1022 NOSIG,
LTFH,2024-04-06 02:50,36.5671,41.2545,5.00,44.60,44.60,100.00,110.00,3.00,0.00,30.15,,0.19,,VV ,,,,400.00,,,,FG,,,,,,,43.09,LTFH 060250Z 11003KT 0300 R13/0225N R31/0225N FG VV004 07/07 Q1021 BECMG TL0400 2800 BR BKN008,
LTFH,2024-04-06 03:50,36.5671,41.2545,5.00,42.80,42.80,100.00,,1.00,0.00,30.18,,0.19,,VV ,,,,300.00,,,,FG,,,,,,,42.80,LTFH 060350Z VRB01KT 0300 R13/0300N R31/0300N FG VV003 06/06 Q1022 NOSIG,
LTFH,2024-04-06 04:50,36.5671,41.2545,5.00,46.40,44.60,93.40,30.00,3.00,0.00,30.18,,0.75,,BKN,,,,800.00,,,,BCFG,,,,,,,45.15,LTFH 060450Z 03003KT 360V060 1200 R13/0900N R31/P1500U BCFG BKN008 08/07 Q1022 NOSIG,
LTFH,2024-04-06 05:50,36.5671,41.2545,5.00,50.00,50.00,100.00,0.00,0.00,0.00,30.18,,1.99,,BKN,,,,800.00,,,,BR,,,,,,,50.00,LTFH 060550Z 00000KT 3200 BR BKN008 10/10 Q1022 NOSIG,
LTFH,2024-04-06 06:50,36.5671,41.2545,5.00,57.20,48.20,71.83,,3.00,0.00,30.21,,2.98,,FEW,,,,1000.00,,,,BR,,,,,,,57.20,LTFH 060650Z VRB03KT 4800 BR FEW010 14/09 Q1023 NOSIG,
LTFH,2024-04-06 07:50,36.5671,41.2545,5.00,57.20,44.60,62.69,330.00,6.00,0.00,30.18,,6.21,,FEW,,,,3600.00,,,,,,,,,,,57.20,LTFH 060750Z 33006KT 9999 FEW036 14/07 Q1022 NOSIG,
LTFH,2024-04-06 08:50,36.5671,41.2545,5.00,59.00,46.40,62.92,330.00,7.00,0.00,30.18,,6.21,,FEW,,,,3600.00,,,,,,,,,,,59.00,LTFH 060850Z 33007KT 300V360 9999 FEW036 15/08 Q1022 NOSIG,
LTFH,2024-04-06 09:50,36.5671,41.2545,5.00,59.00,44.60,58.77,340.00,8.00,0.00,30.15,,6.21,,FEW,,,,3600.00,,,,,,,,,,,59.00,LTFH 060950Z 34008KT 9999 FEW036 15/07 Q1021 NOSIG,
LTFH,2024-04-06 10:50,36.5671,41.2545,5.00,64.40,46.40,51.98,350.00,6.00,0.00,30.15,,6.21,,FEW,,,,3600.00,,,,,,,,,,,64.40,LTFH 061050Z 35006KT 320V020 9999 FEW036 18/08 Q1021,
LTFH,2024-04-06 11:50,36.5671,41.2545,5.00,64.40,44.60,48.55,350.00,8.00,0.00,30.12,,6.21,,FEW,,,,3600.00,,,,,,,,,,,64.40,LTFH 061150Z 35008KT 320V030 9999 FEW036 18/07 Q1020 NOSIG,
LTFH,2024-04-06 12:50,36.5671,41.2545,5.00,62.60,41.00,45.04,40.00,8.00,0.00,30.12,,6.21,,FEW,,,,3600.00,,,,,,,,,,,62.60,LTFH 061250Z 04008KT 350V080 9999 FEW036 17/05 Q1020 NOSIG,
LTFH,2024-04-06 13:50,36.5671,41.2545,5.00,62.60,42.80,48.28,70.00,6.00,0.00,30.12,,6.21,,FEW,,,,3600.00,,,,,,,,,,,62.60,LTFH 061350Z 07006KT 020V110 9999 FEW036 17/06 Q1020 NOSIG,
LTFH,2024-04-06 14:50,36.5671,41.2545,5.00,60.80,41.00,48.00,70.00,6.00,0.00,30.12,,6.21,,FEW,,,,3600.00,,,,,,,,,,,60.80,LTFH 061450Z 07006KT 030V110 9999 FEW036 16/05 Q1020 NOSIG,
LTFH,2024-04-06 15:50,36.5671,41.2545,5.00,55.40,42.80,62.46,110.00,5.00,0.00,30.12,,6.21,,FEW,,,,3600.00,,,,,,,,,,,55.40,LTFH 061550Z 11005KT 9999 FEW036 13/06 Q1020 NOSIG,
LTFH,2024-04-06 16:50,36.5671,41.2545,5.00,51.80,44.60,76.34,90.00,3.00,0.00,30.12,,6.21,,,,,,,,,,,,,,,,,51.80,LTFH 061650Z 09003KT CAVOK 11/07 Q1020 NOSIG,
LTFH,2024-04-06 17:50,36.5671,41.2545,5.00,50.00,44.60,81.61,100.00,4.00,0.00,30.12,,6.21,,,,,,,,,,,,,,,,,50.00,LTFH 061750Z 10004KT CAVOK 10/07 Q1020 NOSIG,
LTFH,2024-04-06 18:50,36.5671,41.2545,5.00,44.60,42.80,93.35,0.00,0.00,0.00,30.12,,6.21,,,,,,,,,,,,,,,,,44.60,LTFH 061850Z 00000KT CAVOK 07/06 Q1020 NOSIG,
LTFH,2024-04-06 19:50,36.5671,41.2545,5.00,46.40,44.60,93.40,140.00,2.00,0.00,30.12,,6.21,,,,,,,,,,,,,,,,,46.40,LTFH 061950Z 14002KT CAVOK 08/07 Q1020 NOSIG,
LTFH,2024-04-06 20:50,36.5671,41.2545,5.00,44.60,42.80,93.35,130.00,4.00,0.00,30.12,,4.35,,NSC,,,,,,,,,,,,,,,42.13,LTFH 062050Z 13004KT 7000 NSC 07/06 Q1020 BECMG TL2200 2000 BCFG BKN004,
LTFH,2024-04-06 21:50,36.5671,41.2545,5.00,42.80,41.00,93.30,140.00,2.00,0.00,30.09,,3.73,,SCT,,,,700.00,,,,,,,,,,,42.80,LTFH 062150Z 14002KT 6000 SCT007 06/05 Q1019 BECMG 2000 BCFG BKN004,
LTFH,2024-04-06 22:50,36.5671,41.2545,5.00,41.00,39.20,93.24,170.00,3.00,0.00,30.09,,3.73,,NSC,,,,,,,,,,,,,,,38.98,LTFH 062250Z 17003KT 6000 NSC 05/04 Q1019 NOSIG,
LTFH,2024-04-06 23:50,36.5671,41.2545,5.00,39.20,39.20,100.00,130.00,2.00,0.00,30.06,,3.73,,NSC,,,,,,,,,,,,,,,39.20,LTFH 062350Z 13002KT 6000 NSC 04/04 Q1018 NOSIG,
LTFH,2024-04-07 00:50,36.5671,41.2545,5.00,39.20,39.20,100.00,0.00,0.00,0.00,30.06,,1.86,,SCT,,,,500.00,,,,BR,,,,,,,39.20,LTFH 070050Z 00000KT 3000 BR SCT005 04/04 Q1018 NOSIG,
LTFH,2024-04-07 01:50,36.5671,41.2545,5.00,39.20,37.40,93.19,120.00,2.00,0.00,30.06,,1.74,,SCT,,,,400.00,,,,BR,,,,,,,39.20,LTFH 070150Z 12002KT 2800 BR SCT004 04/03 Q1018 NOSIG,
LTFH,2024-04-07 02:50,36.5671,41.2545,5.00,37.40,35.60,93.14,80.00,2.00,0.00,30.06,,1.62,,SCT,,,,400.00,,,,BR,,,,,,,37.40,LTFH 070250Z 08002KT 2600 BR SCT004 03/02 Q1018 NOSIG,
LTFH,2024-04-07 03:50,36.5671,41.2545,5.00,37.40,37.40,100.00,,2.00,0.00,30.06,,1.49,,SCT,,,,400.00,,,,BR,,,,,,,37.40,LTFH 070350Z VRB02KT 2400 BR SCT004 03/03 Q1018 BECMG TL0500 0400 FG BKN001,
LTFH,2024-04-07 04:50,36.5671,41.2545,5.00,42.80,42.80,100.00,0.00,0.00,0.00,30.06,,2.11,,SCT,,,,500.00,,,,BR,,,,,,,42.80,LTFH 070450Z 00000KT 3400 BR SCT005 06/06 Q1018 TEMPO FM0600 0400 FG BKN001,
LTFH,2024-04-07 05:50,36.5671,41.2545,5.00,50.00,44.60,81.61,30.00,4.00,0.00,30.06,,2.80,,SCT,,,,500.00,,,,BR,,,,,,,50.00,LTFH 070550Z 03004KT 350V060 4500 BR SCT005 10/07 Q1018 TEMPO 0400 FG BKN001,
LTFH,2024-04-07 06:50,36.5671,41.2545,5.00,53.60,46.40,76.50,360.00,4.00,0.00,30.06,,3.73,,FEW,,,,1000.00,,,,,,,,,,,53.60,LTFH 070650Z 36004KT 320V030 6000 FEW010 12/08 Q1018 NOSIG,
LTFH,2024-04-07 07:50,36.5671,41.2545,5.00,55.40,46.40,71.64,330.00,8.00,0.00,30.06,,6.21,,FEW,,,,3600.00,,,,,,,,,,,55.40,LTFH 070750Z 33008KT 9999 FEW036 13/08 Q1018 NOSIG,
LTFH,2024-04-07 08:50,36.5671,41.2545,5.00,57.20,48.20,71.83,340.00,10.00,0.00,30.06,,6.21,,FEW,,,,3600.00,,,,,,,,,,,57.20,LTFH 070850Z 34010KT 9999 FEW036 14/09 Q1018 NOSIG,
LTFH,2024-04-07 09:50,36.5671,41.2545,5.00,57.20,50.00,76.82,350.00,11.00,0.00,30.06,,6.21,,FEW,,,,3600.00,,,,,,,,,,,57.20,LTFH 070950Z 35011KT 9999 FEW036 14/10 Q1018 NOSIG,
LTFH,2024-04-07 10:50,36.5671,41.2545,5.00,55.40,50.00,81.99,330.00,9.00,0.00,30.06,,6.21,,FEW,,,,3600.00,,,,,,,,,,,55.40,LTFH 071050Z 33009KT 9999 FEW036 13/10 Q1018 NOSIG,
LTFH,2024-04-07 11:50,36.5671,41.2545,5.00,53.60,48.20,81.87,330.00,11.00,0.00,30.06,,6.21,,FEW,,,,3600.00,,,,,,,,,,,53.60,LTFH 071150Z 33011KT 9999 FEW036 12/09 Q1018 NOSIG,
LTFH,2024-04-07 12:50,36.5671,41.2545,5.00,55.40,48.20,76.66,350.00,10.00,0.00,30.06,,6.21,,FEW,,,,3600.00,,,,,,,,,,,55.40,LTFH 071250Z 35010KT 9999 FEW036 13/09 Q1018 NOSIG,
LTFH,2024-04-07 13:50,36.5671,41.2545,5.00,53.60,48.20,81.87,340.00,10.00,0.00,30.06,,6.21,,FEW,SCT,,,3600.00,10000.00,,,,,,,,,,53.60,LTFH 071350Z 34010KT 9999 FEW036 SCT100 12/09 Q1018 NOSIG,
LTFH,2024-04-07 14:50,36.5671,41.2545,5.00,51.80,46.40,81.74,330.00,8.00,0.00,30.06,,6.21,,SCT,SCT,,,800.00,8000.00,,,,,,,,,,51.80,LTFH 071450Z 33008KT 9999 SCT008 SCT080 11/08 Q1018 NOSIG,
LTFH,2024-04-07 15:50,36.5671,41.2545,5.00,48.20,46.40,93.45,300.00,6.00,0.00,30.06,,6.21,,SCT,SCT,,,800.00,10000.00,,,,,,,,,,45.04,LTFH 071550Z 30006KT 9999 SCT008 SCT100 09/08 Q1018 NOSIG,
LTFH,2024-04-07 16:50,36.5671,41.2545,5.00,50.00,46.40,87.37,310.00,5.00,0.00,30.06,,6.21,,SCT,SCT,,,1000.00,10000.00,,,,,,,,,,50.00,LTFH 071650Z 31005KT 9999 SCT010 SCT100 10/08 Q1018 NOSIG,
LTFH,2024-04-07 17:50,36.5671,41.2545,5.00,50.00,46.40,87.37,340.00,3.00,0.00,30.09,,6.21,,SCT,SCT,BKN,,1000.00,2800.00,8000.00,,,,,,,,,50.00,LTFH 071750Z 34003KT 310V050 9999 SCT010 SCT028 BKN080 10/08 Q1019 NOSIG,
LTFH,2024-04-07 18:50,36.5671,41.2545,5.00,50.00,46.40,87.37,310.00,3.00,0.00,30.06,,6.21,,SCT,SCT,BKN,,1000.00,2800.00,8000.00,,,,,,,,,50.00,LTFH 071850Z 31003KT 9999 SCT010 SCT028 BKN080 10/08 Q1018 NOSIG,
LTFH,2024-04-07 19:50,36.5671,41.2545,5.00,50.00,46.40,87.37,340.00,3.00,0.00,30.06,,6.21,,BKN,,,,1500.00,,,,,,,,,,,50.00,LTFH 071950Z 34003KT 9999 BKN015 10/08 Q1018 NOSIG,
LTFH,2024-04-07 20:50,36.5671,41.2545,5.00,48.20,46.40,93.45,,2.00,0.00,30.06,,6.21,,BKN,,,,1500.00,,,,,,,,,,,48.20,LTFH 072050Z VRB02KT 9999 BKN015 09/08 Q1018 NOSIG,
LTFH,2024-04-07 21:50,36.5671,41.2545,5.00,48.20,46.40,93.45,,2.00,0.00,30.03,,6.21,,BKN,,,,1500.00,,,,,,,,,,,48.20,LTFH 072150Z VRB02KT 9999 BKN015 09/08 Q1017 NOSIG,
LTFH,2024-04-07 22:50,36.5671,41.2545,5.00,48.20,46.40,93.45,180.00,3.00,0.00,30.03,,6.21,,FEW,SCT,BKN,,1500.00,3600.00,10000.00,,,,,,,,,47.21,LTFH 072250Z 18003KT 9999 FEW015 SCT036 BKN100 09/08 Q1017 NOSIG,
LTFH,2024-04-07 23:50,36.5671,41.2545,5.00,48.20,44.60,87.28,140.00,3.00,0.00,30.00,,6.21,,FEW,SCT,BKN,,1500.00,3600.00,10000.00,,,,,,,,,47.21,LTFH 072350Z 14003KT 110V190 9999 FEW015 SCT036 BKN100 09/07 Q1016 NOSIG,
LTFH,2024-04-08 00:50,36.5671,41.2545,5.00,51.80,44.60,76.34,310.00,5.00,0.00,30.00,,6.21,,FEW,SCT,BKN,,1500.00,3600.00,10000.00,,,,,,,,,51.80,LTFH 080050Z 31005KT 250V360 9999 FEW015 SCT036 BKN100 11/07 Q1016 NOSIG,
LTFH,2024-04-08 01:50,36.5671,41.2545,5.00,53.60,44.60,71.45,230.00,5.00,0.00,30.00,,6.21,,FEW,SCT,BKN,,1500.00,3600.00,10000.00,,,,,,,,,53.60,LTFH 080150Z 23005KT 170V280 9999 FEW015 SCT036 BKN100 12/07 Q1016 NOSIG,
LTFH,2024-04-08 02:50,36.5671,41.2545,5.00,50.00,44.60,81.61,,3.00,0.00,30.00,,4.97,,SCT,SCT,BKN,,1500.00,3300.00,9000.00,,-SHRA,,,,,,,50.00,LTFH 080250Z VRB03KT 8000 -SHRA SCT015 SCT033 BKN090 10/07 Q1016 NOSIG,
LTFH,2024-04-08 03:50,36.5671,41.2545,5.00,53.60,46.40,76.50,290.00,11.00,0.00,30.00,,6.21,,SCT,SCT,BKN,,1500.00,3300.00,9000.00,,,,,,,,,53.60,LTFH 080350Z 29011KT 9999 SCT015 SCT033 BKN090 12/08 Q1016 RESHRA NOSIG,
LTFH,2024-04-08 04:50,36.5671,41.2545,5.00,53.60,48.20,81.87,180.00,3.00,0.00,30.03,,6.21,,FEW,SCT,BKN,,1500.00,3600.00,10000.00,,,,,,,,,53.60,LTFH 080450Z 18003KT 9999 FEW015 SCT036 BKN100 12/09 Q1017 NOSIG,
LTFH,2024-04-08 05:50,36.5671,41.2545,5.00,55.40,48.20,76.66,320.00,11.00,0.00,30.00,,6.21,,SCT,BKN,,,3300.00,10000.00,,,,,,,,,,55.40,LTFH 080550Z 32011KT 9999 SCT033 BKN100 13/09 Q1016 NOSIG,
LTFH,2024-04-08 06:50,36.5671,41.2545,5.00,57.20,50.00,76.82,300.00,9.00,0.00,30.03,,6.21,,SCT,BKN,,,3600.00,10000.00,,,,,,,,,,57.20,LTFH 080650Z 30009KT 270V330 9999 SCT036 BKN100 14/10 Q1017 NOSIG,
LTFH,2024-04-08 07:50,36.5671,41.2545,5.00,59.00,50.00,72.01,310.00,11.00,0.00,30.03,,6.21,,SCT,BKN,,,3300.00,10000.00,,,,,,,,,,59.00,LTFH 080750Z 31011KT 9999 SCT033 BKN100 15/10 Q1017 NOSIG,
LTFH,2024-04-08 08:50,36.5671,41.2545,5.00,59.00,50.00,72.01,320.00,12.00,0.00,30.03,,6.21,,SCT,BKN,,,3300.00,10000.00,,,,,,,,,,59.00,LTFH 080850Z 32012KT 9999 SCT033 BKN100 15/10 Q1017 NOSIG,
LTFH,2024-04-08 09:50,36.5671,41.2545,5.00,60.80,51.80,72.20,320.00,8.00,0.00,30.03,,6.21,,SCT,BKN,,,3300.00,10000.00,,,,,,,,,,60.80,LTFH 080950Z 32008KT 9999 SCT033 BKN100 16/11 Q1017 NOSIG,
LTFH,2024-04-08 10:50,36.5671,41.2545,5.00,57.20,51.80,82.12,340.00,9.00,0.00,30.03,,6.21,,SCT,BKN,,,3000.00,10000.00,,,,,,,,,,57.20,LTFH 081050Z 34009KT 9999 SCT030 BKN100 14/11 Q1017 NOSIG,
LTFH,2024-04-08 11:50,36.5671,41.2545,5.00,59.00,51.80,76.98,350.00,9.00,0.00,30.03,,6.21,,FEW,SCT,BKN,,1500.00,2800.00,8000.00,,,,,,,,,59.00,LTFH 081150Z 35009KT 9999 FEW015 SCT028 BKN080 15/11 Q1017 NOSIG,
LTFH,2024-04-08 12:50,36.5671,41.2545,5.00,57.20,51.80,82.12,350.00,7.00,0.00,30.03,,6.21,,FEW,SCT,BKN,,1500.00,2800.00,8000.00,,,,,,,,,57.20,LTFH 081250Z 35007KT 9999 FEW015 SCT028 BKN080 14/11 Q1017 NOSIG,
LTFH,2024-04-08 13:50,36.5671,41.2545,5.00,55.40,50.00,81.99,320.00,7.00,0.00,30.03,,6.21,,FEW,SCT,BKN,,1200.00,2800.00,8000.00,,,,,,,,,55.40,LTFH 081350Z 32007KT 280V350 9999 FEW012 SCT028 BKN080 13/10 Q1017 NOSIG,
LTFH,2024-04-08 14:50,36.5671,41.2545,5.00,55.40,50.00,81.99,320.00,5.00,0.00,30.03,,6.21,,SCT,BKN,,,2800.00,8000.00,,,,,,,,,,55.40,LTFH 081450Z 32005KT 9999 SCT028 BKN080 13/10 Q1017 NOSIG,
LTFH,2024-04-08 15:50,36.5671,41.2545,5.00,53.60,50.00,87.56,300.00,3.00,0.00,30.03,,6.21,,FEW,SCT,BKN,,1200.00,2800.00,8000.00,,,,,,,,,53.60,LTFH 081550Z 30003KT 9999 FEW012 SCT028 BKN080 12/10 Q1017 BECMG TL1700 4000 BR,
LTFH,2024-04-08 16:50,36.5671,41.2545,5.00,51.80,50.00,93.55,,1.00,0.00,30.06,,4.97,,SCT,SCT,BKN,,800.00,2800.00,7000.00,,,,,,,,,51.80,LTFH 081650Z VRB01KT 8000 SCT008 SCT028 BKN070 11/10 Q1018 NOSIG,
LTFH,2024-04-08 17:50,36.5671,41.2545,5.00,51.80,50.00,93.55,270.00,3.00,0.00,30.06,,4.97,,SCT,SCT,BKN,,800.00,2800.00,7000.00,,,,,,,,,51.80,LTFH 081750Z 27003KT 230V290 8000 SCT008 SCT028 BKN070 11/10 Q1018 NOSIG,
LTFH,2024-04-08 18:50,36.5671,41.2545,5.00,50.00,48.20,93.50,310.00,3.00,0.00,30.06,,4.97,,SCT,,,,800.00,,,,,,,,,,,50.00,LTFH 081850Z 31003KT 280V340 8000 SCT008 10/09 Q1018 NOSIG,
LTFH,2024-04-08 19:50,36.5671,41.2545,5.00,51.80,50.00,93.55,300.00,3.00,0.00,30.06,,4.35,,BKN,,,,800.00,,,,,,,,,,,51.80,LTFH 081950Z 30003KT 260V320 7000 BKN008 11/10 Q1018 NOSIG,
LTFH,2024-04-08 20:50,36.5671,41.2545,5.00,51.80,50.00,93.55,360.00,2.00,0.00,30.06,,4.35,,BKN,,,,800.00,,,,,,,,,,,51.80,LTFH 082050Z 36002KT 7000 BKN008 11/10 Q1018 NOSIG,
LTFH,2024-04-08 21:50,36.5671,41.2545,5.00,53.60,50.00,87.56,,2.00,0.00,30.06,,4.35,,BKN,,,,800.00,,,,,,,,,,,53.60,LTFH 082150Z VRB02KT 7000 BKN008 12/10 Q1018 NOSIG,
LTFH,2024-04-08 22:50,36.5671,41.2545,5.00,51.80,50.00,93.55,,1.00,0.00,30.03,,4.35,,BKN,,,,1300.00,,,,,,,,,,,51.80,LTFH 082250Z VRB01KT 7000 BKN013 11/10 Q1017 NOSIG,
LTFH,2024-04-08 23:50,36.5671,41.2545,5.00,50.00,48.20,93.50,130.00,3.00,0.00,30.03,,3.73,,BKN,,,,1400.00,,,,,,,,,,,50.00,LTFH 082350Z 13003KT 6000 BKN014 10/09 Q1017 NOSIG,
LTFH,2024-04-09 00:50,36.5671,41.2545,5.00,51.80,50.00,93.55,,1.00,0.00,30.03,,3.73,,BKN,,,,1100.00,,,,,,,,,,,51.80,LTFH 090050Z VRB01KT 6000 BKN011 11/10 Q1017 NOSIG,
LTFH,2024-04-09 01:50,36.5671,41.2545,5.00,51.80,50.00,93.55,160.00,3.00,0.00,30.03,,2.49,,BKN,,,,800.00,,,,BR,,,,,,,51.80,LTFH 090150Z 16003KT 100V190 4000 BR BKN008 11/10 Q1017 BECMG FM0300 1200 BCFG,
LTFH,2024-04-09 02:50,36.5671,41.2545,5.00,51.80,50.00,93.55,160.00,3.00,0.00,30.03,,1.99,,BKN,,,,800.00,,,,BR,,,,,,,51.80,LTFH 090250Z 16003KT 3200 BR BKN008 11/10 Q1017 BECMG 1200 BCFG,
LTFH,2024-04-09 03:50,36.5671,41.2545,5.00,51.80,50.00,93.55,120.00,3.00,0.00,30.03,,2.49,,BKN,,,,900.00,,,,BR,,,,,,,51.80,LTFH 090350Z 12003KT 4000 BR BKN009 11/10 Q1017 BECMG 1200 BCFG,
LTFH,2024-04-09 04:50,36.5671,41.2545,5.00,53.60,50.00,87.56,160.00,4.00,0.00,30.06,,2.80,,BKN,,,,1000.00,,,,BR,,,,,,,53.60,LTFH 090450Z 16004KT 140V200 4500 BR BKN010 12/10 Q1018 NOSIG,
LTFH,2024-04-09 05:50,36.5671,41.2545,5.00,53.60,48.20,81.87,310.00,4.00,0.00,30.06,,2.98,,BKN,,,,1000.00,,,,BR,,,,,,,53.60,LTFH 090550Z 31004KT 270V350 4800 BR BKN010 12/09 Q1018 NOSIG,
LTFH,2024-04-09 06:50,36.5671,41.2545,5.00,55.40,48.20,76.66,320.00,6.00,0.00,30.06,,4.35,,SCT,,,,1200.00,,,,,,,,,,,55.40,LTFH 090650Z 32006KT 290V020 7000 SCT012 13/09 Q1018 NOSIG,
LTFH,2024-04-09 07:50,36.5671,41.2545,5.00,57.20,50.00,76.82,330.00,8.00,0.00,30.03,,5.59,,FEW,,,,900.00,,,,,,,,,,,57.20,LTFH 090750Z 33008KT 310V020 9000 FEW009 14/10 Q1017 NOSIG,
LTFH,2024-04-09 08:50,36.5671,41.2545,5.00,57.20,50.00,76.82,330.00,6.00,0.00,30.06,,6.21,,FEW,,,,1000.00,,,,,,,,,,,57.20,LTFH 090850Z 33006KT 290V010 9999 FEW010 14/10 Q1018 NOSIG,
LTFH,2024-04-09 09:50,36.5671,41.2545,5.00,57.20,50.00,76.82,330.00,9.00,0.00,30.03,,6.21,,FEW,,,,800.00,,,,,,,,,,,57.20,LTFH 090950Z 33009KT 9999 FEW008 14/10 Q1017 NOSIG,
LTFH,2024-04-09 10:50,36.5671,41.2545,5.00,57.20,50.00,76.82,320.00,8.00,0.00,30.03,,6.21,,SCT,,,,1000.00,,,,,,,,,,,57.20,LTFH 091050Z 32008KT 280V340 9999 SCT010 14/10 Q1017 NOSIG,
LTFH,2024-04-09 11:50,36.5671,41.2545,5.00,57.20,48.20,71.83,330.00,8.00,0.00,30.03,,6.21,,SCT,,,,1000.00,,,,,,,,,,,57.20,LTFH 091150Z 33008KT 9999 SCT010 14/09 Q1017 NOSIG,
LTFH,2024-04-09 12:50,36.5671,41.2545,5.00,55.40,48.20,76.66,310.00,8.00,0.00,30.00,,6.21,,FEW,,,,900.00,,,,,,,,,,,55.40,LTFH 091250Z 31008KT 290V350 9999 FEW009 13/09 Q1016 NOSIG,
LTFH,2024-04-09 13:50,36.5671,41.2545,5.00,55.40,48.20,76.66,310.00,7.00,0.00,30.00,,6.21,,FEW,,,,900.00,,,,,,,,,,,55.40,LTFH 091350Z 31007KT 270V340 9999 FEW009 13/09 Q1016 NOSIG,
LTFH,2024-04-09 14:50,36.5671,41.2545,5.00,53.60,48.20,81.87,300.00,6.00,0.00,30.00,,6.21,,BKN,,,,1200.00,,,,,,,,,,,53.60,LTFH 091450Z 30006KT 9999 BKN012 12/09 Q1016 NOSIG,
LTFH,2024-04-09 15:50,36.5671,41.2545,5.00,53.60,48.20,81.87,300.00,3.00,0.00,30.00,,6.21,,BKN,,,,1400.00,,,,,,,,,,,53.60,LTFH 091550Z 30003KT 9999 BKN014 12/09 Q1016 NOSIG,
LTFH,2024-04-09 16:50,36.5671,41.2545,5.00,53.60,48.20,81.87,320.00,3.00,0.00,30.00,,6.21,,BKN,,,,1200.00,,,,,,,,,,,53.60,LTFH 091650Z 32003KT 9999 BKN012 12/09 Q1016 NOSIG,
LTFH,2024-04-09 17:50,36.5671,41.2545,5.00,53.60,50.00,87.56,300.00,4.00,0.00,30.00,,6.21,,BKN,,,,1200.00,,,,,,,,,,,53.60,LTFH 091750Z 30004KT 9999 BKN012 12/10 Q1016 NOSIG,
LTFH,2024-04-09 18:50,36.5671,41.2545,5.00,53.60,48.20,81.87,300.00,4.00,0.00,30.00,,6.21,,BKN,,,,1500.00,,,,,,,,,,,53.60,LTFH 091850Z 30004KT 9999 BKN015 12/09 Q1016 NOSIG,
LTFH,2024-04-09 19:50,36.5671,41.2545,5.00,53.60,48.20,81.87,300.00,3.00,0.00,29.97,,6.21,,SCT,BKN,,,1500.00,8000.00,,,,,,,,,,53.60,LTFH 091950Z 30003KT 270V340 9999 SCT015 BKN080 12/09 Q1015 NOSIG,
LTFH,2024-04-09 20:50,36.5671,41.2545,5.00,53.60,48.20,81.87,330.00,3.00,0.00,30.00,,6.21,,SCT,BKN,,,1500.00,8000.00,,,,,,,,,,53.60,LTFH 092050Z 33003KT 9999 SCT015 BKN080 12/09 Q1016 NOSIG,
LTFH,2024-04-09 21:50,36.5671,41.2545,5.00,53.60,48.20,81.87,330.00,4.00,0.00,29.97,,6.21,,SCT,BKN,,,1500.00,8000.00,,,,,,,,,,53.60,LTFH 092150Z 33004KT 9999 SCT015 BKN080 12/09 Q1015 NOSIG,
LTFH,2024-04-09 22:50,36.5671,41.2545,5.00,53.60,48.20,81.87,310.00,8.00,0.00,29.97,,6.21,,SCT,BKN,,,1500.00,8000.00,,,,,,,,,,53.60,LTFH 092250Z 31008KT 9999 SCT015 BKN080 12/09 Q1015 NOSIG,
LTFH,2024-04-09 23:50,36.5671,41.2545,5.00,51.80,46.40,81.74,310.00,10.00,0.00,29.97,,6.21,,SCT,BKN,,,1500.00,8000.00,,,,,,,,,,51.80,LTFH 092350Z 31010KT 9999 SCT015 BKN080 11/08 Q1015 NOSIG,
LTFH,2024-04-10 00:50,36.5671,41.2545,5.00,51.80,46.40,81.74,300.00,7.00,0.00,29.97,,6.21,,SCT,BKN,,,1500.00,8000.00,,,,,,,,,,51.80,LTFH 100050Z 30007KT 9999 SCT015 BKN080 11/08 Q1015 NOSIG,
LTFH,2024-04-10 01:50,36.5671,41.2545,5.00,51.80,46.40,81.74,310.00,7.00,0.00,29.97,,6.21,,SCT,BKN,,,1500.00,8000.00,,,,,,,,,,51.80,LTFH 100150Z 31007KT 9999 SCT015 BKN080 11/08 Q1015 NOSIG,
LTFH,2024-04-10 02:50,36.5671,41.2545,5.00,51.80,46.40,81.74,320.00,8.00,0.00,29.97,,6.21,,SCT,BKN,,,1500.00,8000.00,,,,,,,,,,51.80,LTFH 100250Z 32008KT 9999 SCT015 BKN080 11/08 Q1015 NOSIG,
LTFH,2024-04-10 03:50,36.5671,41.2545,5.00,51.80,48.20,87.47,300.00,6.00,0.00,29.97,,6.21,,SCT,BKN,,,1500.00,8000.00,,,,,,,,,,51.80,LTFH 100350Z 30006KT 9999 SCT015 BKN080 11/09 Q1015 NOSIG,
LTFH,2024-04-10 04:50,36.5671,41.2545,5.00,51.80,48.20,87.47,310.00,4.00,0.00,29.97,,6.21,,SCT,BKN,,,2500.00,9000.00,,,-SHRA,,,,,,,51.80,LTFH 100450Z 31004KT 9999 -SHRA SCT025 BKN090 11/09 Q1015 NOSIG,
LTFH,2024-04-10 05:50,36.5671,41.2545,5.00,53.60,50.00,87.56,310.00,5.00,0.00,29.97,,6.21,,FEW,SCT,BKN,,1200.00,3000.00,10000.00,,,,,,,,,53.60,LTFH 100550Z 31005KT 9999 FEW012 SCT030 BKN100 12/10 Q1015 RESHRA NOSIG,
LTFH,2024-04-10 06:50,36.5671,41.2545,5.00,53.60,50.00,87.56,330.00,3.00,0.00,29.97,,6.21,,FEW,SCT,BKN,,900.00,3000.00,10000.00,,,,,,,,,53.60,LTFH 100650Z 33003KT 300V060 9999 FEW009 SCT030 BKN100 12/10 Q1015 NOSIG,
LTFH,2024-04-10 07:50,36.5671,41.2545,5.00,55.40,48.20,76.66,340.00,5.00,0.00,30.00,,6.21,,SCT,SCT,BKN,,1000.00,3300.00,10000.00,,,,,,,,,55.40,LTFH 100750Z 34005KT 320V020 9999 SCT010 SCT033 BKN100 13/09 Q1016 NOSIG,
LTFH,2024-04-10 08:50,36.5671,41.2545,5.00,57.20,50.00,76.82,340.00,4.00,0.00,30.00,,6.21,,FEW,SCT,BKN,,1200.00,3300.00,10000.00,,,,,,,,,57.20,LTFH 100850Z 34004KT 290V040 9999 FEW012 SCT033 BKN100 14/10 Q1016 NOSIG,
LTFH,2024-04-10 09:50,36.5671,41.2545,5.00,60.80,51.80,72.20,,2.00,0.00,29.97,,6.21,,FEW,SCT,BKN,,1200.00,3300.00,10000.00,,,,,,,,,60.80,LTFH 100950Z VRB02KT 9999 FEW012 SCT033 BKN100 16/11 Q1015 NOSIG,
LTFH,2024-04-10 10:50,36.5671,41.2545,5.00,62.60,48.20,59.26,310.00,5.00,0.00,29.97,,6.21,,SCT,BKN,,,3600.00,10000.00,,,,,,,,,,62.60,LTFH 101050Z 31005KT 260V020 9999 SCT036 BKN100 17/09 Q1015 NOSIG,
LTFH,2024-04-10 11:50,36.5671,41.2545,5.00,60.80,50.00,67.54,340.00,7.00,0.00,29.97,,6.21,,SCT,BKN,,,3600.00,10000.00,,,,,,,,,,60.80,LTFH 101150Z 34007KT 300V020 9999 SCT036 BKN100 16/10 Q1015 NOSIG,
LTFH,2024-04-10 12:50,36.5671,41.2545,5.00,59.00,51.80,76.98,320.00,8.00,0.00,29.97,,6.21,,SCT,BKN,,,3600.00,10000.00,,,,,,,,,,59.00,LTFH 101250Z 32008KT 9999 SCT036 BKN100 15/11 Q1015 NOSIG,
LTFH,2024-04-10 13:50,36.5671,41.2545,5.00,57.20,51.80,82.12,340.00,6.00,0.00,30.00,,6.21,,FEW,SCT,BKN,,1000.00,3600.00,10000.00,,,,,,,,,57.20,LTFH 101350Z 34006KT 310V020 9999 FEW010 SCT036 BKN100 14/11 Q1016 NOSIG,
LTFH,2024-04-10 14:50,36.5671,41.2545,5.00,55.40,51.80,87.65,290.00,3.00,0.00,30.00,,4.97,,FEW,SCT,BKN,,1000.00,3300.00,9000.00,,-SHRA,,,,,,,55.40,LTFH 101450Z 29003KT 250V350 8000 -SHRA FEW010 SCT033 BKN090 13/11 Q1016 NOSIG,
LTFH,2024-04-10 15:50,36.5671,41.2545,5.00,55.40,51.80,87.65,300.00,6.00,0.00,30.00,,4.97,,FEW,BKN,BKN,,1000.00,3300.00,9000.00,,-SHRA,,,,,,,55.40,LTFH 101550Z 30006KT 8000 -SHRA FEW010 BKN033 BKN090 13/11 Q1016 NOSIG,
LTFH,2024-04-10 16:50,36.5671,41.2545,5.00,53.60,51.80,93.60,300.00,4.00,0.00,30.03,,4.97,,SCT,BKN,BKN,,1000.00,3000.00,9000.00,,-SHRA,,,,,,,53.60,LTFH 101650Z 30004KT 270V330 8000 -SHRA SCT010 BKN030 BKN090 12/11 Q1017 NOSIG,
LTFH,2024-04-10 17:50,36.5671,41.2545,5.00,53.60,51.80,93.60,270.00,6.00,0.00,30.03,,4.97,,SCT,BKN,BKN,,1000.00,3000.00,9000.00,,-SHRA,,,,,,,53.60,LTFH 101750Z 27006KT 8000 -SHRA SCT010 BKN030 BKN090 12/11 Q1017 NOSIG,
LTFH,2024-04-10 18:50,36.5671,41.2545,5.00,53.60,51.80,93.60,140.00,5.00,0.00,30.03,,5.59,,SCT,BKN,,,3500.00,10000.00,,,-SHRA,,,,,,,53.60,LTFH 101850Z 14005KT 100V160 9000 -SHRA SCT035 BKN100 12/11 Q1017 NOSIG,
LTFH,2024-04-10 19:50,36.5671,41.2545,5.00,53.60,51.80,93.60,80.00,5.00,0.00,30.03,,4.97,,SCT,BKN,,,3500.00,9000.00,,,-SHRA,,,,,,,53.60,LTFH 101950Z 08005KT 8000 -SHRA SCT035 BKN090 12/11 Q1017 NOSIG,
LTFH,2024-04-10 20:50,36.5671,41.2545,5.00,53.60,53.60,100.00,,1.00,0.00,30.06,,4.97,,SCT,BKN,,,3500.00,9000.00,,,,,,,,,,53.60,LTFH 102050Z VRB01KT 8000 SCT035 BKN090 12/12 Q1018 RESHRA NOSIG,
LTFH,2024-04-10 21:50,36.5671,41.2545,5.00,53.60,53.60,100.00,200.00,4.00,0.00,30.06,,4.97,,SCT,BKN,,,3500.00,9000.00,,,,,,,,,,53.60,LTFH 102150Z 20004KT 8000 SCT035 BKN090 12/12 Q1018 NOSIG,
LTFH,2024-04-10 22:50,36.5671,41.2545,5.00,53.60,51.80,93.60,190.00,2.00,0.00,30.06,,4.97,,SCT,BKN,,,3500.00,9000.00,,,,,,,,,,53.60,LTFH 102250Z 19002KT 8000 SCT035 BKN090 12/11 Q1018 NOSIG,
LTFH,2024-04-10 23:50,36.5671,41.2545,5.00,55.40,50.00,81.99,270.00,4.00,0.00,30.06,,4.97,,FEW,BKN,,,3500.00,9000.00,,,,,,,,,,55.40,LTFH 102350Z 27004KT 240V300 8000 FEW035 BKN090 13/10 Q1018 TEMPO 32016KT,
LTFH,2024-04-11 00:50,36.5671,41.2545,5.00,55.40,51.80,87.65,230.00,4.00,0.00,30.06,,4.97,,FEW,SCT,,,3500.00,9000.00,,,,,,,,,,55.40,LTFH 110050Z 23004KT 8000 FEW035 SCT090 13/11 Q1018 TEMPO 32016KT,
LTFH,2024-04-11 01:50,36.5671,41.2545,5.00,53.60,50.00,87.56,320.00,6.00,0.00,30.06,,6.21,,SCT,BKN,,,3500.00,10000.00,,,,,,,,,,53.60,LTFH 110150Z 32006KT 9999 SCT035 BKN100 12/10 Q1018 NOSIG,
LTFH,2024-04-11 02:50,36.5671,41.2545,5.00,55.40,50.00,81.99,310.00,13.00,0.00,30.06,,6.21,,BKN,,,,3300.00,,,,,,,,,,,55.40,LTFH 110250Z 31013KT 9999 BKN033 13/10 Q1018 NOSIG,
LTFH,2024-04-11 03:50,36.5671,41.2545,5.00,55.40,51.80,87.65,300.00,12.00,0.00,30.09,,6.21,,BKN,BKN,,,1100.00,2800.00,,,,,,,,,,55.40,LTFH 110350Z 30012KT 9999 BKN011 BKN028 13/11 Q1019 BECMG SCT035 BN100,
LTFH,2024-04-11 04:50,36.5671,41.2545,5.00,55.40,51.80,87.65,300.00,13.00,0.00,30.09,,6.21,,SCT,BKN,,,1200.00,2800.00,,,,,,,,,,55.40,LTFH 110450Z 30013KT 9999 SCT012 BKN028 13/11 Q1019 NOSIG,
LTFH,2024-04-11 05:50,36.5671,41.2545,5.00,55.40,51.80,87.65,310.00,12.00,0.00,30.12,,6.21,,SCT,BKN,,,800.00,2800.00,,,,,,,,,,55.40,LTFH 110550Z 31012KT 9999 SCT008 BKN028 13/11 Q1020 NOSIG,
LTFH,2024-04-11 06:50,36.5671,41.2545,5.00,53.60,51.80,93.60,310.00,8.00,0.00,30.12,,3.11,,BKN,,,,400.00,,,,BR,,,,,,,53.60,LTFH 110650Z 31008KT 5000 BR BKN004 12/11 Q1020 BECMG 8000 SCT012 BKN028,
LTFH,2024-04-11 07:50,36.5671,41.2545,5.00,55.40,51.80,87.65,350.00,5.00,0.00,30.12,,3.73,,BKN,BKN,,,500.00,3000.00,,,,,,,,,,55.40,LTFH 110750Z 35005KT 6000 BKN005 BKN030 13/11 Q1020 BECMG TL0850 SCT005 BKN030,
LTFH,2024-04-11 08:50,36.5671,41.2545,5.00,53.60,51.80,93.60,320.00,4.00,0.00,30.15,,3.73,,SCT,BKN,,,500.00,3000.00,,,,,,,,,,53.60,LTFH 110850Z 32004KT 6000 SCT005 BKN030 12/11 Q1021 NOSIG,
LTFH,2024-04-11 09:50,36.5671,41.2545,5.00,55.40,53.60,93.65,300.00,5.00,0.00,30.15,,3.73,,SCT,BKN,,,500.00,3000.00,,,,,,,,,,55.40,LTFH 110950Z 30005KT 6000 SCT005 BKN030 13/12 Q1021 NOSIG,
LTFH,2024-04-11 10:50,36.5671,41.2545,5.00,53.60,51.80,93.60,320.00,4.00,0.00,30.15,,3.73,,BKN,,,,500.00,,,,,,,,,,,53.60,LTFH 111050Z 32004KT 6000 BKN005 12/11 Q1021 NOSIG,
LTFH,2024-04-11 11:50,36.5671,41.2545,5.00,53.60,51.80,93.60,280.00,5.00,0.00,30.15,,3.73,,BKN,,,,500.00,,,,,,,,,,,53.60,LTFH 111150Z 28005KT 6000 BKN005 12/11 Q1021 NOSIG,
LTFH,2024-04-11 12:50,36.5671,41.2545,5.00,55.40,51.80,87.65,300.00,4.00,0.00,30.15,,6.21,,BKN,,,,500.00,,,,,,,,,,,55.40,LTFH 111250Z 30004KT 260V330 9999 BKN005 13/11 Q1021 NOSIG,
LTFH,2024-04-11 13:50,36.5671,41.2545,5.00,55.40,51.80,87.65,300.00,4.00,0.00,30.15,,6.21,,BKN,,,,500.00,,,,,,,,,,,55.40,LTFH 111350Z 30004KT 260V330 9999 BKN005 13/11 Q1021 NOSIG,
LTFH,2024-04-11 14:50,36.5671,41.2545,5.00,55.40,53.60,93.65,310.00,9.00,0.00,30.15,,3.73,,BKN,,,,500.00,,,,,,,,,,,55.40,LTFH 111450Z 31009KT 6000 BKN005 13/12 Q1021 NOSIG,
LTFH,2024-04-11 15:50,36.5671,41.2545,5.00,53.60,53.60,100.00,350.00,5.00,0.00,30.15,,3.73,,BKN,,,,500.00,,,,,,,,,,,53.60,LTFH 111550Z 35005KT 330V030 6000 BKN005 12/12 Q1021 NOSIG,
LTFH,2024-04-11 16:50,36.5671,41.2545,5.00,53.60,53.60,100.00,,1.00,0.00,30.18,,3.73,,SCT,BKN,,,400.00,2500.00,,,,,,,,,,53.60,LTFH 111650Z VRB01KT 6000 SCT004 BKN025 12/12 Q1022 NOSIG,
LTFH,2024-04-11 17:50,36.5671,41.2545,5.00,53.60,53.60,100.00,,2.00,0.00,30.18,,3.73,,SCT,BKN,,,1000.00,2500.00,,,,,,,,,,53.60,LTFH 111750Z VRB02KT 6000 SCT010 BKN025 12/12 Q1022 NOSIG,
LTFH,2024-04-11 18:50,36.5671,41.2545,5.00,53.60,53.60,100.00,270.00,4.00,0.00,30.18,,2.49,,SCT,BKN,,,400.00,2500.00,,,-SHRA BR,,,,,,,53.60,LTFH 111850Z 27004KT 4000 -SHRA BR SCT004 BKN025 12/12 Q1022 BECMG 6000,
LTFH,2024-04-11 19:50,36.5671,41.2545,5.00,53.60,53.60,100.00,270.00,4.00,0.00,30.18,,2.49,,BKN,BKN,,,400.00,2500.00,,,-SHRA BR,,,,,,,53.60,COR LTFH 111950Z 27004KT 4000 -SHRA BR BKN004 BKN025 12/12 Q1022 NOSIG,
LTFH,2024-04-11 20:50,36.5671,41.2545,5.00,53.60,53.60,100.00,260.00,4.00,0.00,30.18,,2.49,,BKN,BKN,,,300.00,2500.00,,,BR,,,,,,,53.60,LTFH 112050Z 26004KT 4000 BR BKN003 BKN025 12/12 Q1022 RESHRA NOSIG,
LTFH,2024-04-11 21:50,36.5671,41.2545,5.00,53.60,53.60,100.00,,1.00,0.00,30.18,,2.49,,BKN,BKN,,,500.00,2500.00,,,BR,,,,,,,53.60,LTFH 112150Z VRB01KT 4000 BR BKN005 BKN025 12/12 Q1022 NOSIG,
LTFH,2024-04-11 22:50,36.5671,41.2545,5.00,53.60,53.60,100.00,310.00,4.00,0.00,30.18,,2.49,,BKN,BKN,,,600.00,2600.00,,,BR,,,,,,,53.60,LTFH 112250Z 31004KT 4000 BR BKN006 BKN026 12/12 Q1022 NOSIG,
LTFH,2024-04-11 23:50,36.5671,41.2545,5.00,53.60,53.60,100.00,330.00,5.00,0.00,30.18,,2.17,,BKN,BKN,,,600.00,2600.00,,,-SHRA BR,,,,,,,53.60,LTFH 112350Z 33005KT 3500 -SHRA BR BKN006 BKN026 12/12 Q1022 NOSIG,
LTFH,2024-04-12 00:50,36.5671,41.2545,5.00,53.60,53.60,100.00,280.00,5.00,0.00,30.18,,2.17,,BKN,BKN,,,400.00,2500.00,,,-SHRA BR,,,,,,,53.60,LTFH 120050Z 28005KT 3500 -SHRA BR BKN004 BKN025 12/12 Q1022 NOSIG,
LTFH,2024-04-12 01:50,36.5671,41.2545,5.00,53.60,53.60,100.00,270.00,4.00,0.00,30.15,,2.49,,BKN,BKN,,,300.00,2500.00,,,-SHRA BR,,,,,,,53.60,LTFH 120150Z 27004KT 4000 -SHRA BR BKN003 BKN025 12/12 Q1021 NOSIG,
LTFH,2024-04-12 02:50,36.5671,41.2545,5.00,53.60,51.80,93.60,40.00,4.00,0.00,30.18,,2.49,,BKN,BKN,,,500.00,2500.00,,,BR,,,,,,,53.60,LTFH 120250Z 04004KT 010V070 4000 BR BKN005 BKN025 12/11 Q1022 RESHRA NOSIG,
LTFH,2024-04-12 03:50,36.5671,41.2545,5.00,53.60,51.80,93.60,330.00,2.00,0.00,30.18,,2.49,,BKN,BKN,,,400.00,2500.00,,,BR,,,,,,,53.60,LTFH 120350Z 33002KT 4000 BR BKN004 BKN025 12/11 Q1022 NOSIG,
LTFH,2024-04-12 04:50,36.5671,41.2545,5.00,53.60,53.60,100.00,270.00,4.00,0.00,30.21,,1.55,,BKN,BKN,,,300.00,2500.00,,,BR,,,,,,,53.60,LTFH 120450Z 27004KT 2500 BR BKN003 BKN025 12/12 Q1023 BECMG 3500,
LTFH,2024-04-12 05:50,36.5671,41.2545,5.00,53.60,53.60,100.00,270.00,5.00,0.00,30.21,,2.49,,BKN,BKN,,,400.00,2500.00,,,BR,,,,,,,53.60,LTFH 120550Z 27005KT 4000 BR BKN004 BKN025 12/12 Q1023 NOSIG,
LTFH,2024-04-12 06:50,36.5671,41.2545,5.00,55.40,51.80,87.65,290.00,5.00,0.00,30.21,,3.73,,BKN,BKN,,,700.00,2500.00,,,,,,,,,,55.40,LTFH 120650Z 29005KT 6000 BKN007 BKN025 13/11 Q1023 NOSIG,
LTFH,2024-04-12 07:50,36.5671,41.2545,5.00,55.40,51.80,87.65,320.00,4.00,0.00,30.21,,6.21,,BKN,BKN,,,900.00,2500.00,,,,,,,,,,55.40,LTFH 120750Z 32004KT 290V360 9999 BKN009 BKN025 13/11 Q1023 NOSIG,
LTFH,2024-04-12 08:50,36.5671,41.2545,5.00,55.40,51.80,87.65,310.00,4.00,0.00,30.21,,6.21,,SCT,BKN,,,1200.00,2500.00,,,,,,,,,,55.40,LTFH 120850Z 31004KT 280V340 9999 SCT012 BKN025 13/11 Q1023 NOSIG,
LTFH,2024-04-12 09:50,36.5671,41.2545,5.00,57.20,51.80,82.12,320.00,5.00,0.00,30.18,,6.21,,SCT,BKN,,,1200.00,3000.00,,,,,,,,,,57.20,LTFH 120950Z 32005KT 290V360 9999 SCT012 BKN030 14/11 Q1022 NOSIG,
LTFH,2024-04-12 10:50,36.5671,41.2545,5.00,59.00,53.60,82.25,340.00,5.00,0.00,30.18,,6.21,,SCT,BKN,,,1200.00,3000.00,,,,,,,,,,59.00,LTFH 121050Z 34005KT 300V030 9999 SCT012 BKN030 15/12 Q1022 NOSIG,
LTFH,2024-04-12 11:50,36.5671,41.2545,5.00,57.20,51.80,82.12,340.00,6.00,0.00,30.18,,6.21,,SCT,BKN,,,1200.00,3000.00,,,,,,,,,,57.20,LTFH 121150Z 34006KT 9999 SCT012 BKN030 14/11 Q1022 NOSIG,
LTFH,2024-04-12 12:50,36.5671,41.2545,5.00,57.20,53.60,87.74,330.00,6.00,0.00,30.18,,6.21,,SCT,BKN,,,1200.00,3000.00,,,,,,,,,,57.20,LTFH 121250Z 33006KT 9999 SCT012 BKN030 14/12 Q1022 NOSIG,
LTFH,2024-04-12 13:50,36.5671,41.2545,5.00,55.40,53.60,93.65,310.00,6.00,0.00,30.18,,6.21,,SCT,BKN,,,1200.00,3000.00,,,,,,,,,,55.40,LTFH 121350Z 31006KT 9999 SCT012 BKN030 13/12 Q1022 NOSIG,
LTFH,2024-04-12 14:50,36.5671,41.2545,5.00,55.40,51.80,87.65,320.00,4.00,0.00,30.18,,6.21,,SCT,BKN,,,1200.00,3000.00,,,,,,,,,,55.40,LTFH 121450Z 32004KT 9999 SCT012 BKN030 13/11 Q1022 NOSIG,
LTFH,2024-04-12 15:50,36.5671,41.2545,5.00,53.60,51.80,93.60,320.00,3.00,0.00,30.18,,6.21,,SCT,BKN,,,800.00,3000.00,,,,,,,,,,53.60,LTFH 121550Z 32003KT 9999 SCT008 BKN030 12/11 Q1022 NOSIG,
LTFH,2024-04-12 16:50,36.5671,41.2545,5.00,53.60,51.80,93.60,290.00,3.00,0.00,30.18,,3.73,,SCT,BKN,,,500.00,2500.00,,,,,,,,,,53.60,LTFH 121650Z 29003KT 6000 SCT005 BKN025 12/11 Q1022 NOSIG,
LTFH,2024-04-12 17:50,36.5671,41.2545,5.00,53.60,51.80,93.60,280.00,3.00,0.00,30.18,,3.73,,SCT,BKN,,,300.00,2500.00,,,,,,,,,,53.60,LTFH 121750Z 28003KT 6000 SCT003 BKN025 12/11 Q1022 NOSIG,
LTFH,2024-04-12 18:50,36.5671,41.2545,5.00,53.60,51.80,93.60,260.00,3.00,0.00,30.18,,3.73,,SCT,BKN,,,1000.00,2800.00,,,,,,,,,,53.60,LTFH 121850Z 26003KT 240V300 6000 SCT010 BKN028 12/11 Q1022 NOSIG,
LTFH,2024-04-12 19:50,36.5671,41.2545,5.00,53.60,53.60,100.00,0.00,0.00,0.00,30.18,,3.73,,SCT,BKN,,,1000.00,2800.00,,,,,,,,,,53.60,COR LTFH 121950Z 00000KT 6000 SCT010 BKN028 12/12 Q1022 NOSIG,
LTFH,2024-04-12 20:50,36.5671,41.2545,5.00,53.60,51.80,93.60,180.00,2.00,0.00,30.18,,3.73,,SCT,BKN,,,1000.00,2800.00,,,,,,,,,,53.60,LTFH 122050Z 18002KT 6000 SCT010 BKN028 12/11 Q1022 NOSIG,
LTFH,2024-04-12 21:50,36.5671,41.2545,5.00,53.60,51.80,93.60,180.00,2.00,0.00,30.18,,3.73,,SCT,BKN,,,1000.00,2800.00,,,,,,,,,,53.60,LTFH 122150Z 18002KT 6000 SCT010 BKN028 12/11 Q1022 NOSIG,
LTFH,2024-04-12 22:50,36.5671,41.2545,5.00,53.60,51.80,93.60,190.00,3.00,0.00,30.18,,6.21,,SCT,BKN,,,1000.00,3000.00,,,,,,,,,,53.60,LTFH 122250Z 19003KT 9999 SCT010 BKN030 12/11 Q1022 NOSIG,
LTFH,2024-04-12 23:50,36.5671,41.2545,5.00,53.60,51.80,93.60,120.00,3.00,0.00,30.15,,3.73,,SCT,BKN,,,1200.00,3000.00,,,,,,,,,,53.60,LTFH 122350Z 12003KT 6000 SCT012 BKN030 12/11 Q1021 NOSIG,
LTFH,2024-04-13 00:50,36.5671,41.2545,5.00,53.60,51.80,93.60,0.00,0.00,0.00,30.15,,3.73,,SCT,BKN,,,1200.00,2800.00,,,,,,,,,,53.60,LTFH 130050Z 00000KT 6000 SCT012 BKN028 12/11 Q1021 NOSIG,
LTFH,2024-04-13 01:50,36.5671,41.2545,5.00,53.60,51.80,93.60,140.00,3.00,0.00,30.15,,3.73,,SCT,BKN,,,800.00,2800.00,,,,,,,,,,53.60,LTFH 130150Z 14003KT 6000 SCT008 BKN028 12/11 Q1021 NOSIG,
LTFH,2024-04-13 02:50,36.5671,41.2545,5.00,53.60,51.80,93.60,140.00,2.00,0.00,30.15,,2.49,,BKN,BKN,,,800.00,2800.00,,,BR,,,,,,,53.60,LTFH 130250Z 14002KT 4000 BR BKN008 BKN028 12/11 Q1021 BECMG 6000 SCT008 BKN028,
LTFH,2024-04-13 03:50,36.5671,41.2545,5.00,55.40,53.60,93.65,120.00,2.00,0.00,30.15,,2.49,,BKN,BKN,,,800.00,2800.00,,,BR,,,,,,,55.40,LTFH 130350Z 12002KT 4000 BR BKN008 BKN028 13/12 Q1021 BECMG 6000 SCT008 BKN028,
LTFH,2024-04-13 04:50,36.5671,41.2545,5.00,55.40,53.60,93.65,180.00,3.00,0.00,30.15,,3.73,,SCT,BKN,BKN,,1200.00,2800.00,9000.00,,,,,,,,,55.40,LTFH 130450Z 18003KT 6000 SCT012 BKN028 BKN090 13/12 Q1021 NOSIG,
LTFH,2024-04-13 05:50,36.5671,41.2545,5.00,59.00,53.60,82.25,,1.00,0.00,30.15,,4.97,,FEW,BKN,BKN,,1200.00,3000.00,9000.00,,,,,,,,,59.00,LTFH 130550Z VRB01KT 8000 FEW012 BKN030 BKN090 15/12 Q1021 NOSIG,
LTFH,2024-04-13 06:50,36.5671,41.2545,5.00,60.80,53.60,77.14,20.00,3.00,0.00,30.15,,6.21,,SCT,BKN,,,3500.00,10000.00,,,,,,,,,,60.80,LTFH 130650Z 02003KT 340V090 9999 SCT035 BKN100 16/12 Q1021 NOSIG,
LTFH,2024-04-13 07:50,36.5671,41.2545,5.00,60.80,51.80,72.20,340.00,5.00,0.00,30.15,,6.21,,SCT,BKN,,,3500.00,10000.00,,,,,,,,,,60.80,LTFH 130750Z 34005KT 310V020 9999 SCT035 BKN100 16/11 Q1021 NOSIG,
LTFH,2024-04-13 08:50,36.5671,41.2545,5.00,60.80,53.60,77.14,340.00,5.00,0.00,30.12,,6.21,,SCT,,,,3500.00,,,,,,,,,,,60.80,LTFH 130850Z 34005KT 260V020 9999 SCT035 16/12 Q1020 NOSIG,
LTFH,2024-04-13 09:50,36.5671,41.2545,5.00,60.80,53.60,77.14,360.00,6.00,0.00,30.12,,6.21,,,,,,,,,,,,,,,,,60.80,LTFH 130950Z 36006KT CAVOK 16/12 Q1020 NOSIG,
LTFH,2024-04-13 10:50,36.5671,41.2545,5.00,60.80,53.60,77.14,350.00,8.00,0.00,30.12,,6.21,,SCT,,,,3500.00,,,,,,,,,,,60.80,LTFH 131050Z 35008KT 9999 SCT035 16/12 Q1020 NOSIG,
LTFH,2024-04-13 11:50,36.5671,41.2545,5.00,60.80,53.60,77.14,340.00,8.00,0.00,30.12,,6.21,,SCT,,,,3500.00,,,,,,,,,,,60.80,LTFH 131150Z 34008KT 9999 SCT035 16/12 Q1020 NOSIG,
LTFH,2024-04-13 12:50,36.5671,41.2545,5.00,62.60,55.40,77.29,360.00,6.00,0.00,30.12,,6.21,,SCT,,,,3500.00,,,,,,,,,,,62.60,LTFH 131250Z 36006KT 330V030 9999 SCT035 17/13 Q1020 NOSIG,
LTFH,2024-04-13 13:50,36.5671,41.2545,5.00,64.40,51.80,63.60,360.00,6.00,0.00,30.09,,6.21,,SCT,,,,3500.00,,,,,,,,,,,64.40,LTFH 131350Z 36006KT 320V040 9999 SCT035 18/11 Q1019 NOSIG,
LTFH,2024-04-13 14:50,36.5671,41.2545,5.00,59.00,53.60,82.25,350.00,7.00,0.00,30.12,,6.21,,SCT,,,,3500.00,,,,,,,,,,,59.00,LTFH 131450Z 35007KT 9999 SCT035 15/12 Q1020 NOSIG,
LTFH,2024-04-13 15:50,36.5671,41.2545,5.00,57.20,51.80,82.12,340.00,4.00,0.00,30.09,,6.21,,SCT,,,,3500.00,,,,,,,,,,,57.20,LTFH 131550Z 34004KT 9999 SCT035 14/11 Q1019 NOSIG,
LTFH,2024-04-13 16:50,36.5671,41.2545,5.00,55.40,51.80,87.65,,1.00,0.00,30.12,,6.21,,SCT,BKN,,,3500.00,10000.00,,,,,,,,,,55.40,LTFH 131650Z VRB01KT 9999 SCT035 BKN100 13/11 Q1020 NOSIG,
LTFH,2024-04-13 17:50,36.5671,41.2545,5.00,53.60,51.80,93.60,300.00,4.00,0.00,30.12,,6.21,,BKN,,,,2800.00,,,,,,,,,,,53.60,LTFH 131750Z 30004KT 9999 BKN028 12/11 Q1020 NOSIG,
LTFH,2024-04-13 18:50,36.5671,41.2545,5.00,55.40,53.60,93.65,330.00,6.00,0.00,30.15,,6.21,,BKN,,,,2800.00,,,,,,,,,,,55.40,LTFH 131850Z 33006KT 9999 BKN028 13/12 Q1021 NOSIG,
LTFH,2024-04-13 19:50,36.5671,41.2545,5.00,53.60,53.60,100.00,310.00,3.00,0.00,30.15,,6.21,,FEW,BKN,,,1200.00,2800.00,,,,,,,,,,53.60,LTFH 131950Z 31003KT 9999 FEW012 BKN028 12/12 Q1021 NOSIG,
LTFH,2024-04-13 20:50,36.5671,41.2545,5.00,53.60,51.80,93.60,140.00,4.00,0.00,30.12,,3.73,,SCT,BKN,,,1200.00,3000.00,,,,,,,,,,53.60,LTFH 132050Z 14004KT 6000 SCT012 BKN030 12/11 Q1020 NOSIG,
LTFH,2024-04-13 21:50,36.5671,41.2545,5.00,53.60,51.80,93.60,,4.00,0.00,30.12,,3.73,,SCT,BKN,,,1200.00,3000.00,,,,,,,,,,53.60,LTFH 132150Z VRB04KT 6000 SCT012 BKN030 12/11 Q1020 NOSIG,
LTFH,2024-04-13 22:50,36.5671,41.2545,5.00,51.80,51.80,100.00,190.00,2.00,0.00,30.12,,3.73,,SCT,BKN,,,1200.00,3000.00,,,,,,,,,,51.80,LTFH 132250Z 19002KT 6000 SCT012 BKN030 11/11 Q1020 NOSIG,
LTFH,2024-04-13 23:50,36.5671,41.2545,5.00,51.80,50.00,93.55,,2.00,0.00,30.12,,3.73,,SCT,BKN,,,1200.00,3000.00,,,,,,,,,,51.80,LTFH 132350Z VRB02KT 6000 SCT012 BKN030 11/10 Q1020 NOSIG,
LTFH,2024-04-14 00:50,36.5671,41.2545,5.00,51.80,50.00,93.55,330.00,3.00,0.00,30.12,,3.73,,SCT,BKN,,,1200.00,3000.00,,,,,,,,,,51.80,LTFH 140050Z 33003KT 6000 SCT012 BKN030 11/10 Q1020 NOSIG,
LTFH,2024-04-14 01:50,36.5671,41.2545,5.00,53.60,51.80,93.60,,2.00,0.00,30.12,,3.73,,SCT,BKN,,,1200.00,3000.00,,,,,,,,,,53.60,LTFH 140150Z VRB02KT 6000 SCT012 BKN030 12/11 Q1020 NOSIG,
LTFH,2024-04-14 02:50,36.5671,41.2545,5.00,50.00,48.20,93.50,160.00,3.00,0.00,30.12,,3.73,,SCT,BKN,,,800.00,3000.00,,,,,,,,,,50.00,LTFH 140250Z 16003KT 6000 SCT008 BKN030 10/09 Q1020 NOSIG,
LTFH,2024-04-14 03:50,36.5671,41.2545,5.00,50.00,50.00,100.00,110.00,3.00,0.00,30.15,,3.73,,SCT,BKN,,,1200.00,3000.00,,,,,,,,,,50.00,LTFH 140350Z 11003KT 6000 SCT012 BKN030 10/10 Q1021 NOSIG,
LTFH,2024-04-14 04:50,36.5671,41.2545,5.00,55.40,51.80,87.65,110.00,4.00,0.00,30.15,,4.97,,SCT,,,,3400.00,,,,,,,,,,,55.40,LTFH 140450Z 11004KT 8000 SCT034 13/11 Q1021 NOSIG,
LTFH,2024-04-14 05:50,36.5671,41.2545,5.00,59.00,50.00,72.01,,2.00,0.00,30.18,,5.59,,SCT,,,,3000.00,,,,,,,,,,,59.00,LTFH 140550Z VRB02KT 9000 SCT030 15/10 Q1022 NOSIG,
LTFH,2024-04-14 06:50,36.5671,41.2545,5.00,59.00,48.20,67.33,340.00,4.00,0.00,30.18,,5.59,,SCT,,,,3000.00,,,,,,,,,,,59.00,LTFH 140650Z 34004KT 9000 SCT030 15/09 Q1022 NOSIG,
LTFH,2024-04-14 07:50,36.5671,41.2545,5.00,60.80,48.20,63.15,320.00,4.00,0.00,30.18,,6.21,,FEW,BKN,,,3600.00,10000.00,,,,,,,,,,60.80,LTFH 140750Z 32004KT 250V010 9999 FEW036 BKN100 16/09 Q1022 NOSIG,
LTFH,2024-04-14 08:50,36.5671,41.2545,5.00,62.60,44.60,51.72,310.00,4.00,0.00,30.15,,6.21,,FEW,BKN,,,3600.00,10000.00,,,,,,,,,,62.60,LTFH 140850Z 31004KT 260V020 9999 FEW036 BKN100 17/07 Q1021 NOSIG,
LTFH,2024-04-14 09:50,36.5671,41.2545,5.00,62.60,44.60,51.72,350.00,4.00,0.00,30.15,,6.21,,FEW,BKN,,,3600.00,10000.00,,,,,,,,,,62.60,LTFH 140950Z 35004KT 300V030 9999 FEW036 BKN100 17/07 Q1021 NOSIG,
LTFH,2024-04-14 10:50,36.5671,41.2545,5.00,62.60,48.20,59.26,340.00,5.00,0.00,30.15,,6.21,,FEW,BKN,,,3600.00,10000.00,,,,,,,,,,62.60,LTFH 141050Z 34005KT 300V040 9999 FEW036 BKN100 17/09 Q1021 NOSIG,
LTFH,2024-04-14 11:50,36.5671,41.2545,5.00,62.60,48.20,59.26,320.00,8.00,0.00,30.15,,6.21,,FEW,BKN,,,3600.00,10000.00,,,,,,,,,,62.60,LTFH 141150Z 32008KT 290V350 9999 FEW036 BKN100 17/09 Q1021 NOSIG,
LTFH,2024-04-14 12:50,36.5671,41.2545,5.00,62.60,50.00,63.38,350.00,7.00,0.00,30.15,,6.21,,FEW,BKN,,,3600.00,10000.00,,,,,,,,,,62.60,LTFH 141250Z 35007KT 310V030 9999 FEW036 BKN100 17/10 Q1021 NOSIG,
LTFH,2024-04-14 13:50,36.5671,41.2545,5.00,60.80,50.00,67.54,330.00,6.00,0.00,30.15,,6.21,,FEW,,,,3600.00,,,,,,,,,,,60.80,LTFH 141350Z 33006KT 280V360 9999 FEW036 16/10 Q1021 NOSIG,
LTFH,2024-04-14 14:50,36.5671,41.2545,5.00,60.80,50.00,67.54,340.00,4.00,0.00,30.15,,6.21,,FEW,,,,3600.00,,,,,,,,,,,60.80,LTFH 141450Z 34004KT 300V030 9999 FEW036 16/10 Q1021 NOSIG,
LTFH,2024-04-14 15:50,36.5671,41.2545,5.00,57.20,48.20,71.83,350.00,3.00,0.00,30.15,,6.21,,FEW,,,,3600.00,,,,,,,,,,,57.20,LTFH 141550Z 35003KT 310V040 9999 FEW036 14/09 Q1021 NOSIG,
LTFH,2024-04-14 16:50,36.5671,41.2545,5.00,55.40,48.20,76.66,,1.00,0.00,30.18,,6.21,,FEW,,,,3600.00,,,,,,,,,,,55.40,LTFH 141650Z VRB01KT 9999 FEW036 13/09 Q1022 NOSIG,
LTFH,2024-04-14 17:50,36.5671,41.2545,5.00,53.60,46.40,76.50,210.00,2.00,0.00,30.18,,6.21,,,,,,,,,,,,,,,,,53.60,LTFH 141750Z 21002KT CAVOK 12/08 Q1022 NOSIG,
LTFH,2024-04-14 18:50,36.5671,41.2545,5.00,51.80,46.40,81.74,190.00,3.00,0.00,30.18,,6.21,,,,,,,,,,,,,,,,,51.80,LTFH 141850Z 19003KT CAVOK 11/08 Q1022 NOSIG,
LTFH,2024-04-14 19:50,36.5671,41.2545,5.00,50.00,46.40,87.37,180.00,3.00,0.00,30.18,,6.21,,,,,,,,,,,,,,,,,50.00,LTFH 141950Z 18003KT CAVOK 10/08 Q1022 NOSIG,
LTFH,2024-04-14 20:50,36.5671,41.2545,5.00,46.40,44.60,93.40,150.00,4.00,0.00,30.18,,6.21,,,,,,,,,,,,,,,,,44.24,LTFH 142050Z 15004KT CAVOK 08/07 Q1022 NOSIG,
LTFH,2024-04-14 21:50,36.5671,41.2545,5.00,46.40,44.60,93.40,170.00,2.00,0.00,30.18,,6.21,,,,,,,,,,,,,,,,,46.40,LTFH 142150Z 17002KT CAVOK 08/07 Q1022 NOSIG,
LTFH,2024-04-14 22:50,36.5671,41.2545,5.00,46.40,42.80,87.19,150.00,4.00,0.00,30.15,,6.21,,,,,,,,,,,,,,,,,44.24,LTFH 142250Z 15004KT CAVOK 08/06 Q1021 NOSIG,
LTFH,2024-04-14 23:50,36.5671,41.2545,5.00,48.20,44.60,87.28,160.00,2.00,0.00,30.15,,6.21,,,,,,,,,,,,,,,,,48.20,LTFH 142350Z 16002KT CAVOK 09/07 Q1021 NOSIG,
LTFH,2024-04-15 00:50,36.5671,41.2545,5.00,46.40,42.80,87.19,160.00,4.00,0.00,30.15,,6.21,,,,,,,,,,,,,,,,,44.24,LTFH 150050Z 16004KT CAVOK 08/06 Q1021 NOSIG,
LTFH,2024-04-15 01:50,36.5671,41.2545,5.00,44.60,42.80,93.35,140.00,3.00,0.00,30.15,,6.21,,,,,,,,,,,,,,,,,43.09,LTFH 150150Z 14003KT CAVOK 07/06 Q1021 NOSIG,
LTFH,2024-04-15 02:50,36.5671,41.2545,5.00,44.60,42.80,93.35,150.00,2.00,0.00,30.15,,6.21,,,,,,,,,,,,,,,,,44.60,LTFH 150250Z 15002KT CAVOK 07/06 Q1021 NOSIG,
LTFH,2024-04-15 03:50,36.5671,41.2545,5.00,46.40,44.60,93.40,160.00,4.00,0.00,30.15,,6.21,,,,,,,,,,,,,,,,,44.24,LTFH 150350Z 16004KT CAVOK 08/07 Q1021 NOSIG,
LTFH,2024-04-15 04:50,36.5671,41.2545,5.00,57.20,48.20,71.83,130.00,2.00,0.00,30.15,,6.21,,,,,,,,,,,,,,,,,57.20,LTFH 150450Z 13002KT CAVOK 14/09 Q1021 NOSIG,
LTFH,2024-04-15 05:50,36.5671,41.2545,5.00,64.40,48.20,55.63,,2.00,0.00,30.15,,6.21,,,,,,,,,,,,,,,,,64.40,LTFH 150550Z VRB02KT CAVOK 18/09 Q1021 NOSIG,
LTFH,2024-04-15 06:50,36.5671,41.2545,5.00,69.80,48.20,46.16,130.00,4.00,0.00,30.15,,6.21,,,,,,,,,,,,,,,,,69.80,LTFH 150650Z 13004KT 060V170 CAVOK 21/09 Q1021 NOSIG,
LTFH,2024-04-15 07:50,36.5671,41.2545,5.00,71.60,44.60,37.89,120.00,5.00,0.00,30.15,,6.21,,,,,,,,,,,,,,,,,71.60,LTFH 150750Z 12005KT 050V150 CAVOK 22/07 Q1021 NOSIG,
LTFH,2024-04-15 08:50,36.5671,41.2545,5.00,73.40,44.60,35.66,100.00,5.00,0.00,30.15,,6.21,,,,,,,,,,,,,,,,,73.40,LTFH 150850Z 10005KT 040V170 CAVOK 23/07 Q1021 NOSIG,
LTFH,2024-04-15 09:50,36.5671,41.2545,5.00,73.40,48.20,40.85,360.00,6.00,0.00,30.12,,6.21,,,,,,,,,,,,,,,,,73.40,LTFH 150950Z 36006KT 300V050 CAVOK 23/09 Q1020 NOSIG,
LTFH,2024-04-15 10:50,36.5671,41.2545,5.00,75.20,42.80,31.34,90.00,7.00,0.00,30.12,,6.21,,,,,,,,,,,,,,,,,75.20,LTFH 151050Z 09007KT 040V130 CAVOK 24/06 Q1020 NOSIG,
LTFH,2024-04-15 11:50,36.5671,41.2545,5.00,73.40,48.20,40.85,100.00,9.00,0.00,30.09,,6.21,,,,,,,,,,,,,,,,,73.40,LTFH 151150Z 10009KT 070V150 CAVOK 23/09 Q1019 NOSIG,
LTFH,2024-04-15 12:50,36.5671,41.2545,5.00,71.60,46.40,40.57,80.00,9.00,0.00,30.09,,6.21,,,,,,,,,,,,,,,,,71.60,LTFH 151250Z 08009KT 050V120 CAVOK 22/08 Q1019 NOSIG,
LTFH,2024-04-15 13:50,36.5671,41.2545,5.00,69.80,42.80,37.61,100.00,10.00,0.00,30.09,,6.21,,,,,,,,,,,,,,,,,69.80,LTFH 151350Z 10010KT 070V130 CAVOK 21/06 Q1019 NOSIG,
LTFH,2024-04-15 14:50,36.5671,41.2545,5.00,68.00,42.80,40.00,110.00,10.00,0.00,30.09,,6.21,,,,,,,,,,,,,,,,,68.00,LTFH 151450Z 11010KT CAVOK 20/06 Q1019 NOSIG,
LTFH,2024-04-15 15:50,36.5671,41.2545,5.00,64.40,44.60,48.55,90.00,5.00,0.00,30.09,,6.21,,,,,,,,,,,,,,,,,64.40,LTFH 151550Z 09005KT CAVOK 18/07 Q1019 NOSIG,
LTFH,2024-04-15 16:50,36.5671,41.2545,5.00,57.20,46.40,67.12,130.00,5.00,0.00,30.09,,6.21,,,,,,,,,,,,,,,,,57.20,LTFH 151650Z 13005KT CAVOK 14/08 Q1019 NOSIG,
LTFH,2024-04-15 17:50,36.5671,41.2545,5.00,55.40,46.40,71.64,90.00,4.00,0.00,30.09,,6.21,,,,,,,,,,,,,,,,,55.40,LTFH 151750Z 09004KT CAVOK 13/08 Q1019 NOSIG,
LTFH,2024-04-15 18:50,36.5671,41.2545,5.00,53.60,46.40,76.50,80.00,6.00,0.00,30.06,,6.21,,,,,,,,,,,,,,,,,53.60,LTFH 151850Z 08006KT CAVOK 12/08 Q1018 NOSIG,
LTFH,2024-04-15 20:50,36.5671,41.2545,5.00,50.00,46.40,87.37,110.00,4.00,0.00,30.03,,6.21,,,,,,,,,,,,,,,,,50.00,LTFH 152050Z 11004KT CAVOK 10/08 Q1017 NOSIG,
LTFH,2024-04-15 21:50,36.5671,41.2545,5.00,48.20,46.40,93.45,,1.00,0.00,30.00,,6.21,,,,,,,,,,,,,,,,,48.20,LTFH 152150Z VRB01KT CAVOK 09/08 Q1016 NOSIG,
LTFH,2024-04-15 22:50,36.5671,41.2545,5.00,46.40,44.60,93.40,140.00,2.00,0.00,29.97,,6.21,,,,,,,,,,,,,,,,,46.40,LTFH 152250Z 14002KT CAVOK 08/07 Q1015 NOSIG,
LTFH,2024-04-15 23:50,36.5671,41.2545,5.00,44.60,42.80,93.35,,1.00,0.00,29.97,,6.21,,,,,,,,,,,,,,,,,44.60,LTFH 152350Z VRB01KT CAVOK 07/06 Q1015 NOSIG,
