station,valid,tmpf,dwpf,relh,drct,sknt,p01i,alti,mslp,vsby,gust,skyc1,skyc2,skyc3,skyc4,skyl1,skyl2,skyl3,skyl4,wxcodes,ice_accretion_1hr,ice_accretion_3hr,ice_accretion_6hr,peak_wind_gust,peak_wind_drct,peak_wind_time,feel,metar,snowdepth
LYBE,2025-06-30 00:00,73.40,59.00,60.72,240.00,5.00,0.00,30.03,,6.21,,,,,,,,,,,,,,,,,73.40,LYBE 300000Z 24005KT CAVOK 23/15 Q1017 NOSIG,
LYBE,2025-06-30 00:30,73.40,59.00,60.72,230.00,5.00,0.00,30.03,,6.21,,,,,,,,,,,,,,,,,73.40,LYBE 300030Z 23005KT CAVOK 23/15 Q1017 NOSIG,
LYBE,2025-06-30 01:00,73.40,59.00,60.72,240.00,8.00,0.00,30.03,,6.21,,,,,,,,,,,,,,,,,73.40,LYBE 300100Z 24008KT CAVOK 23/15 Q1017 NOSIG,
LYBE,2025-06-30 01:30,71.60,59.00,64.52,230.00,8.00,0.00,30.03,,6.21,,,,,,,,,,,,,,,,,71.60,LYBE 300130Z 23008KT CAVOK 22/15 Q1017 NOSIG,
LYBE,2025-06-30 02:00,71.60,59.00,64.52,230.00,8.00,0.00,30.03,,6.21,,,,,,,,,,,,,,,,,71.60,LYBE 300200Z 23008KT CAVOK 22/15 Q1017 NOSIG,
LYBE,2025-06-30 02:30,69.80,59.00,68.59,240.00,9.00,0.00,30.03,,6.21,,,,,,,,,,,,,,,,,69.80,LYBE 300230Z 24009KT CAVOK 21/15 Q1017 NOSIG,
LYBE,2025-06-30 03:00,69.80,59.00,68.59,230.00,6.00,0.00,30.03,,6.21,,,,,,,,,,,,,,,,,69.80,LYBE 300300Z 23006KT CAVOK 21/15 Q1017 NOSIG,
LYBE,2025-06-30 03:30,69.80,59.00,68.59,240.00,6.00,0.00,30.03,,6.21,,,,,,,,,,,,,,,,,69.80,LYBE 300330Z 24006KT CAVOK 21/15 Q1017 NOSIG,
LYBE,2025-06-30 04:00,69.80,59.00,68.59,220.00,5.00,0.00,30.03,,6.21,,,,,,,,,,,,,,,,,69.80,LYBE 300400Z 22005KT 180V260 CAVOK 21/15 Q1017 NOSIG,
LYBE,2025-06-30 04:30,69.80,59.00,68.59,230.00,5.00,0.00,30.03,,6.21,,,,,,,,,,,,,,,,,69.80,LYBE 300430Z 23005KT 200V260 CAVOK 21/15 Q1017 NOSIG,
LYBE,2025-06-30 05:00,71.60,60.80,68.79,240.00,5.00,0.00,30.03,,6.21,,,,,,,,,,,,,,,,,71.60,LYBE 300500Z 24005KT 200V290 CAVOK 22/16 Q1017 NOSIG,
LYBE,2025-06-30 05:30,73.40,60.80,64.74,260.00,5.00,0.00,30.03,,6.21,,,,,,,,,,,,,,,,,73.40,LYBE 300530Z 26005KT 230V290 CAVOK 23/16 Q1017 NOSIG,
LYBE,2025-06-30 06:00,75.20,60.80,60.96,250.00,5.00,0.00,30.03,,6.21,,,,,,,,,,,,,,,,,75.20,LYBE 300600Z 25005KT 210V300 CAVOK 24/16 Q1017 NOSIG,
LYBE,2025-06-30 06:30,78.80,60.80,54.11,280.00,4.00,0.00,30.03,,6.21,,,,,,,,,,,,,,,,,78.80,LYBE 300630Z 28004KT 210V320 CAVOK 26/16 Q1017 NOSIG,
LYBE,2025-06-30 07:00,82.40,62.60,51.29,290.00,6.00,0.00,30.03,,6.21,,,,,,,,,,,,,,,,,83.42,LYBE 300700Z 29006KT 260V320 CAVOK 28/17 Q1017 NOSIG,
LYBE,2025-06-30 07:30,84.20,62.60,48.40,330.00,5.00,0.00,30.03,,6.21,,,,,,,,,,,,,,,,,85.05,LYBE 300730Z 33005KT 290V020 CAVOK 29/17 Q1017 NOSIG,
LYBE,2025-06-30 08:00,87.80,60.80,40.50,320.00,8.00,0.00,30.03,,6.21,,,,,,,,,,,,,,,,,87.77,LYBE 300800Z 32008KT 300V360 CAVOK 31/16 Q1017 NOSIG,
LYBE,2025-06-30 08:30,87.80,59.00,37.99,340.00,10.00,0.00,30.03,,6.21,,,,,,,,,,,,,,,,,87.14,LYBE 300830Z 34010KT CAVOK 31/15 Q1017 NOSIG,
LYBE,2025-06-30 09:00,89.60,57.20,33.65,340.00,11.00,0.00,30.03,,6.21,,,,,,,,,,,,,,,,,88.30,LYBE 300900Z 34011KT 300V010 CAVOK 32/14 Q1017 NOSIG,
LYBE,2025-06-30 09:30,89.60,59.00,35.89,340.00,10.00,0.00,30.03,,6.21,,,,,,,,,,,,,,,,,88.88,LYBE 300930Z 34010KT 290V020 CAVOK 32/15 Q1017 NOSIG,
LYBE,2025-06-30 10:00,89.60,59.00,35.89,310.00,10.00,0.00,30.00,,6.21,,,,,,,,,,,,,,,,,88.88,LYBE 301000Z 31010KT 270V350 CAVOK 32/15 Q1016 NOSIG,
LYBE,2025-06-30 10:30,89.60,57.20,33.65,330.00,9.00,0.00,30.00,,6.21,,,,,,,,,,,,,,,,,88.30,LYBE 301030Z 33009KT 300V360 CAVOK 32/14 Q1016 NOSIG,
LYBE,2025-06-30 11:00,91.40,59.00,33.93,310.00,11.00,0.00,30.00,,6.21,,,,,,,,,,,,,,,,,90.71,LYBE 301100Z 31011KT 280V340 CAVOK 33/15 Q1016 NOSIG,
LYBE,2025-06-30 11:30,91.40,57.20,31.81,350.00,9.00,0.00,30.00,,6.21,,,,,,,,,,,,,,,,,90.08,LYBE 301130Z 35009KT 280V030 CAVOK 33/14 Q1016 NOSIG,
LYBE,2025-06-30 12:00,91.40,59.00,33.93,10.00,9.00,0.00,29.97,,6.21,,,,,,,,,,,,,,,,,90.71,LYBE 301200Z 01009KT 310V050 CAVOK 33/15 Q1015 NOSIG,
LYBE,2025-06-30 12:30,91.40,59.00,33.93,340.00,11.00,0.00,29.97,,6.21,,,,,,,,,,,,,,,,,90.71,LYBE 301230Z 34011KT 300V020 CAVOK 33/15 Q1015 NOSIG,
LYBE,2025-06-30 13:00,93.20,59.00,32.09,320.00,14.00,0.00,29.97,,6.21,,,,,,,,,,,,,,,,,92.60,LYBE 301300Z 32014KT 280V350 CAVOK 34/15 Q1015 NOSIG,
LYBE,2025-06-30 13:30,93.20,57.20,30.08,320.00,13.00,0.00,29.97,,6.21,,,,,,,,,,,,,,,,,91.94,LYBE 301330Z 32013KT CAVOK 34/14 Q1015 NOSIG,
LYBE,2025-06-30 14:00,91.40,57.20,31.81,330.00,13.00,0.00,29.97,,6.21,,,,,,,,,,,,,,,,,90.08,LYBE 301400Z 33013KT CAVOK 33/14 Q1015 NOSIG,
LYBE,2025-06-30 14:30,93.20,59.00,32.09,320.00,15.00,0.00,29.94,,6.21,,,,,,,,,,,,,,,,,92.60,LYBE 301430Z 32015KT CAVOK 34/15 Q1014 NOSIG,
LYBE,2025-06-30 15:00,93.20,57.20,30.08,320.00,14.00,0.00,29.94,,6.21,,,,,,,,,,,,,,,,,91.94,LYBE 301500Z 32014KT CAVOK 34/14 Q1014 NOSIG,
LYBE,2025-06-30 15:30,91.40,59.00,33.93,330.00,13.00,0.00,29.94,,6.21,,,,,,,,,,,,,,,,,90.71,LYBE 301530Z 33013KT CAVOK 33/15 Q1014 NOSIG,
LYBE,2025-06-30 16:00,91.40,57.20,31.81,320.00,11.00,0.00,29.94,,6.21,,,,,,,,,,,,,,,,,90.08,LYBE 301600Z 32011KT CAVOK 33/14 Q1014 NOSIG,
LYBE,2025-06-30 16:30,91.40,59.00,33.93,330.00,11.00,0.00,29.94,,6.21,,,,,,,,,,,,,,,,,90.71,LYBE 301630Z 33011KT CAVOK 33/15 Q1014 NOSIG,
LYBE,2025-06-30 17:00,89.60,59.00,35.89,330.00,8.00,0.00,29.94,,6.21,,,,,,,,,,,,,,,,,88.88,LYBE 301700Z 33008KT CAVOK 32/15 Q1014 NOSIG,
LYBE,2025-06-30 17:30,89.60,57.20,33.65,320.00,9.00,0.00,29.94,,6.21,,,,,,,,,,,,,,,,,88.30,LYBE 301730Z 32009KT CAVOK 32/14 Q1014 NOSIG,
LYBE,2025-06-30 18:00,86.00,57.20,37.70,310.00,7.00,0.00,29.94,,6.21,,,,,,,,,,,,,,,,,84.99,LYBE 301800Z 31007KT CAVOK 30/14 Q1014 NOSIG,
LYBE,2025-06-30 18:30,82.40,57.20,42.32,310.00,6.00,0.00,29.94,,6.21,,,,,,,,,,,,,,,,,82.09,LYBE 301830Z 31006KT CAVOK 28/14 Q1014 NOSIG,
LYBE,2025-06-30 19:00,80.60,59.00,47.85,310.00,6.00,0.00,29.94,,6.21,,,,,,,,,,,,,,,,,81.12,LYBE 301900Z 31006KT CAVOK 27/15 Q1014 NOSIG,
LYBE,2025-06-30 19:30,80.60,57.20,44.86,320.00,7.00,0.00,29.94,,6.21,,,,,,,,,,,,,,,,,80.81,LYBE 301930Z 32007KT CAVOK 27/14 Q1014 NOSIG,
LYBE,2025-06-30 20:00,77.00,59.00,53.86,320.00,5.00,0.00,29.94,,6.21,,,,,,,,,,,,,,,,,77.00,LYBE 302000Z 32005KT CAVOK 25/15 Q1014 NOSIG,
LYBE,2025-06-30 20:30,75.20,59.00,57.17,310.00,6.00,0.00,29.94,,6.21,,,,,,,,,,,,,,,,,75.20,LYBE 302030Z 31006KT CAVOK 24/15 Q1014 NOSIG,
LYBE,2025-06-30 21:00,73.40,59.00,60.72,300.00,6.00,0.00,29.94,,6.21,,,,,,,,,,,,,,,,,73.40,LYBE 302100Z 30006KT CAVOK 23/15 Q1014 NOSIG,
LYBE,2025-06-30 21:30,73.40,59.00,60.72,300.00,6.00,0.00,29.94,,6.21,,,,,,,,,,,,,,,,,73.40,LYBE 302130Z 30006KT CAVOK 23/15 Q1014 NOSIG,
LYBE,2025-06-30 22:00,73.40,57.20,56.92,320.00,5.00,0.00,29.94,,6.21,,,,,,,,,,,,,,,,,73.40,LYBE 302200Z 32005KT CAVOK 23/14 Q1014 NOSIG,
LYBE,2025-06-30 22:30,73.40,57.20,56.92,340.00,6.00,0.00,29.97,,6.21,,,,,,,,,,,,,,,,,73.40,LYBE 302230Z 34006KT CAVOK 23/14 Q1015 NOSIG,
LYBE,2025-06-30 23:00,73.40,53.60,49.95,330.00,6.00,0.00,29.94,,6.21,,,,,,,,,,,,,,,,,73.40,LYBE 302300Z 33006KT CAVOK 23/12 Q1014 NOSIG,
LYBE,2025-06-30 23:30,71.60,53.60,53.07,320.00,4.00,0.00,29.97,,6.21,,,,,,,,,,,,,,,,,71.60,LYBE 302330Z 32004KT CAVOK 22/12 Q1015 NOSIG,
LYBE,2025-07-01 00:00,71.60,48.20,43.45,340.00,7.00,0.00,29.97,,6.21,,,,,,,,,,,,,,,,,71.60,LYBE 010000Z 34007KT CAVOK 22/09 Q1015 NOSIG,
LYBE,2025-07-01 00:30,69.80,48.20,46.19,300.00,5.00,0.00,29.97,,6.21,,,,,,,,,,,,,,,,,69.80,LYBE 010030Z 30005KT CAVOK 21/09 Q1015 NOSIG,
LYBE,2025-07-01 01:00,69.80,48.20,46.19,270.00,4.00,0.00,29.97,,6.21,,,,,,,,,,,,,,,,,69.80,LYBE 010100Z 27004KT CAVOK 21/09 Q1015 NOSIG,
LYBE,2025-07-01 01:30,68.00,48.20,49.12,280.00,7.00,0.00,29.97,,6.21,,,,,,,,,,,,,,,,,68.00,LYBE 010130Z 28007KT CAVOK 20/09 Q1015 NOSIG,
LYBE,2025-07-01 02:00,66.20,48.20,52.27,270.00,4.00,0.00,29.97,,6.21,,,,,,,,,,,,,,,,,66.20,LYBE 010200Z 27004KT CAVOK 19/09 Q1015 NOSIG,
LYBE,2025-07-01 02:30,66.20,50.00,55.91,250.00,6.00,0.00,29.97,,6.21,,,,,,,,,,,,,,,,,66.20,LYBE 010230Z 25006KT CAVOK 19/10 Q1015 NOSIG,
LYBE,2025-07-01 03:00,62.60,51.80,67.76,270.00,6.00,0.00,29.97,,6.21,,,,,,,,,,,,,,,,,62.60,LYBE 010300Z 27006KT CAVOK 17/11 Q1015 NOSIG,
LYBE,2025-07-01 03:30,62.60,51.80,67.76,280.00,5.00,0.00,29.97,,6.21,,,,,,,,,,,,,,,,,62.60,LYBE 010330Z 28005KT CAVOK 17/11 Q1015 NOSIG,
LYBE,2025-07-01 04:00,64.40,53.60,67.97,280.00,5.00,0.00,30.00,,6.21,,,,,,,,,,,,,,,,,64.40,LYBE 010400Z 28005KT CAVOK 18/12 Q1016 NOSIG,
LYBE,2025-07-01 04:30,66.20,51.80,59.76,270.00,5.00,0.00,30.00,,6.21,,,,,,,,,,,,,,,,,66.20,LYBE 010430Z 27005KT CAVOK 19/11 Q1016 NOSIG,
LYBE,2025-07-01 05:00,66.20,51.80,59.76,310.00,4.00,0.00,30.00,,6.21,,,,,,,,,,,,,,,,,66.20,LYBE 010500Z 31004KT CAVOK 19/11 Q1016 NOSIG,
LYBE,2025-07-01 05:30,71.60,46.40,40.60,340.00,6.00,0.00,30.00,,6.21,,,,,,,,,,,,,,,,,71.60,LYBE 010530Z 34006KT CAVOK 22/08 Q1016 NOSIG,
LYBE,2025-07-01 06:00,73.40,46.40,38.21,340.00,6.00,0.00,30.03,,6.21,,,,,,,,,,,,,,,,,73.40,LYBE 010600Z 34006KT 310V010 CAVOK 23/08 Q1017 NOSIG,
LYBE,2025-07-01 06:30,73.40,46.40,38.21,350.00,7.00,0.00,30.03,,6.21,,,,,,,,,,,,,,,,,73.40,LYBE 010630Z 35007KT 320V020 CAVOK 23/08 Q1017 NOSIG,
LYBE,2025-07-01 07:00,75.20,48.20,38.50,350.00,7.00,0.00,30.03,,6.21,,,,,,,,,,,,,,,,,75.20,LYBE 010700Z 35007KT 320V030 CAVOK 24/09 Q1017 NOSIG,
LYBE,2025-07-01 07:30,77.00,48.20,36.27,340.00,7.00,0.00,30.03,,6.21,,,,,,,,,,,,,,,,,77.00,LYBE 010730Z 34007KT CAVOK 25/09 Q1017 NOSIG,
LYBE,2025-07-01 08:00,78.80,48.20,34.18,350.00,9.00,0.00,30.03,,6.21,,,,,,,,,,,,,,,,,78.80,LYBE 010800Z 35009KT 320V020 CAVOK 26/09 Q1017 NOSIG,
LYBE,2025-07-01 08:30,80.60,50.00,34.47,340.00,9.00,0.00,30.03,,6.21,,,,,,,,,,,,,,,,,79.89,LYBE 010830Z 34009KT 310V020 CAVOK 27/10 Q1017 NOSIG,
LYBE,2025-07-01 09:00,82.40,50.00,32.51,340.00,9.00,0.00,30.03,,6.21,,,,,,,,,,,,,,,,,80.99,LYBE 010900Z 34009KT 320V020 CAVOK 28/10 Q1017 NOSIG,
LYBE,2025-07-01 09:30,84.20,46.40,26.81,360.00,8.00,0.00,30.03,,6.21,,,,,,,,,,,,,,,,,81.87,LYBE 010930Z 36008KT 320V040 CAVOK 29/08 Q1017 NOSIG,
LYBE,2025-07-01 10:00,86.00,44.60,23.64,360.00,8.00,0.00,30.03,,6.21,,,,,,,,,,,,,,,,,83.08,LYBE 011000Z 36008KT 330V070 CAVOK 30/07 Q1017 NOSIG,
LYBE,2025-07-01 10:30,86.00,44.60,23.64,350.00,9.00,0.00,30.03,,6.21,,,,,,,,,,,,,,,,,83.08,LYBE 011030Z 35009KT 310V030 CAVOK 30/07 Q1017 NOSIG,
LYBE,2025-07-01 11:00,86.00,42.80,22.07,360.00,7.00,0.00,30.03,,6.21,,,,,,,,,,,,,,,,,82.96,LYBE 011100Z 36007KT 320V070 CAVOK 30/06 Q1017 NOSIG,
LYBE,2025-07-01 11:30,87.80,44.60,22.33,330.00,9.00,0.00,30.03,,6.21,,,,,,,,,,,,,,,,,84.53,LYBE 011130Z 33009KT 310V010 CAVOK 31/07 Q1017 NOSIG,
LYBE,2025-07-01 12:00,86.00,46.40,25.31,360.00,6.00,0.00,30.03,,6.21,,,,,,,,,,,,,,,,,83.23,LYBE 011200Z 36006KT 310V040 CAVOK 30/08 Q1017 NOSIG,
LYBE,2025-07-01 12:30,87.80,46.40,23.91,10.00,8.00,0.00,30.03,,6.21,,,,,,,,,,,,,,,,,84.69,LYBE 011230Z 01008KT 320V040 CAVOK 31/08 Q1017 NOSIG,
LYBE,2025-07-01 13:00,87.80,46.40,23.91,20.00,7.00,0.00,30.03,,6.21,,,,,,,,,,,,,,,,,84.69,LYBE 011300Z 02007KT 340V090 CAVOK 31/08 Q1017 NOSIG,
LYBE,2025-07-01 13:30,87.80,44.60,22.33,320.00,8.00,0.00,30.03,,6.21,,,,,,,,,,,,,,,,,84.53,LYBE 011330Z 32008KT 300V010 CAVOK 31/07 Q1017 NOSIG,
LYBE,2025-07-01 14:00,87.80,44.60,22.33,310.00,9.00,0.00,30.03,,6.21,,,,,,,,,,,,,,,,,84.53,LYBE 011400Z 31009KT CAVOK 31/07 Q1017 NOSIG,
LYBE,2025-07-01 14:30,87.80,44.60,22.33,20.00,5.00,0.00,30.00,,6.21,,,,,,,,,,,,,,,,,84.53,LYBE 011430Z 02005KT 320V100 CAVOK 31/07 Q1016 NOSIG,
LYBE,2025-07-01 15:00,87.80,44.60,22.33,360.00,9.00,0.00,30.00,,6.21,,,,,,,,,,,,,,,,,84.53,LYBE 011500Z 36009KT 320V060 CAVOK 31/07 Q1016 NOSIG,
LYBE,2025-07-01 15:30,87.80,44.60,22.33,10.00,8.00,0.00,30.00,,6.21,,,,,,,,,,,,,,,,,84.53,LYBE 011530Z 01008KT 340V040 CAVOK 31/07 Q1016 NOSIG,
LYBE,2025-07-01 16:00,87.80,44.60,22.33,360.00,8.00,0.00,30.00,,6.21,,,,,,,,,,,,,,,,,84.53,LYBE 011600Z 36008KT 340V040 CAVOK 31/07 Q1016 NOSIG,
LYBE,2025-07-01 16:30,86.00,42.80,22.07,360.00,8.00,0.00,30.00,,6.21,,,,,,,,,,,,,,,,,82.96,LYBE 011630Z 36008KT CAVOK 30/06 Q1016 NOSIG,
LYBE,2025-07-01 17:00,86.00,44.60,23.64,10.00,6.00,0.00,30.00,,6.21,,,,,,,,,,,,,,,,,83.08,LYBE 011700Z 01006KT CAVOK 30/07 Q1016 NOSIG,
LYBE,2025-07-01 17:30,84.20,44.60,25.04,360.00,6.00,0.00,30.00,,6.21,,,,,,,,,,,,,,,,,81.73,LYBE 011730Z 36006KT CAVOK 29/07 Q1016 NOSIG,
LYBE,2025-07-01 18:00,80.60,46.40,30.12,350.00,5.00,0.00,30.03,,6.21,,,,,,,,,,,,,,,,,79.56,LYBE 011800Z 35005KT CAVOK 27/08 Q1017 NOSIG,
LYBE,2025-07-01 18:30,77.00,46.40,33.89,340.00,5.00,0.00,30.03,,6.21,,,,,,,,,,,,,,,,,77.00,LYBE 011830Z 34005KT CAVOK 25/08 Q1017 NOSIG,
LYBE,2025-07-01 19:00,77.00,46.40,33.89,20.00,4.00,0.00,30.03,,6.21,,,,,,,,,,,,,,,,,77.00,LYBE 011900Z 02004KT CAVOK 25/08 Q1017 NOSIG,
LYBE,2025-07-01 19:30,73.40,48.20,40.89,10.00,2.00,0.00,30.03,,6.21,,,,,,,,,,,,,,,,,73.40,LYBE 011930Z 01002KT CAVOK 23/09 Q1017 NOSIG,
LYBE,2025-07-01 20:00,73.40,48.20,40.89,10.00,3.00,0.00,30.03,,6.21,,,,,,,,,,,,,,,,,73.40,LYBE 012000Z 01003KT CAVOK 23/09 Q1017 NOSIG,
LYBE,2025-07-01 20:30,71.60,48.20,43.45,50.00,3.00,0.00,30.03,,6.21,,,,,,,,,,,,,,,,,71.60,LYBE 012030Z 05003KT CAVOK 22/09 Q1017 NOSIG,
LYBE,2025-07-01 21:00,71.60,48.20,43.45,50.00,4.00,0.00,30.06,,6.21,,,,,,,,,,,,,,,,,71.60,LYBE 012100Z 05004KT CAVOK 22/09 Q1018 NOSIG,
LYBE,2025-07-01 21:30,71.60,48.20,43.45,50.00,4.00,0.00,30.06,,6.21,,,,,,,,,,,,,,,,,71.60,LYBE 012130Z 05004KT CAVOK 22/09 Q1018 NOSIG,
LYBE,2025-07-01 22:00,64.40,48.20,55.65,80.00,3.00,0.00,30.06,,6.21,,,,,,,,,,,,,,,,,64.40,LYBE 012200Z 08003KT CAVOK 18/09 Q1018 NOSIG,
LYBE,2025-07-01 22:30,62.60,48.20,59.27,60.00,1.00,0.00,30.06,,6.21,,,,,,,,,,,,,,,,,62.60,LYBE 012230Z 06001KT CAVOK 17/09 Q1018 NOSIG,
LYBE,2025-07-01 23:00,62.60,48.20,59.27,0.00,0.00,0.00,30.06,,6.21,,,,,,,,,,,,,,,,,62.60,LYBE 012300Z 00000KT CAVOK 17/09 Q1018 NOSIG,
LYBE,2025-07-01 23:30,62.60,46.40,55.39,0.00,0.00,0.00,30.06,,6.21,,,,,,,,,,,,,,,,,62.60,LYBE 012330Z 00000KT CAVOK 17/08 Q1018 NOSIG,
LYBE,2025-07-02 00:00,60.80,46.40,59.02,320.00,2.00,0.00,30.06,,6.21,,,,,,,,,,,,,,,,,60.80,LYBE 020000Z 32002KT CAVOK 16/08 Q1018 NOSIG,
LYBE,2025-07-02 00:30,62.60,46.40,55.39,290.00,3.00,0.00,30.06,,6.21,,,,,,,,,,,,,,,,,62.60,LYBE 020030Z 29003KT CAVOK 17/08 Q1018 NOSIG,
LYBE,2025-07-02 01:00,60.80,48.20,63.16,260.00,3.00,0.00,30.06,,6.21,,,,,,,,,,,,,,,,,60.80,LYBE 020100Z 26003KT CAVOK 16/09 Q1018 NOSIG,
LYBE,2025-07-02 01:30,59.00,48.20,67.34,250.00,4.00,0.00,30.06,,6.21,,,,,,,,,,,,,,,,,59.00,LYBE 020130Z 25004KT CAVOK 15/09 Q1018 NOSIG,
LYBE,2025-07-02 02:00,57.20,48.20,71.84,260.00,2.00,0.00,30.09,,6.21,,,,,,,,,,,,,,,,,57.20,LYBE 020200Z 26002KT CAVOK 14/09 Q1019 NOSIG,
LYBE,2025-07-02 02:30,57.20,48.20,71.84,,2.00,0.00,30.09,,6.21,,,,,,,,,,,,,,,,,57.20,LYBE 020230Z VRB02KT CAVOK 14/09 Q1019 NOSIG,
LYBE,2025-07-02 03:00,57.20,48.20,71.84,200.00,3.00,0.00,30.09,,6.21,,,,,,,,,,,,,,,,,57.20,LYBE 020300Z 20003KT 080V240 CAVOK 14/09 Q1019 NOSIG,
LYBE,2025-07-02 03:30,57.20,50.00,76.83,,2.00,0.00,30.09,,6.21,,,,,,,,,,,,,,,,,57.20,LYBE 020330Z VRB02KT CAVOK 14/10 Q1019 NOSIG,
LYBE,2025-07-02 04:00,62.60,50.00,63.39,230.00,4.00,0.00,30.09,,6.21,,,,,,,,,,,,,,,,,62.60,LYBE 020400Z 23004KT 190V260 CAVOK 17/10 Q1019 NOSIG,
LYBE,2025-07-02 04:30,64.40,50.00,59.52,250.00,3.00,0.00,30.09,,6.21,,,,,,,,,,,,,,,,,64.40,LYBE 020430Z 25003KT 200V270 CAVOK 18/10 Q1019 NOSIG,
LYBE,2025-07-02 05:00,68.00,50.00,52.54,,2.00,0.00,30.09,,6.21,,,,,,,,,,,,,,,,,68.00,LYBE 020500Z VRB02KT CAVOK 20/10 Q1019 NOSIG,
LYBE,2025-07-02 05:30,71.60,50.00,46.47,,1.00,0.00,30.09,,6.21,,,,,,,,,,,,,,,,,71.60,LYBE 020530Z VRB01KT CAVOK 22/10 Q1019 NOSIG,
LYBE,2025-07-02 06:00,73.40,48.20,40.89,,2.00,0.00,30.12,,6.21,,,,,,,,,,,,,,,,,73.40,LYBE 020600Z VRB02KT CAVOK 23/09 Q1020 NOSIG,
LYBE,2025-07-02 06:30,75.20,46.40,35.98,360.00,3.00,0.00,30.12,,6.21,,,,,,,,,,,,,,,,,75.20,LYBE 020630Z 36003KT 310V060 CAVOK 24/08 Q1020 NOSIG,
LYBE,2025-07-02 07:00,77.00,46.40,33.89,40.00,4.00,0.00,30.12,,6.21,,,,,,,,,,,,,,,,,77.00,LYBE 020700Z 04004KT 320V130 CAVOK 25/08 Q1020 NOSIG,
LYBE,2025-07-02 07:30,78.80,46.40,31.94,,3.00,0.00,30.12,,6.21,,,,,,,,,,,,,,,,,78.80,LYBE 020730Z VRB03KT CAVOK 26/08 Q1020 NOSIG,
LYBE,2025-07-02 08:00,80.60,44.60,28.13,,4.00,0.00,30.12,,6.21,,,,,,,,,,,,,,,,,79.43,LYBE 020800Z VRB04KT CAVOK 27/07 Q1020 NOSIG,
LYBE,2025-07-02 08:30,80.60,42.80,26.26,40.00,5.00,0.00,30.12,,6.21,,,,,,,,,,,,,,,,,79.31,LYBE 020830Z 04005KT 360V070 CAVOK 27/06 Q1020 NOSIG,
LYBE,2025-07-02 09:00,82.40,41.00,23.10,,5.00,0.00,30.12,,6.21,,,,,,,,,,,,,,,,,80.29,LYBE 020900Z VRB05KT CAVOK 28/05 Q1020 NOSIG,
LYBE,2025-07-02 09:30,84.20,42.80,23.37,10.00,6.00,0.00,30.12,,6.21,,,,,,,,,,,,,,,,,81.61,LYBE 020930Z 01006KT 330V050 CAVOK 29/06 Q1020 NOSIG,
LYBE,2025-07-02 10:00,84.20,44.60,25.04,50.00,4.00,0.00,30.12,,6.21,,,,,,,,,,,,,,,,,81.73,LYBE 021000Z 05004KT 300V110 CAVOK 29/07 Q1020 NOSIG,
LYBE,2025-07-02 10:30,86.00,44.60,23.64,20.00,6.00,0.00,30.12,,6.21,,,,,,,,,,,,,,,,,83.08,LYBE 021030Z 02006KT 310V080 CAVOK 30/07 Q1020 NOSIG,
LYBE,2025-07-02 11:00,86.00,46.40,25.31,30.00,7.00,0.00,30.09,,6.21,,,,,,,,,,,,,,,,,83.23,LYBE 021100Z 03007KT 350V060 CAVOK 30/08 Q1019 NOSIG,
LYBE,2025-07-02 11:30,87.80,46.40,23.91,30.00,6.00,0.00,30.09,,6.21,,,,,,,,,,,,,,,,,84.69,LYBE 021130Z 03006KT 330V100 CAVOK 31/08 Q1019 NOSIG,
LYBE,2025-07-02 12:00,87.80,48.20,25.58,20.00,7.00,0.00,30.09,,6.21,,,,,,,,,,,,,,,,,84.88,LYBE 021200Z 02007KT 310V070 CAVOK 31/09 Q1019 NOSIG,
LYBE,2025-07-02 12:30,87.80,48.20,25.58,60.00,6.00,0.00,30.09,,6.21,,,,,,,,,,,,,,,,,84.88,LYBE 021230Z 06006KT 340V110 CAVOK 31/09 Q1019 NOSIG,
LYBE,2025-07-02 13:00,87.80,46.40,23.91,50.00,8.00,0.00,30.06,,6.21,,,,,,,,,,,,,,,,,84.69,LYBE 021300Z 05008KT 360V100 CAVOK 31/08 Q1018 NOSIG,
LYBE,2025-07-02 13:30,89.60,48.20,24.17,30.00,8.00,0.00,30.06,,6.21,,,,,,,,,,,,,,,,,86.45,LYBE 021330Z 03008KT 320V080 CAVOK 32/09 Q1018 NOSIG,
LYBE,2025-07-02 14:00,89.60,46.40,22.59,10.00,7.00,0.00,30.06,,6.21,,,,,,,,,,,,,,,,,86.24,LYBE 021400Z 01007KT 320V130 CAVOK 32/08 Q1018 NOSIG,
LYBE,2025-07-02 14:30,89.60,46.40,22.59,,5.00,0.00,30.06,,6.21,,,,,,,,,,,,,,,,,86.24,LYBE 021430Z VRB05KT CAVOK 32/08 Q1018 NOSIG,
LYBE,2025-07-02 15:00,91.40,46.40,21.35,20.00,5.00,0.00,30.06,,6.21,,,,,,,,,,,,,,,,,87.87,LYBE 021500Z 02005KT 320V120 CAVOK 33/08 Q1018 NOSIG,
LYBE,2025-07-02 15:30,91.40,46.40,21.35,340.00,5.00,0.00,30.03,,6.21,,,,,,,,,,,,,,,,,87.87,LYBE 021530Z 34005KT 310V040 CAVOK 33/08 Q1017 NOSIG,
LYBE,2025-07-02 16:00,89.60,46.40,22.59,20.00,7.00,0.00,30.03,,6.21,,,,,,,,,,,,,,,,,86.24,LYBE 021600Z 02007KT 350V050 CAVOK 32/08 Q1017 NOSIG,
LYBE,2025-07-02 16:30,89.60,46.40,22.59,20.00,4.00,0.00,30.03,,6.21,,,,,,,,,,,,,,,,,86.24,LYBE 021630Z 02004KT 340V080 CAVOK 32/08 Q1017 NOSIG,
LYBE,2025-07-02 17:00,89.60,48.20,24.17,20.00,4.00,0.00,30.03,,6.21,,,,,,,,,,,,,,,,,86.45,LYBE 021700Z 02004KT 340V050 CAVOK 32/09 Q1017 NOSIG,
LYBE,2025-07-02 17:30,87.80,48.20,25.58,40.00,4.00,0.00,30.03,,6.21,,,,,,,,,,,,,,,,,84.88,LYBE 021730Z 04004KT CAVOK 31/09 Q1017 NOSIG,
LYBE,2025-07-02 18:00,86.00,48.20,27.08,40.00,3.00,0.00,30.03,,6.21,,,,,,,,,,,,,,,,,83.41,LYBE 021800Z 04003KT CAVOK 30/09 Q1017 NOSIG,
LYBE,2025-07-02 18:30,82.40,50.00,32.51,10.00,2.00,0.00,30.03,,6.21,,,,,,,,,,,,,,,,,80.99,LYBE 021830Z 01002KT CAVOK 28/10 Q1017 NOSIG,
LYBE,2025-07-02 19:00,75.20,53.60,47.03,50.00,3.00,0.00,30.03,,6.21,,,,,,,,,,,,,,,,,75.20,LYBE 021900Z 05003KT CAVOK 24/12 Q1017 NOSIG,
LYBE,2025-07-02 19:30,71.60,53.60,53.07,40.00,3.00,0.00,30.03,,6.21,,,,,,,,,,,,,,,,,71.60,LYBE 021930Z 04003KT CAVOK 22/12 Q1017 NOSIG,
LYBE,2025-07-02 20:00,71.60,51.80,49.67,50.00,3.00,0.00,30.03,,6.21,,,,,,,,,,,,,,,,,71.60,LYBE 022000Z 05003KT CAVOK 22/11 Q1017 NOSIG,
LYBE,2025-07-02 20:30,68.00,51.80,56.16,50.00,3.00,0.00,30.03,,6.21,,,,,,,,,,,,,,,,,68.00,LYBE 022030Z 05003KT CAVOK 20/11 Q1017 NOSIG,
LYBE,2025-07-02 21:00,69.80,50.00,49.40,,2.00,0.00,30.06,,6.21,,,,,,,,,,,,,,,,,69.80,LYBE 022100Z VRB02KT CAVOK 21/10 Q1018 NOSIG,
LYBE,2025-07-02 21:30,68.00,50.00,52.54,150.00,1.00,0.00,30.06,,6.21,,,,,,,,,,,,,,,,,68.00,LYBE 022130Z 15001KT CAVOK 20/10 Q1018 NOSIG,
LYBE,2025-07-02 22:00,69.80,50.00,49.40,0.00,0.00,0.00,30.06,,6.21,,,,,,,,,,,,,,,,,69.80,LYBE 022200Z 00000KT CAVOK 21/10 Q1018 NOSIG,
LYBE,2025-07-02 22:30,66.20,51.80,59.76,,1.00,0.00,30.06,,6.21,,,,,,,,,,,,,,,,,66.20,LYBE 022230Z VRB01KT CAVOK 19/11 Q1018 NOSIG,
LYBE,2025-07-02 23:00,66.20,51.80,59.76,150.00,2.00,0.00,30.06,,6.21,,,,,,,,,,,,,,,,,66.20,LYBE 022300Z 15002KT CAVOK 19/11 Q1018 NOSIG,
LYBE,2025-07-02 23:30,68.00,55.40,64.07,190.00,4.00,0.00,30.06,,6.21,,,,,,,,,,,,,,,,,68.00,LYBE 022330Z 19004KT CAVOK 20/13 Q1018 NOSIG,
LYBE,2025-07-03 00:00,68.00,55.40,64.07,190.00,3.00,0.00,30.06,,6.21,,,,,,,,,,,,,,,,,68.00,LYBE 030000Z 19003KT CAVOK 20/13 Q1018 NOSIG,
LYBE,2025-07-03 00:30,64.40,53.60,67.97,150.00,3.00,0.00,30.06,,6.21,,,,,,,,,,,,,,,,,64.40,LYBE 030030Z 15003KT CAVOK 18/12 Q1018 NOSIG,
LYBE,2025-07-03 01:00,64.40,51.80,63.62,,2.00,0.00,30.06,,6.21,,,,,,,,,,,,,,,,,64.40,LYBE 030100Z VRB02KT CAVOK 18/11 Q1018 NOSIG,
LYBE,2025-07-03 01:30,62.60,51.80,67.76,190.00,3.00,0.00,30.06,,6.21,,,,,,,,,,,,,,,,,62.60,LYBE 030130Z 19003KT CAVOK 17/11 Q1018 NOSIG,
LYBE,2025-07-03 02:00,64.40,51.80,63.62,170.00,3.00,0.00,30.06,,6.21,,,,,,,,,,,,,,,,,64.40,LYBE 030200Z 17003KT CAVOK 18/11 Q1018 NOSIG,
LYBE,2025-07-03 02:30,60.80,51.80,72.21,160.00,2.00,0.00,30.06,,6.21,,,,,,,,,,,,,,,,,60.80,LYBE 030230Z 16002KT CAVOK 16/11 Q1018 NOSIG,
LYBE,2025-07-03 03:00,60.80,51.80,72.21,170.00,3.00,0.00,30.06,,6.21,,,,,,,,,,,,,,,,,60.80,LYBE 030300Z 17003KT CAVOK 16/11 Q1018 NOSIG,
LYBE,2025-07-03 03:30,59.00,51.80,76.99,,2.00,0.00,30.06,,6.21,,,,,,,,,,,,,,,,,59.00,LYBE 030330Z VRB02KT CAVOK 15/11 Q1018 NOSIG,
LYBE,2025-07-03 04:00,60.80,53.60,77.15,340.00,1.00,0.00,30.06,,6.21,,,,,,,,,,,,,,,,,60.80,LYBE 030400Z 34001KT CAVOK 16/12 Q1018 NOSIG,
LYBE,2025-07-03 04:30,66.20,55.40,68.18,,2.00,0.00,30.06,,6.21,,,,,,,,,,,,,,,,,66.20,LYBE 030430Z VRB02KT CAVOK 19/13 Q1018 NOSIG,
LYBE,2025-07-03 05:00,68.00,55.40,64.07,260.00,3.00,0.00,30.09,,6.21,,,,,,,,,,,,,,,,,68.00,LYBE 030500Z 26003KT 210V280 CAVOK 20/13 Q1019 NOSIG,
LYBE,2025-07-03 05:30,71.60,53.60,53.07,200.00,4.00,0.00,30.09,,6.21,,,,,,,,,,,,,,,,,71.60,LYBE 030530Z 20004KT 140V240 CAVOK 22/12 Q1019 NOSIG,
LYBE,2025-07-03 06:00,73.40,51.80,46.75,180.00,5.00,0.00,30.09,,6.21,,,,,,,,,,,,,,,,,73.40,LYBE 030600Z 18005KT CAVOK 23/11 Q1019 NOSIG,
LYBE,2025-07-03 06:30,77.00,53.60,44.30,,2.00,0.00,30.09,,6.21,,,,,,,,,,,,,,,,,77.00,LYBE 030630Z VRB02KT CAVOK 25/12 Q1019 NOSIG,
LYBE,2025-07-03 07:00,82.40,51.80,34.75,,1.00,0.00,30.09,,6.21,,,,,,,,,,,,,,,,,81.21,LYBE 030700Z VRB01KT CAVOK 28/11 Q1019 NOSIG,
LYBE,2025-07-03 07:30,84.20,48.20,28.69,,2.00,0.00,30.09,,6.21,,,,,,,,,,,,,,,,,82.04,LYBE 030730Z VRB02KT CAVOK 29/09 Q1019 NOSIG,
LYBE,2025-07-03 08:00,86.00,50.00,28.97,,2.00,0.00,30.09,,6.21,,,,,,,,,,,,,,,,,83.62,LYBE 030800Z VRB02KT CAVOK 30/10 Q1019 NOSIG,
LYBE,2025-07-03 08:30,87.80,48.20,25.58,,3.00,0.00,30.09,,6.21,,,,,,,,,,,,,,,,,84.88,LYBE 030830Z VRB03KT CAVOK 31/09 Q1019 NOSIG,
LYBE,2025-07-03 09:00,89.60,46.40,22.59,,4.00,0.00,30.09,,6.21,,,,,,,,,,,,,,,,,86.24,LYBE 030900Z VRB04KT CAVOK 32/08 Q1019 NOSIG,
LYBE,2025-07-03 09:30,91.40,46.40,21.35,40.00,4.00,0.00,30.09,,6.21,,,,,,,,,,,,,,,,,87.87,LYBE 030930Z 04004KT 320V120 CAVOK 33/08 Q1019 NOSIG,
LYBE,2025-07-03 10:00,91.40,46.40,21.35,,4.00,0.00,30.06,,6.21,,,,,,,,,,,,,,,,,87.87,LYBE 031000Z VRB04KT CAVOK 33/08 Q1018 NOSIG,
LYBE,2025-07-03 10:30,93.20,44.60,18.86,140.00,4.00,0.00,30.06,,6.21,,,,,,,,,,,,,,,,,89.35,LYBE 031030Z 14004KT 030V200 CAVOK 34/07 Q1018 NOSIG,
LYBE,2025-07-03 11:00,93.20,46.40,20.19,30.00,4.00,0.00,30.06,,6.21,,,,,,,,,,,,,,,,,89.56,LYBE 031100Z 03004KT 330V120 CAVOK 34/08 Q1018 NOSIG,
LYBE,2025-07-03 11:30,95.00,46.40,19.11,30.00,5.00,0.00,30.06,,6.21,,,,,,,,,,,,,,,,,91.30,LYBE 031130Z 03005KT 300V100 CAVOK 35/08 Q1018 NOSIG,
LYBE,2025-07-03 12:00,95.00,46.40,19.11,,4.00,0.00,30.06,,6.21,,,,,,,,,,,,,,,,,91.30,LYBE 031200Z VRB04KT CAVOK 35/08 Q1018 NOSIG,
LYBE,2025-07-03 12:30,95.00,46.40,19.11,30.00,6.00,0.00,30.06,,6.21,,,,,,,,,,,,,,,,,91.30,LYBE 031230Z 03006KT 300V090 CAVOK 35/08 Q1018 NOSIG,
LYBE,2025-07-03 13:00,95.00,44.60,17.85,30.00,7.00,0.00,30.06,,6.21,,,,,,,,,,,,,,,,,91.07,LYBE 031300Z 03007KT 350V060 CAVOK 35/07 Q1018 NOSIG,
LYBE,2025-07-03 13:30,96.80,42.80,15.77,,5.00,0.00,30.03,,6.21,,,,,,,,,,,,,,,,,92.59,LYBE 031330Z VRB05KT CAVOK 36/06 Q1017 NOSIG,
LYBE,2025-07-03 14:00,96.80,39.20,13.71,340.00,5.00,0.00,30.03,,6.21,,,,,,,,,,,,,,,,,92.24,LYBE 031400Z 34005KT 260V070 CAVOK 36/04 Q1017 NOSIG,
LYBE,2025-07-03 14:30,96.80,39.20,13.71,40.00,6.00,0.00,30.03,,6.21,,,,,,,,,,,,,,,,,92.24,LYBE 031430Z 04006KT 340V090 CAVOK 36/04 Q1017 NOSIG,
LYBE,2025-07-03 15:00,96.80,42.80,15.77,20.00,7.00,0.00,30.03,,6.21,,,,,,,,,,,,,,,,,92.59,LYBE 031500Z 02007KT 330V060 CAVOK 36/06 Q1017 NOSIG,
LYBE,2025-07-03 15:30,96.80,42.80,15.77,50.00,6.00,0.00,30.00,,6.21,,,,,,,,,,,,,,,,,92.59,LYBE 031530Z 05006KT 350V090 CAVOK 36/06 Q1016 NOSIG,
LYBE,2025-07-03 16:00,95.00,41.00,15.54,40.00,6.00,0.00,30.00,,6.21,,,,,,,,,,,,,,,,,90.71,LYBE 031600Z 04006KT CAVOK 35/05 Q1016 NOSIG,
LYBE,2025-07-03 16:30,95.00,41.00,15.54,40.00,6.00,0.00,30.00,,6.21,,,,,,,,,,,,,,,,,90.71,LYBE 031630Z 04006KT 010V080 CAVOK 35/05 Q1016 NOSIG,
LYBE,2025-07-03 17:00,93.20,44.60,18.86,30.00,5.00,0.00,30.00,,6.21,,,,,,,,,,,,,,,,,89.35,LYBE 031700Z 03005KT CAVOK 34/07 Q1016 NOSIG,
LYBE,2025-07-03 17:30,91.40,48.20,22.85,30.00,4.00,0.00,30.00,,6.21,,,,,,,,,,,,,,,,,88.10,LYBE 031730Z 03004KT CAVOK 33/09 Q1016 NOSIG,
LYBE,2025-07-03 18:00,89.60,48.20,24.17,30.00,4.00,0.00,30.00,,6.21,,,,,,,,,,,,,,,,,86.45,LYBE 031800Z 03004KT CAVOK 32/09 Q1016 NOSIG,
LYBE,2025-07-03 18:30,87.80,46.40,23.91,30.00,4.00,0.00,30.03,,6.21,,,,,,,,,,,,,,,,,84.69,LYBE 031830Z 03004KT CAVOK 31/08 Q1017 NOSIG,
LYBE,2025-07-03 19:00,82.40,48.20,30.40,40.00,4.00,0.00,30.03,,6.21,,,,,,,,,,,,,,,,,80.81,LYBE 031900Z 04004KT CAVOK 28/09 Q1017 NOSIG,
LYBE,2025-07-03 19:30,82.40,48.20,30.40,50.00,5.00,0.00,30.03,,6.21,,,,,,,,,,,,,,,,,80.81,LYBE 031930Z 05005KT CAVOK 28/09 Q1017 NOSIG,
LYBE,2025-07-03 20:00,75.20,48.20,38.50,80.00,4.00,0.00,30.03,,6.21,,,,,,,,,,,,,,,,,75.20,LYBE 032000Z 08004KT CAVOK 24/09 Q1017 NOSIG,
LYBE,2025-07-03 20:30,75.20,46.40,35.98,80.00,2.00,0.00,30.03,,6.21,,,,,,,,,,,,,,,,,75.20,LYBE 032030Z 08002KT CAVOK 24/08 Q1017 NOSIG,
LYBE,2025-07-03 21:00,73.40,48.20,40.89,120.00,2.00,0.00,30.03,,6.21,,,,,,,,,,,,,,,,,73.40,LYBE 032100Z 12002KT CAVOK 23/09 Q1017 NOSIG,
LYBE,2025-07-03 21:30,71.60,48.20,43.45,160.00,3.00,0.00,30.03,,6.21,,,,,,,,,,,,,,,,,71.60,LYBE 032130Z 16003KT CAVOK 22/09 Q1017 NOSIG,
LYBE,2025-07-03 22:00,69.80,50.00,49.40,,2.00,0.00,30.03,,6.21,,,,,,,,,,,,,,,,,69.80,LYBE 032200Z VRB02KT CAVOK 21/10 Q1017 NOSIG,
LYBE,2025-07-03 22:30,71.60,50.00,46.47,170.00,3.00,0.00,30.03,,6.21,,,,,,,,,,,,,,,,,71.60,LYBE 032230Z 17003KT CAVOK 22/10 Q1017 NOSIG,
LYBE,2025-07-03 23:00,71.60,48.20,43.45,170.00,4.00,0.00,30.03,,6.21,,,,,,,,,,,,,,,,,71.60,LYBE 032300Z 17004KT 130V190 CAVOK 22/09 Q1017 NOSIG,
LYBE,2025-07-03 23:30,69.80,51.80,52.81,150.00,5.00,0.00,30.03,,6.21,,,,,,,,,,,,,,,,,69.80,LYBE 032330Z 15005KT CAVOK 21/11 Q1017 NOSIG,
LYBE,2025-07-04 00:00,71.60,51.80,49.67,240.00,3.00,0.00,30.03,,6.21,,,,,,,,,,,,,,,,,71.60,LYBE 040000Z 24003KT 200V270 CAVOK 22/11 Q1017 NOSIG,
LYBE,2025-07-04 00:30,66.20,51.80,59.76,280.00,3.00,0.00,30.03,,6.21,,,,,,,,,,,,,,,,,66.20,LYBE 040030Z 28003KT CAVOK 19/11 Q1017 NOSIG,
LYBE,2025-07-04 01:00,64.40,51.80,63.62,350.00,4.00,0.00,30.03,,6.21,,,,,,,,,,,,,,,,,64.40,LYBE 040100Z 35004KT CAVOK 18/11 Q1017 NOSIG,
LYBE,2025-07-04 01:30,60.80,50.00,67.55,310.00,4.00,0.00,30.03,,6.21,,,,,,,,,,,,,,,,,60.80,LYBE 040130Z 31004KT CAVOK 16/10 Q1017 NOSIG,
LYBE,2025-07-04 02:00,64.40,50.00,59.52,200.00,4.00,0.00,30.03,,6.21,,,,,,,,,,,,,,,,,64.40,LYBE 040200Z 20004KT 170V230 CAVOK 18/10 Q1017 NOSIG,
LYBE,2025-07-04 02:30,64.40,50.00,59.52,180.00,5.00,0.00,30.03,,6.21,,,,,,,,,,,,,,,,,64.40,LYBE 040230Z 18005KT CAVOK 18/10 Q1017 NOSIG,
LYBE,2025-07-04 03:00,62.60,51.80,67.76,150.00,5.00,0.00,30.03,,6.21,,,,,,,,,,,,,,,,,62.60,LYBE 040300Z 15005KT CAVOK 17/11 Q1017 NOSIG,
LYBE,2025-07-04 03:30,62.60,51.80,67.76,170.00,2.00,0.00,30.06,,6.21,,,,,,,,,,,,,,,,,62.60,LYBE 040330Z 17002KT CAVOK 17/11 Q1018 NOSIG,
LYBE,2025-07-04 04:00,62.60,53.60,72.40,0.00,0.00,0.00,30.03,,6.21,,,,,,,,,,,,,,,,,62.60,LYBE 040400Z 00000KT CAVOK 17/12 Q1017 NOSIG,
LYBE,2025-07-04 04:30,71.60,53.60,53.07,170.00,3.00,0.00,30.03,,6.21,,,,,,,,,,,,,,,,,71.60,LYBE 040430Z 17003KT 140V200 CAVOK 22/12 Q1017 NOSIG,
LYBE,2025-07-04 05:00,71.60,53.60,53.07,220.00,4.00,0.00,30.06,,6.21,,,,,,,,,,,,,,,,,71.60,LYBE 040500Z 22004KT 150V250 CAVOK 22/12 Q1018 NOSIG,
LYBE,2025-07-04 05:30,73.40,53.60,49.95,270.00,4.00,0.00,30.06,,6.21,,,,,,,,,,,,,,,,,73.40,LYBE 040530Z 27004KT CAVOK 23/12 Q1018 NOSIG,
LYBE,2025-07-04 06:00,73.40,53.60,49.95,250.00,6.00,0.00,30.06,,6.21,,,,,,,,,,,,,,,,,73.40,LYBE 040600Z 25006KT 220V280 CAVOK 23/12 Q1018 NOSIG,
LYBE,2025-07-04 06:30,75.20,53.60,47.03,250.00,6.00,0.00,30.06,,6.21,,,,,,,,,,,,,,,,,75.20,LYBE 040630Z 25006KT CAVOK 24/12 Q1018 NOSIG,
LYBE,2025-07-04 07:00,78.80,51.80,39.08,240.00,6.00,0.00,30.06,,6.21,,,,,,,,,,,,,,,,,78.80,LYBE 040700Z 24006KT CAVOK 26/11 Q1018 NOSIG,
LYBE,2025-07-04 07:30,82.40,51.80,34.75,240.00,5.00,0.00,30.06,,6.21,,,,,,,,,,,,,,,,,81.21,LYBE 040730Z 24005KT 210V270 CAVOK 28/11 Q1018 NOSIG,
LYBE,2025-07-04 08:00,84.20,51.80,32.80,,3.00,0.00,30.06,,6.21,,,,,,,,,,,,,,,,,82.48,LYBE 040800Z VRB03KT CAVOK 29/11 Q1018 NOSIG,
LYBE,2025-07-04 08:30,87.80,53.60,31.25,230.00,5.00,0.00,30.06,,6.21,,,,,,,,,,,,,,,,,85.73,LYBE 040830Z 23005KT 180V300 CAVOK 31/12 Q1018 NOSIG,
LYBE,2025-07-04 09:00,89.60,53.60,29.53,,4.00,0.00,30.06,,6.21,,,,,,,,,,,,,,,,,87.37,LYBE 040900Z VRB04KT CAVOK 32/12 Q1018 NOSIG,
LYBE,2025-07-04 09:30,91.40,53.60,27.91,,3.00,0.00,30.06,,6.21,,,,,,,,,,,,,,,,,89.09,LYBE 040930Z VRB03KT CAVOK 33/12 Q1018 NOSIG,
LYBE,2025-07-04 10:00,93.20,53.60,26.40,,4.00,0.00,30.06,,6.21,,,,,,,,,,,,,,,,,90.89,LYBE 041000Z VRB04KT CAVOK 34/12 Q1018 NOSIG,
LYBE,2025-07-04 10:30,95.00,51.80,23.38,,4.00,0.00,30.03,,6.21,,,,,,,,,,,,,,,,,92.29,LYBE 041030Z VRB04KT CAVOK 35/11 Q1017 NOSIG,
LYBE,2025-07-04 11:00,96.80,50.00,20.70,,5.00,0.00,30.03,,6.21,,,,,,,,,,,,,,,,,93.73,LYBE 041100Z VRB05KT CAVOK 36/10 Q1017 NOSIG,
LYBE,2025-07-04 11:30,96.80,50.00,20.70,,5.00,0.00,30.03,,6.21,,,,,,,,,,,,,,,,,93.73,LYBE 041130Z VRB05KT CAVOK 36/10 Q1017 NOSIG,
LYBE,2025-07-04 12:00,96.80,48.20,19.35,30.00,5.00,0.00,30.03,,6.21,,,,,,,,,,,,,,,,,93.37,LYBE 041200Z 03005KT 300V100 CAVOK 36/09 Q1017 NOSIG,
LYBE,2025-07-04 12:30,96.80,48.20,19.35,,6.00,0.00,30.03,,6.21,,,,,,,,,,,,,,,,,93.37,LYBE 041230Z VRB06KT CAVOK 36/09 Q1017 NOSIG,
LYBE,2025-07-04 13:00,98.60,44.60,15.99,330.00,8.00,0.00,30.00,,6.21,,,,,,,,,,,,,,,,,94.57,LYBE 041300Z 33008KT 280V010 CAVOK 37/07 Q1016 NOSIG,
LYBE,2025-07-04 13:30,98.60,44.60,15.99,320.00,5.00,0.00,30.00,,6.21,,,,,,,,,,,,,,,,,94.57,LYBE 041330Z 32005KT 240V020 CAVOK 37/07 Q1016 NOSIG,
LYBE,2025-07-04 14:00,98.60,48.20,18.32,,5.00,0.00,30.00,,6.21,,,,,,,,,,,,,,,,,95.19,LYBE 041400Z VRB05KT CAVOK 37/09 Q1016 NOSIG,
LYBE,2025-07-04 14:30,98.60,50.00,19.60,330.00,6.00,0.00,30.00,,6.21,,,,,,,,,,,,,,,,,95.58,LYBE 041430Z 33006KT 300V030 CAVOK 37/10 Q1016 NOSIG,
LYBE,2025-07-04 15:00,96.80,50.00,20.70,30.00,6.00,0.00,30.00,,6.21,,,,,,,,,,,,,,,,,93.73,LYBE 041500Z 03006KT 010V070 CAVOK 36/10 Q1016 NOSIG,
LYBE,2025-07-04 15:30,96.80,50.00,20.70,360.00,6.00,0.00,29.97,,6.21,,,,,,,,,,,,,,,,,93.73,LYBE 041530Z 36006KT 330V040 CAVOK 36/10 Q1015 NOSIG,
LYBE,2025-07-04 16:00,96.80,51.80,22.13,340.00,7.00,0.00,29.97,,6.21,,,,,,,,,,,,,,,,,94.14,LYBE 041600Z 34007KT 310V020 CAVOK 36/11 Q1015 NOSIG,
LYBE,2025-07-04 16:30,95.00,53.60,24.97,340.00,8.00,0.00,29.97,,6.21,,,,,,,,,,,,,,,,,92.73,LYBE 041630Z 34008KT CAVOK 35/12 Q1015 NOSIG,
LYBE,2025-07-04 17:00,93.20,53.60,26.40,340.00,7.00,0.00,29.97,,6.21,,,,,,,,,,,,,,,,,90.89,LYBE 041700Z 34007KT CAVOK 34/12 Q1015 NOSIG,
LYBE,2025-07-04 17:30,91.40,53.60,27.91,330.00,8.00,0.00,30.00,,6.21,,,,,,,,,,,,,,,,,89.09,LYBE 041730Z 33008KT CAVOK 33/12 Q1016 NOSIG,
LYBE,2025-07-04 18:00,89.60,55.40,31.53,330.00,8.00,0.00,30.00,,6.21,,,,,,,,,,,,,,,,,87.80,LYBE 041800Z 33008KT CAVOK 32/13 Q1016 NOSIG,
LYBE,2025-07-04 18:30,86.00,55.40,35.33,320.00,8.00,0.00,30.00,,6.21,,,,,,,,,,,,,,,,,84.56,LYBE 041830Z 32008KT CAVOK 30/13 Q1016 TEMPO 32018KT,
LYBE,2025-07-04 19:00,86.00,59.00,40.22,340.00,9.00,0.00,30.00,,6.21,,,,,,,,,,,,,,,,,85.49,LYBE 041900Z 34009KT CAVOK 30/15 Q1016 TEMPO 33019KT,
LYBE,2025-07-04 19:30,86.00,60.80,42.88,340.00,10.00,0.00,30.03,,6.21,,,,,,,,,,,,,,,,,86.07,LYBE 041930Z 34010KT CAVOK 30/16 Q1017 NOSIG,
LYBE,2025-07-04 20:00,84.20,60.80,45.42,340.00,10.00,0.00,30.03,,6.21,,,,,,,,,,,,,,,,,84.45,LYBE 042000Z 34010KT CAVOK 29/16 Q1017 NOSIG,
LYBE,2025-07-04 20:30,82.40,60.80,48.13,340.00,9.00,0.00,30.06,,6.21,,,,,,,,,,,,,,,,,82.91,LYBE 042030Z 34009KT CAVOK 28/16 Q1018 NOSIG,
LYBE,2025-07-04 21:00,80.60,60.80,51.02,340.00,9.00,0.00,30.06,,6.21,,,,,,,,,,,,,,,,,81.46,LYBE 042100Z 34009KT CAVOK 27/16 Q1018 NOSIG,
LYBE,2025-07-04 21:30,78.80,60.80,54.11,340.00,9.00,0.00,30.06,,6.21,,,,,,,,,,,,,,,,,78.80,LYBE 042130Z 34009KT CAVOK 26/16 Q1018 NOSIG,
LYBE,2025-07-04 22:00,78.80,60.80,54.11,350.00,10.00,0.00,30.09,,6.21,,,,,,,,,,,,,,,,,78.80,LYBE 042200Z 35010KT CAVOK 26/16 Q1019 NOSIG,
LYBE,2025-07-04 22:30,77.00,60.80,57.42,350.00,9.00,0.00,30.09,,6.21,,,,,,,,,,,,,,,,,77.00,LYBE 042230Z 35009KT CAVOK 25/16 Q1019 NOSIG,
LYBE,2025-07-04 23:00,77.00,60.80,57.42,340.00,8.00,0.00,30.09,,6.21,,,,,,,,,,,,,,,,,77.00,LYBE 042300Z 34008KT CAVOK 25/16 Q1019 NOSIG,
LYBE,2025-07-04 23:30,75.20,60.80,60.96,340.00,7.00,0.00,30.09,,6.21,,,,,,,,,,,,,,,,,75.20,LYBE 042330Z 34007KT 310V010 CAVOK 24/16 Q1019 NOSIG,
LYBE,2025-07-05 00:00,75.20,60.80,60.96,360.00,7.00,0.00,30.12,,6.21,,,,,,,,,,,,,,,,,75.20,LYBE 050000Z 36007KT 320V030 CAVOK 24/16 Q1020 NOSIG,
LYBE,2025-07-05 00:30,75.20,59.00,57.17,340.00,8.00,0.00,30.12,,6.21,,,,,,,,,,,,,,,,,75.20,LYBE 050030Z 34008KT CAVOK 24/15 Q1020 NOSIG,
LYBE,2025-07-05 01:00,73.40,57.20,56.92,320.00,8.00,0.00,30.12,,6.21,,,,,,,,,,,,,,,,,73.40,LYBE 050100Z 32008KT CAVOK 23/14 Q1020 NOSIG,
LYBE,2025-07-05 01:30,73.40,57.20,56.92,320.00,8.00,0.00,30.12,,6.21,,,,,,,,,,,,,,,,,73.40,LYBE 050130Z 32008KT CAVOK 23/14 Q1020 NOSIG,
LYBE,2025-07-05 02:00,71.60,57.20,60.48,330.00,8.00,0.00,30.12,,6.21,,,,,,,,,,,,,,,,,71.60,LYBE 050200Z 33008KT CAVOK 22/14 Q1020 NOSIG,
LYBE,2025-07-05 02:30,71.60,51.80,49.67,340.00,7.00,0.00,30.12,,6.21,,,,,,,,,,,,,,,,,71.60,LYBE 050230Z 34007KT CAVOK 22/11 Q1020 NOSIG,
LYBE,2025-07-05 03:00,69.80,51.80,52.81,350.00,5.00,0.00,30.12,,6.21,,,,,,,,,,,,,,,,,69.80,LYBE 050300Z 35005KT CAVOK 21/11 Q1020 NOSIG,
LYBE,2025-07-05 03:30,69.80,51.80,52.81,320.00,7.00,0.00,30.12,,6.21,,,,,,,,,,,,,,,,,69.80,LYBE 050330Z 32007KT CAVOK 21/11 Q1020 NOSIG,
LYBE,2025-07-05 04:00,69.80,50.00,49.40,330.00,7.00,0.00,30.12,,6.21,,,,,,,,,,,,,,,,,69.80,LYBE 050400Z 33007KT CAVOK 21/10 Q1020 NOSIG,
LYBE,2025-07-05 04:30,69.80,50.00,49.40,330.00,4.00,0.00,30.12,,6.21,,,,,,,,,,,,,,,,,69.80,LYBE 050430Z 33004KT CAVOK 21/10 Q1020 NOSIG,
LYBE,2025-07-05 05:00,69.80,50.00,49.40,320.00,6.00,0.00,30.12,,6.21,,,,,,,,,,,,,,,,,69.80,LYBE 050500Z 32006KT CAVOK 21/10 Q1020 NOSIG,
LYBE,2025-07-05 05:30,69.80,48.20,46.19,330.00,7.00,0.00,30.15,,6.21,,,,,,,,,,,,,,,,,69.80,LYBE 050530Z 33007KT CAVOK 21/09 Q1021 NOSIG,
LYBE,2025-07-05 06:00,71.60,46.40,40.60,360.00,7.00,0.00,30.15,,6.21,,,,,,,,,,,,,,,,,71.60,LYBE 050600Z 36007KT CAVOK 22/08 Q1021 NOSIG,
LYBE,2025-07-05 06:30,71.60,46.40,40.60,330.00,7.00,0.00,30.15,,6.21,,,,,,,,,,,,,,,,,71.60,LYBE 050630Z 33007KT CAVOK 22/08 Q1021 NOSIG,
LYBE,2025-07-05 07:00,73.40,46.40,38.21,350.00,8.00,0.00,30.15,,6.21,,,,,,,,,,,,,,,,,73.40,LYBE 050700Z 35008KT CAVOK 23/08 Q1021 NOSIG,
LYBE,2025-07-05 07:30,73.40,46.40,38.21,340.00,6.00,0.00,30.15,,6.21,,,,,,,,,,,,,,,,,73.40,LYBE 050730Z 34006KT 300V020 CAVOK 23/08 Q1021 NOSIG,
LYBE,2025-07-05 08:00,75.20,48.20,38.50,360.00,5.00,0.00,30.15,,6.21,,,,,,,,,,,,,,,,,75.20,LYBE 050800Z 36005KT 310V050 CAVOK 24/09 Q1021 NOSIG,
LYBE,2025-07-05 08:30,77.00,50.00,38.79,,6.00,0.00,30.15,,6.21,,,,,,,,,,,,,,,,,77.00,LYBE 050830Z VRB06KT CAVOK 25/10 Q1021 NOSIG,
LYBE,2025-07-05 09:00,73.40,48.20,40.89,320.00,9.00,0.00,30.15,,6.21,,,,,,,,,,,,,,,,,73.40,LYBE 050900Z 32009KT CAVOK 23/09 Q1021 NOSIG,
LYBE,2025-07-05 09:30,73.40,50.00,43.73,330.00,8.00,0.00,30.15,,6.21,,,,,,,,,,,,,,,,,73.40,LYBE 050930Z 33008KT CAVOK 23/10 Q1021 NOSIG,
LYBE,2025-07-05 10:00,75.20,48.20,38.50,320.00,6.00,0.00,30.12,,6.21,,,,,,,,,,,,,,,,,75.20,LYBE 051000Z 32006KT 290V020 CAVOK 24/09 Q1020 NOSIG,
LYBE,2025-07-05 10:30,77.00,48.20,36.27,,4.00,0.00,30.12,,6.21,,,,,,,,,,,,,,,,,77.00,LYBE 051030Z VRB04KT CAVOK 25/09 Q1020 NOSIG,
LYBE,2025-07-05 11:00,78.80,50.00,36.56,,5.00,0.00,30.12,,6.21,,,,,,,,,,,,,,,,,78.80,LYBE 051100Z VRB05KT CAVOK 26/10 Q1020 NOSIG,
LYBE,2025-07-05 11:30,80.60,51.80,36.84,360.00,4.00,0.00,30.09,,6.21,,,,,,,,,,,,,,,,,80.08,LYBE 051130Z 36004KT 290V090 CAVOK 27/11 Q1019 NOSIG,
LYBE,2025-07-05 12:00,80.60,50.00,34.47,,5.00,0.00,30.09,,6.21,,,,,,,,,,,,,,,,,79.89,LYBE 051200Z VRB05KT CAVOK 27/10 Q1019 NOSIG,
LYBE,2025-07-05 12:30,82.40,50.00,32.51,,4.00,0.00,30.06,,6.21,,,,,,,,,,,,,,,,,80.99,LYBE 051230Z VRB04KT CAVOK 28/10 Q1018 NOSIG,
LYBE,2025-07-05 13:00,84.20,51.80,32.80,,4.00,0.00,30.06,,6.21,,,,,,,,,,,,,,,,,82.48,LYBE 051300Z VRB04KT CAVOK 29/11 Q1018 NOSIG,
LYBE,2025-07-05 13:30,84.20,51.80,32.80,40.00,6.00,0.00,30.06,,6.21,,,,,,,,,,,,,,,,,82.48,LYBE 051330Z 04006KT 350V090 CAVOK 29/11 Q1018 NOSIG,
LYBE,2025-07-05 14:00,84.20,53.60,35.04,70.00,6.00,0.00,30.03,,6.21,,,,,,,,,,,,,,,,,82.76,LYBE 051400Z 07006KT 350V110 CAVOK 29/12 Q1017 NOSIG,
LYBE,2025-07-05 14:30,84.20,53.60,35.04,60.00,6.00,0.00,30.03,,6.21,,,,,,,,,,,,,,,,,82.76,LYBE 051430Z 06006KT 020V120 CAVOK 29/12 Q1017 NOSIG,
LYBE,2025-07-05 15:00,86.00,53.60,33.08,30.00,7.00,0.00,30.00,,6.21,,,,,,,,,,,,,,,,,84.19,LYBE 051500Z 03007KT 330V090 CAVOK 30/12 Q1016 NOSIG,
LYBE,2025-07-05 15:30,84.20,50.00,30.68,20.00,5.00,0.00,30.00,,6.21,,,,,,,,,,,,,,,,,82.24,LYBE 051530Z 02005KT 330V090 CAVOK 29/10 Q1016 NOSIG,
LYBE,2025-07-05 16:00,84.20,51.80,32.80,10.00,4.00,0.00,30.00,,6.21,,,,,,,,,,,,,,,,,82.48,LYBE 051600Z 01004KT 320V060 CAVOK 29/11 Q1016 NOSIG,
LYBE,2025-07-05 16:30,84.20,50.00,30.68,360.00,3.00,0.00,30.00,,6.21,,,,,,,,,,,,,,,,,82.24,LYBE 051630Z 36003KT 320V080 CAVOK 29/10 Q1016 NOSIG,
LYBE,2025-07-05 17:00,84.20,50.00,30.68,90.00,3.00,0.00,30.00,,6.21,,,,,,,,,,,,,,,,,82.24,LYBE 051700Z 09003KT 030V180 CAVOK 29/10 Q1016 NOSIG,
LYBE,2025-07-05 17:30,84.20,51.80,32.80,30.00,3.00,0.00,30.00,,6.21,,,,,,,,,,,,,,,,,82.48,LYBE 051730Z 03003KT CAVOK 29/11 Q1016 NOSIG,
LYBE,2025-07-05 18:00,82.40,53.60,37.13,30.00,4.00,0.00,30.00,,6.21,,,,,,,,,,,,,,,,,81.46,LYBE 051800Z 03004KT CAVOK 28/12 Q1016 NOSIG,
LYBE,2025-07-05 18:30,78.80,53.60,41.75,70.00,3.00,0.00,29.97,,6.21,,,,,,,,,,,,,,,,,78.80,LYBE 051830Z 07003KT CAVOK 26/12 Q1015 NOSIG,
LYBE,2025-07-05 19:00,80.60,51.80,36.84,50.00,5.00,0.00,29.97,,6.21,,,,,,,,,,,,,,,,,80.08,LYBE 051900Z 05005KT CAVOK 27/11 Q1015 NOSIG,
LYBE,2025-07-05 19:30,77.00,53.60,44.30,50.00,5.00,0.00,29.97,,6.21,,,,,,,,,,,,,,,,,77.00,LYBE 051930Z 05005KT CAVOK 25/12 Q1015 NOSIG,
LYBE,2025-07-05 20:00,77.00,51.80,41.46,70.00,2.00,0.00,29.97,,6.21,,,,,,,,,,,,,,,,,77.00,LYBE 052000Z 07002KT CAVOK 25/11 Q1015 NOSIG,
LYBE,2025-07-05 20:30,73.40,53.60,49.95,,2.00,0.00,30.00,,6.21,,,,,,,,,,,,,,,,,73.40,LYBE 052030Z VRB02KT CAVOK 23/12 Q1016 NOSIG,
LYBE,2025-07-05 21:00,75.20,53.60,47.03,220.00,4.00,0.00,30.00,,6.21,,,,,,,,,,,,,,,,,75.20,LYBE 052100Z 22004KT CAVOK 24/12 Q1016 NOSIG,
LYBE,2025-07-05 21:30,73.40,53.60,49.95,,1.00,0.00,30.00,,6.21,,,,,,,,,,,,,,,,,73.40,LYBE 052130Z VRB01KT CAVOK 23/12 Q1016 NOSIG,
LYBE,2025-07-05 22:00,71.60,51.80,49.67,100.00,6.00,0.00,29.97,,6.21,,,,,,,,,,,,,,,,,71.60,LYBE 052200Z 10006KT CAVOK 22/11 Q1015 NOSIG,
LYBE,2025-07-05 22:30,71.60,53.60,53.07,90.00,5.00,0.00,29.97,,6.21,,,,,,,,,,,,,,,,,71.60,LYBE 052230Z 09005KT CAVOK 22/12 Q1015 NOSIG,
LYBE,2025-07-05 23:00,71.60,53.60,53.07,,1.00,0.00,29.97,,6.21,,,,,,,,,,,,,,,,,71.60,LYBE 052300Z VRB01KT CAVOK 22/12 Q1015 NOSIG,
LYBE,2025-07-05 23:30,69.80,53.60,56.42,70.00,1.00,0.00,29.97,,6.21,,,,,,,,,,,,,,,,,69.80,LYBE 052330Z 07001KT CAVOK 21/12 Q1015 NOSIG,
LYBE,2025-07-06 00:00,69.80,53.60,56.42,,2.00,0.00,29.94,,6.21,,,,,,,,,,,,,,,,,69.80,LYBE 060000Z VRB02KT CAVOK 21/12 Q1014 NOSIG,
LYBE,2025-07-06 00:30,69.80,53.60,56.42,150.00,2.00,0.00,29.94,,6.21,,,,,,,,,,,,,,,,,69.80,LYBE 060030Z 15002KT CAVOK 21/12 Q1014 NOSIG,
LYBE,2025-07-06 01:00,69.80,53.60,56.42,110.00,5.00,0.00,29.94,,6.21,,,,,,,,,,,,,,,,,69.80,LYBE 060100Z 11005KT CAVOK 21/12 Q1014 NOSIG,
LYBE,2025-07-06 01:30,69.80,53.60,56.42,120.00,3.00,0.00,29.94,,6.21,,,,,,,,,,,,,,,,,69.80,LYBE 060130Z 12003KT CAVOK 21/12 Q1014 NOSIG,
LYBE,2025-07-06 02:00,68.00,55.40,64.07,90.00,3.00,0.00,29.94,,6.21,,,,,,,,,,,,,,,,,68.00,LYBE 060200Z 09003KT CAVOK 20/13 Q1014 NOSIG,
LYBE,2025-07-06 02:30,66.20,55.40,68.18,60.00,1.00,0.00,29.91,,6.21,,,,,,,,,,,,,,,,,66.20,LYBE 060230Z 06001KT CAVOK 19/13 Q1013 NOSIG,
LYBE,2025-07-06 03:00,66.20,55.40,68.18,0.00,0.00,0.00,29.91,,6.21,,,,,,,,,,,,,,,,,66.20,LYBE 060300Z 00000KT CAVOK 19/13 Q1013 NOSIG,
LYBE,2025-07-06 03:30,66.20,55.40,68.18,0.00,0.00,0.00,29.91,,6.21,,,,,,,,,,,,,,,,,66.20,LYBE 060330Z 00000KT CAVOK 19/13 Q1013 NOSIG,
LYBE,2025-07-06 04:00,68.00,57.20,68.38,100.00,3.00,0.00,29.91,,6.21,,,,,,,,,,,,,,,,,68.00,LYBE 060400Z 10003KT CAVOK 20/14 Q1013 NOSIG,
LYBE,2025-07-06 04:30,73.40,59.00,60.72,80.00,4.00,0.00,29.91,,6.21,,,,,,,,,,,,,,,,,73.40,LYBE 060430Z 08004KT CAVOK 23/15 Q1013 NOSIG,
LYBE,2025-07-06 05:00,73.40,59.00,60.72,40.00,3.00,0.00,29.94,,6.21,,,,,,,,,,,,,,,,,73.40,LYBE 060500Z 04003KT CAVOK 23/15 Q1014 NOSIG,
LYBE,2025-07-06 05:30,77.00,59.00,53.86,40.00,3.00,0.00,29.94,,6.21,,,,,,,,,,,,,,,,,77.00,LYBE 060530Z 04003KT 020V080 CAVOK 25/15 Q1014 NOSIG,
LYBE,2025-07-06 06:00,80.60,57.20,44.86,30.00,3.00,0.00,29.91,,6.21,,,,,,,,,,,,,,,,,80.81,LYBE 060600Z 03003KT 360V120 CAVOK 27/14 Q1013 NOSIG,
LYBE,2025-07-06 06:30,80.60,55.40,42.03,100.00,6.00,0.00,29.91,,6.21,,,,,,,,,,,,,,,,,80.54,LYBE 060630Z 10006KT 060V130 CAVOK 27/13 Q1013 NOSIG,
LYBE,2025-07-06 07:00,84.20,55.40,37.42,120.00,6.00,0.00,29.91,,6.21,,,,,,,,,,,,,,,,,83.10,LYBE 060700Z 12006KT 060V160 CAVOK 29/13 Q1013 NOSIG,
LYBE,2025-07-06 07:30,86.00,53.60,33.08,,3.00,0.00,29.91,,6.21,,,,,,,,,,,,,,,,,84.19,LYBE 060730Z VRB03KT CAVOK 30/12 Q1013 NOSIG,
LYBE,2025-07-06 08:00,87.80,55.40,33.37,140.00,5.00,0.00,29.91,,6.21,,,,,,,,,,,,,,,,,86.13,LYBE 060800Z 14005KT 090V180 CAVOK 31/13 Q1013 NOSIG,
LYBE,2025-07-06 08:30,89.60,55.40,31.53,140.00,5.00,0.00,29.91,,6.21,,,,,,,,,,,,,,,,,87.80,LYBE 060830Z 14005KT 080V180 CAVOK 32/13 Q1013 NOSIG,
LYBE,2025-07-06 09:00,89.60,57.20,33.65,,5.00,0.00,29.88,,6.21,,,,,,,,,,,,,,,,,88.30,LYBE 060900Z VRB05KT CAVOK 32/14 Q1012 NOSIG,
LYBE,2025-07-06 09:30,91.40,57.20,31.81,,4.00,0.00,29.88,,6.21,,,,,,,,,,,,,,,,,90.08,LYBE 060930Z VRB04KT CAVOK 33/14 Q1012 NOSIG,
LYBE,2025-07-06 10:00,91.40,57.20,31.81,,3.00,0.00,29.88,,6.21,,,,,,,,,,,,,,,,,90.08,LYBE 061000Z VRB03KT CAVOK 33/14 Q1012 NOSIG,
LYBE,2025-07-06 10:30,93.20,57.20,30.08,250.00,7.00,0.00,29.88,,6.21,,,,,,,,,,,,,,,,,91.94,LYBE 061030Z 25007KT 200V300 CAVOK 34/14 Q1012 NOSIG,
LYBE,2025-07-06 11:00,95.00,57.20,28.46,,4.00,0.00,29.85,,6.21,,,,,,,,,,,,,,,,,93.85,LYBE 061100Z VRB04KT CAVOK 35/14 Q1011 NOSIG,
LYBE,2025-07-06 11:30,95.00,57.20,28.46,270.00,7.00,0.00,29.85,,6.21,,,,,,,,,,,,,,,,,93.85,LYBE 061130Z 27007KT 230V320 CAVOK 35/14 Q1011 NOSIG,
LYBE,2025-07-06 12:00,95.00,57.20,28.46,260.00,5.00,0.00,29.85,,6.21,,,,,,,,,,,,,,,,,93.85,LYBE 061200Z 26005KT 160V320 CAVOK 35/14 Q1011 NOSIG,
LYBE,2025-07-06 12:30,95.00,57.20,28.46,,4.00,0.00,29.83,,6.21,,,,,,,,,,,,,,,,,93.85,LYBE 061230Z VRB04KT CAVOK 35/14 Q1010 NOSIG,
LYBE,2025-07-06 13:00,96.80,55.40,25.24,,6.00,0.00,29.83,,6.21,,,,,,,,,,,,,,,,,95.18,LYBE 061300Z VRB06KT CAVOK 36/13 Q1010 NOSIG,
LYBE,2025-07-06 13:30,96.80,57.20,26.94,,3.00,0.00,29.83,,6.21,,,,,,,,,,,,,,,,,95.81,LYBE 061330Z VRB03KT CAVOK 36/14 Q1010 NOSIG,
LYBE,2025-07-06 14:00,96.80,55.40,25.24,270.00,7.00,0.00,29.80,,6.21,20.00,,,,,,,,,,,,,,,,95.18,LYBE 061400Z 27007G20KT CAVOK 36/13 Q1009 NOSIG,
LYBE,2025-07-06 14:30,96.80,55.40,25.24,,3.00,0.00,29.80,,6.21,,,,,,,,,,,,,,,,,95.18,LYBE 061430Z VRB03KT CAVOK 36/13 Q1009 NOSIG,
LYBE,2025-07-06 15:00,96.80,57.20,26.94,300.00,6.00,0.00,29.80,,6.21,,,,,,,,,,,,,,,,,95.81,LYBE 061500Z 30006KT 260V340 CAVOK 36/14 Q1009 NOSIG,
LYBE,2025-07-06 15:30,96.80,55.40,25.24,310.00,5.00,0.00,29.77,,6.21,,,,,,,,,,,,,,,,,95.18,LYBE 061530Z 31005KT 240V040 CAVOK 36/13 Q1008 NOSIG,
LYBE,2025-07-06 16:00,96.80,55.40,25.24,260.00,4.00,0.00,29.77,,6.21,,,,,,,,,,,,,,,,,95.18,LYBE 061600Z 26004KT 180V320 CAVOK 36/13 Q1008 NOSIG,
LYBE,2025-07-06 16:30,96.80,55.40,25.24,320.00,4.00,0.00,29.77,,6.21,,,,,,,,,,,,,,,,,95.18,LYBE 061630Z 32004KT CAVOK 36/13 Q1008 NOSIG,
LYBE,2025-07-06 17:00,95.00,57.20,28.46,20.00,4.00,0.00,29.77,,6.21,,,,,,,,,,,,,,,,,93.85,LYBE 061700Z 02004KT 330V040 CAVOK 35/14 Q1008 NOSIG,
LYBE,2025-07-06 17:30,93.20,57.20,30.08,50.00,3.00,0.00,29.77,,6.21,,,,,,,,,,,,,,,,,91.94,LYBE 061730Z 05003KT 020V080 CAVOK 34/14 Q1008 NOSIG,
LYBE,2025-07-06 18:00,91.40,59.00,33.93,40.00,4.00,0.00,29.74,,6.21,,,,,,,,,,,,,,,,,90.71,LYBE 061800Z 04004KT CAVOK 33/15 Q1007 NOSIG,
LYBE,2025-07-06 18:30,87.80,59.00,37.99,90.00,3.00,0.00,29.77,,6.21,,,,,,,,,,,,,,,,,87.14,LYBE 061830Z 09003KT CAVOK 31/15 Q1008 NOSIG,
LYBE,2025-07-06 19:00,84.20,60.80,45.42,100.00,4.00,0.00,29.77,,6.21,,,,,,,,,,,,,,,,,84.45,LYBE 061900Z 10004KT CAVOK 29/16 Q1008 NOSIG,
LYBE,2025-07-06 19:30,84.20,59.00,42.60,90.00,4.00,0.00,29.77,,6.21,,,,,,,,,,,,,,,,,83.93,LYBE 061930Z 09004KT CAVOK 29/15 Q1008 NOSIG,
LYBE,2025-07-06 20:00,84.20,59.00,42.60,140.00,3.00,0.00,29.77,,6.21,,,,,,,,,,,,,,,,,83.93,LYBE 062000Z 14003KT CAVOK 29/15 Q1008 NOSIG,
LYBE,2025-07-06 20:30,82.40,59.00,45.14,,1.00,0.00,29.77,,6.21,,,,,,,,,,,,,,,,,82.47,LYBE 062030Z VRB01KT CAVOK 28/15 Q1008 TEMPO 22015G25KT 3000 TSRA SCT040CB,
LYBE,2025-07-06 21:00,86.00,59.00,40.22,160.00,8.00,0.00,29.77,,6.21,,,,,,,,,,,,,,,,,85.49,LYBE 062100Z 16008KT CAVOK 30/15 Q1008 RETS TEMPO 22015G25KT 3000 TSRA SCT040CB,
LYBE,2025-07-06 21:30,84.20,59.00,42.60,,1.00,0.00,29.74,,6.21,,,,,,,,,,,,,,,,,83.93,LYBE 062130Z VRB01KT CAVOK 29/15 Q1007 NOSIG,
LYBE,2025-07-06 22:00,80.60,60.80,51.02,170.00,3.00,0.00,29.74,,6.21,,,,,,,,,,,,,,,,,81.46,LYBE 062200Z 17003KT CAVOK 27/16 Q1007 NOSIG,
LYBE,2025-07-06 22:30,84.20,59.00,42.60,170.00,4.00,0.00,29.74,,6.21,,,,,,,,,,,,,,,,,83.93,LYBE 062230Z 17004KT 140V200 CAVOK 29/15 Q1007 NOSIG,
LYBE,2025-07-06 23:00,82.40,59.00,45.14,200.00,6.00,0.00,29.74,,6.21,,,,,,,,,,,,,,,,,82.47,LYBE 062300Z 20006KT CAVOK 28/15 Q1007 NOSIG,
LYBE,2025-07-06 23:30,77.00,60.80,57.42,110.00,4.00,0.00,29.74,,6.21,,,,,,,,,,,,,,,,,77.00,LYBE 062330Z 11004KT CAVOK 25/16 Q1007 NOSIG,
LYBE,2025-07-07 00:00,77.00,60.80,57.42,140.00,4.00,0.00,29.74,,6.21,,,,,,,,,,,,,,,,,77.00,LYBE 070000Z 14004KT CAVOK 25/16 Q1007 NOSIG,
LYBE,2025-07-07 00:30,78.80,59.00,50.76,150.00,4.00,0.00,29.74,,6.21,,,,,,,,,,,,,,,,,78.80,LYBE 070030Z 15004KT 120V200 CAVOK 26/15 Q1007 NOSIG,
LYBE,2025-07-07 01:00,75.20,59.00,57.17,130.00,4.00,0.00,29.74,,6.21,,,,,,,,,,,,,,,,,75.20,LYBE 070100Z 13004KT CAVOK 24/15 Q1007 NOSIG,
LYBE,2025-07-07 01:30,77.00,59.00,53.86,190.00,5.00,0.00,29.71,,6.21,,,,,,,,,,,,,,,,,77.00,LYBE 070130Z 19005KT CAVOK 25/15 Q1006 NOSIG,
LYBE,2025-07-07 02:00,78.80,59.00,50.76,190.00,6.00,0.00,29.71,,6.21,,,,,,,,,,,,,,,,,78.80,LYBE 070200Z 19006KT CAVOK 26/15 Q1006 NOSIG,
LYBE,2025-07-07 02:30,78.80,59.00,50.76,200.00,5.00,0.00,29.71,,6.21,,,,,,,,,,,,,,,,,78.80,LYBE 070230Z 20005KT CAVOK 26/15 Q1006 NOSIG,
LYBE,2025-07-07 03:00,71.60,59.00,64.52,260.00,4.00,0.00,29.74,,6.21,,,,,,,,,,,,,,,,,71.60,LYBE 070300Z 26004KT CAVOK 22/15 Q1007 NOSIG,
LYBE,2025-07-07 03:30,78.80,57.20,47.58,220.00,7.00,0.00,29.71,,6.21,,,,,,,,,,,,,,,,,78.80,LYBE 070330Z 22007KT CAVOK 26/14 Q1006 NOSIG,
LYBE,2025-07-07 04:00,73.40,60.80,64.74,150.00,5.00,0.00,29.71,,6.21,,,,,,,,,,,,,,,,,73.40,LYBE 070400Z 15005KT CAVOK 23/16 Q1006 NOSIG,
LYBE,2025-07-07 04:30,78.80,60.80,54.11,170.00,6.00,0.00,29.71,,6.21,,,,,,,,,,,,,,,,,78.80,LYBE 070430Z 17006KT CAVOK 26/16 Q1006 NOSIG,
LYBE,2025-07-07 05:00,80.60,59.00,47.85,180.00,7.00,0.00,29.71,,6.21,,,,,,,,,,,,,,,,,81.12,LYBE 070500Z 18007KT CAVOK 27/15 Q1006 NOSIG,
LYBE,2025-07-07 05:30,82.40,59.00,45.14,180.00,7.00,0.00,29.71,,6.21,,,,,,,,,,,,,,,,,82.47,LYBE 070530Z 18007KT CAVOK 28/15 Q1006 NOSIG,
LYBE,2025-07-07 06:00,84.20,59.00,42.60,180.00,9.00,0.00,29.71,,6.21,,,,,,,,,,,,,,,,,83.93,LYBE 070600Z 18009KT CAVOK 29/15 Q1006 NOSIG,
LYBE,2025-07-07 06:30,86.00,60.80,42.88,190.00,8.00,0.00,29.71,,6.21,,FEW,,,,4600.00,,,,,,,,,,,86.07,COR LYBE 070630Z 19008KT 9999 FEW046TCU 30/16 Q1006 TEMPO 26020G30KT 5000 TSRA SCT040CB SCT046,
LYBE,2025-07-07 07:00,86.00,60.80,42.88,180.00,7.00,0.00,29.71,,6.21,,FEW,,,,4600.00,,,,,,,,,,,86.07,LYBE 070700Z 18007KT 140V220 9999 FEW046 30/16 Q1006 TEMPO 26020G30KT 5000 TSRA SCT040CB SCT046,
LYBE,2025-07-07 07:30,84.20,60.80,45.42,140.00,11.00,0.00,29.71,,6.21,,FEW,,,,4000.00,,,,,,,,,,,84.45,LYBE 070730Z 14011KT 9999 FEW040TCU 29/16 Q1006 TEMPO 24020G30KT 5000 TSRA SCT040CB SCT046,
LYBE,2025-07-07 08:00,84.20,60.80,45.42,160.00,7.00,0.00,29.71,,6.21,,FEW,,,,4600.00,,,,,,,,,,,84.45,LYBE 070800Z 16007KT 9999 FEW046 29/16 Q1006 NOSIG,
LYBE,2025-07-07 08:30,87.80,64.40,45.97,120.00,5.00,0.00,29.68,,6.21,,,,,,,,,,,,,,,,,89.36,LYBE 070830Z 12005KT 070V160 CAVOK 31/18 Q1005 NOSIG,
LYBE,2025-07-07 09:00,93.20,60.80,34.21,150.00,8.00,0.00,29.68,,6.21,,,,,,,,,,,,,,,,,93.36,LYBE 070900Z 15008KT 110V190 CAVOK 34/16 Q1005 NOSIG,
LYBE,2025-07-07 09:30,96.80,57.20,26.94,170.00,11.00,0.00,29.65,,6.21,,,,,,,,,,,,,,,,,95.81,LYBE 070930Z 17011KT 140V200 CAVOK 36/14 Q1004 NOSIG,
LYBE,2025-07-07 10:00,96.80,55.40,25.24,170.00,11.00,0.00,29.65,,6.21,,,,,,,,,,,,,,,,,95.18,LYBE 071000Z 17011KT CAVOK 36/13 Q1004 NOSIG,
LYBE,2025-07-07 10:30,96.80,55.40,25.24,160.00,11.00,0.00,29.62,,6.21,,,,,,,,,,,,,,,,,95.18,LYBE 071030Z 16011KT 120V180 CAVOK 36/13 Q1003 NOSIG,
LYBE,2025-07-07 11:00,98.60,55.40,23.90,170.00,12.00,0.00,29.62,,6.21,,,,,,,,,,,,,,,,,97.13,LYBE 071100Z 17012KT 140V210 CAVOK 37/13 Q1003 NOSIG,
LYBE,2025-07-07 11:30,100.40,53.60,21.20,190.00,14.00,0.00,29.62,,6.21,,FEW,SCT,,,4000.00,4600.00,,,,,,,,,,98.48,LYBE 071130Z 19014KT 160V220 9999 FEW040TCU SCT046 38/12 Q1003 NOSIG,
LYBE,2025-07-07 12:00,96.80,53.60,23.64,220.00,12.00,0.00,29.59,,6.21,,FEW,SCT,,,4000.00,4600.00,,,TS,,,,,,,94.62,COR LYBE 071200Z 22012KT 9999 TS FEW040CB SCT046 36/12 Q1002 TEMPO 22020G30KT 5000 TSRA SCT040CB SCT045,
LYBE,2025-07-07 12:30,89.60,59.00,35.89,280.00,5.00,0.00,29.62,,6.21,,FEW,SCT,,,4000.00,4600.00,,,TS,,,,,,,88.88,COR LYBE 071230Z 28005KT 230V320 9999 TS FEW040CB SCT046 32/15 Q1003 RERA TEMPO 28020G30KT 5000 TSRA SCT040CB SCT046,
LYBE,2025-07-07 13:00,91.40,60.80,36.18,260.00,18.00,0.00,29.62,,6.21,,FEW,,,,4000.00,,,,,,,,,,,91.43,LYBE 071300Z 26018KT 9999 FEW040TCU 33/16 Q1003 RETSRA BECMG SCT045,
LYBE,2025-07-07 13:30,82.40,60.80,48.13,300.00,34.00,0.00,29.68,,6.21,45.00,FEW,,,,4000.00,,,,,,,,,,,82.91,LYBE 071330Z 30034G45KT 9999 FEW040 28/16 Q1005 WS ALL RWY NOSIG,
LYBE,2025-07-07 14:00,82.40,59.00,45.14,290.00,23.00,0.00,29.71,,6.21,34.00,,,,,,,,,,,,,,,,82.47,LYBE 071400Z 29023G34KT CAVOK 28/15 Q1006 NOSIG,
LYBE,2025-07-07 14:30,80.60,55.40,42.03,300.00,22.00,0.00,29.71,,6.21,,,,,,,,,,,,,,,,,80.54,LYBE 071430Z 30022KT CAVOK 27/13 Q1006 NOSIG,
LYBE,2025-07-07 15:00,82.40,55.40,39.65,290.00,19.00,0.00,29.71,,6.21,,,,,,,,,,,,,,,,,81.75,LYBE 071500Z 29019KT CAVOK 28/13 Q1006 NOSIG,
LYBE,2025-07-07 15:30,84.20,55.40,37.42,290.00,13.00,0.00,29.71,,6.21,,,,,,,,,,,,,,,,,83.10,LYBE 071530Z 29013KT CAVOK 29/13 Q1006 NOSIG,
LYBE,2025-07-07 16:00,80.60,57.20,44.86,280.00,17.00,0.00,29.74,,6.21,27.00,,,,,,,,,,,,,,,,80.81,LYBE 071600Z 28017G27KT CAVOK 27/14 Q1007 NOSIG,
LYBE,2025-07-07 16:30,75.20,57.20,53.60,300.00,11.00,0.00,29.71,,6.21,,FEW,SCT,,,4000.00,4600.00,,,TSRA,,,,,,,75.20,LYBE 071630Z 30011KT 260V320 9999 TSRA FEW040CB SCT046 24/14 Q1006 NOSIG,
LYBE,2025-07-07 17:00,75.20,62.60,64.96,,4.00,0.00,29.74,,6.21,,FEW,,,,4000.00,,,,TS,,,,,,,75.20,LYBE 071700Z VRB04KT 9999 TS FEW040CB 24/17 Q1007 RERA BECMG NSW SCT045,
LYBE,2025-07-07 17:30,73.40,64.40,73.48,360.00,4.00,0.00,29.71,,6.21,,SCT,,,,4500.00,,,,,,,,,,,73.40,LYBE 071730Z 36004KT 320V030 9999 SCT045 23/18 Q1006 RETS NOSIG,
LYBE,2025-07-07 18:00,73.40,64.40,73.48,90.00,3.00,0.00,29.74,,6.21,,FEW,,,,4500.00,,,,,,,,,,,73.40,LYBE 071800Z 09003KT 040V120 9999 FEW045 23/18 Q1007 NOSIG,
LYBE,2025-07-07 18:30,71.60,62.60,73.30,90.00,3.00,0.00,29.74,,6.21,,,,,,,,,,,,,,,,,71.60,LYBE 071830Z 09003KT 040V120 CAVOK 22/17 Q1007 NOSIG,
LYBE,2025-07-07 19:00,68.00,62.60,82.88,110.00,6.00,0.00,29.74,,6.21,,,,,,,,,,,,,,,,,68.00,LYBE 071900Z 11006KT CAVOK 20/17 Q1007 NOSIG,
LYBE,2025-07-07 19:30,71.60,62.60,73.30,160.00,3.00,0.00,29.74,,6.21,,,,,,,,,,,,,,,,,71.60,LYBE 071930Z 16003KT CAVOK 22/17 Q1007 NOSIG,
LYBE,2025-07-07 20:00,71.60,62.60,73.30,140.00,5.00,0.00,29.74,,6.21,,,,,,,,,,,,,,,,,71.60,LYBE 072000Z 14005KT CAVOK 22/17 Q1007 NOSIG,
LYBE,2025-07-07 20:30,71.60,60.80,68.79,170.00,5.00,0.00,29.74,,6.21,,,,,,,,,,,,,,,,,71.60,LYBE 072030Z 17005KT CAVOK 22/16 Q1007 NOSIG,
LYBE,2025-07-07 21:00,71.60,59.00,64.52,170.00,5.00,0.00,29.74,,6.21,,,,,,,,,,,,,,,,,71.60,LYBE 072100Z 17005KT CAVOK 22/15 Q1007 NOSIG,
LYBE,2025-07-07 21:30,69.80,60.80,73.13,150.00,3.00,0.00,29.74,,6.21,,,,,,,,,,,,,,,,,69.80,LYBE 072130Z 15003KT CAVOK 21/16 Q1007 NOSIG,
LYBE,2025-07-07 22:00,68.00,60.80,77.77,40.00,5.00,0.00,29.74,,6.21,,,,,,,,,,,,,,,,,68.00,LYBE 072200Z 04005KT 010V070 CAVOK 20/16 Q1007 NOSIG,
LYBE,2025-07-07 22:30,66.20,60.80,82.76,70.00,3.00,0.00,29.74,,6.21,,,,,,,,,,,,,,,,,66.20,LYBE 072230Z 07003KT CAVOK 19/16 Q1007 NOSIG,
LYBE,2025-07-07 23:00,68.00,62.60,82.88,30.00,4.00,0.00,29.74,,6.21,,,,,,,,,,,,,,,,,68.00,LYBE 072300Z 03004KT CAVOK 20/17 Q1007 NOSIG,
LYBE,2025-07-07 23:30,68.00,62.60,82.88,30.00,4.00,0.00,29.74,,6.21,,,,,,,,,,,,,,,,,68.00,LYBE 072330Z 03004KT 010V070 CAVOK 20/17 Q1007 NOSIG,
LYBE,2025-07-08 00:00,68.00,62.60,82.88,60.00,3.00,0.00,29.71,,6.21,,,,,,,,,,,,,,,,,68.00,LYBE 080000Z 06003KT CAVOK 20/17 Q1006 NOSIG,
LYBE,2025-07-08 00:30,66.20,60.80,82.76,60.00,3.00,0.00,29.71,,6.21,,,,,,,,,,,,,,,,,66.20,LYBE 080030Z 06003KT CAVOK 19/16 Q1006 NOSIG,
LYBE,2025-07-08 01:00,68.00,60.80,77.77,60.00,4.00,0.00,29.71,,6.21,,,,,,,,,,,,,,,,,68.00,LYBE 080100Z 06004KT CAVOK 20/16 Q1006 NOSIG,
LYBE,2025-07-08 01:30,66.20,60.80,82.76,110.00,5.00,0.00,29.71,,6.21,,,,,,,,,,,,,,,,,66.20,LYBE 080130Z 11005KT CAVOK 19/16 Q1006 NOSIG,
LYBE,2025-07-08 02:00,64.40,60.80,88.10,100.00,4.00,0.00,29.71,,6.21,,,,,,,,,,,,,,,,,64.40,LYBE 080200Z 10004KT CAVOK 18/16 Q1006 NOSIG,
LYBE,2025-07-08 02:30,66.20,60.80,82.76,,2.00,0.00,29.68,,6.21,,,,,,,,,,,,,,,,,66.20,LYBE 080230Z VRB02KT CAVOK 19/16 Q1005 NOSIG,
LYBE,2025-07-08 03:00,64.40,60.80,88.10,,1.00,0.00,29.68,,6.21,,,,,,,,,,,,,,,,,64.40,LYBE 080300Z VRB01KT CAVOK 18/16 Q1005 NOSIG,
LYBE,2025-07-08 03:30,64.40,60.80,88.10,90.00,4.00,0.00,29.68,,6.21,,,,,,,,,,,,,,,,,64.40,LYBE 080330Z 09004KT CAVOK 18/16 Q1005 NOSIG,
LYBE,2025-07-08 04:00,66.20,60.80,82.76,120.00,5.00,0.00,29.68,,6.21,,FEW,,,,4000.00,,,,,,,,,,,66.20,LYBE 080400Z 12005KT 9999 FEW040 19/16 Q1005 NOSIG,
LYBE,2025-07-08 04:30,71.60,60.80,68.79,110.00,5.00,0.00,29.65,,6.21,,FEW,,,,4000.00,,,,,,,,,,,71.60,LYBE 080430Z 11005KT 9999 FEW040 22/16 Q1004 NOSIG,
LYBE,2025-07-08 05:00,73.40,60.80,64.74,120.00,5.00,0.00,29.65,,6.21,,,,,,,,,,,,,,,,,73.40,LYBE 080500Z 12005KT CAVOK 23/16 Q1004 NOSIG,
LYBE,2025-07-08 05:30,77.00,59.00,53.86,120.00,6.00,0.00,29.65,,6.21,,,,,,,,,,,,,,,,,77.00,LYBE 080530Z 12006KT CAVOK 25/15 Q1004 NOSIG,
LYBE,2025-07-08 06:00,78.80,59.00,50.76,130.00,8.00,0.00,29.65,,6.21,,,,,,,,,,,,,,,,,78.80,LYBE 080600Z 13008KT CAVOK 26/15 Q1004 NOSIG,
LYBE,2025-07-08 06:30,80.60,59.00,47.85,140.00,11.00,0.00,29.62,,6.21,,,,,,,,,,,,,,,,,81.12,LYBE 080630Z 14011KT CAVOK 27/15 Q1003 NOSIG,
LYBE,2025-07-08 07:00,84.20,59.00,42.60,150.00,9.00,0.00,29.62,,6.21,,,,,,,,,,,,,,,,,83.93,LYBE 080700Z 15009KT 130V190 CAVOK 29/15 Q1003 NOSIG,
LYBE,2025-07-08 07:30,87.80,59.00,37.99,160.00,10.00,0.00,29.62,,6.21,,,,,,,,,,,,,,,,,87.14,LYBE 080730Z 16010KT 140V220 CAVOK 31/15 Q1003 NOSIG,
LYBE,2025-07-08 08:00,87.80,57.20,35.61,190.00,15.00,0.00,29.62,,6.21,,,,,,,,,,,,,,,,,86.59,LYBE 080800Z 19015KT CAVOK 31/14 Q1003 NOSIG,
LYBE,2025-07-08 08:30,89.60,59.00,35.89,200.00,13.00,0.00,29.59,,6.21,,,,,,,,,,,,,,,,,88.88,LYBE 080830Z 20013KT CAVOK 32/15 Q1002 NOSIG,
LYBE,2025-07-08 09:00,89.60,57.20,33.65,200.00,11.00,0.00,29.59,,6.21,,,,,,,,,,,,,,,,,88.30,LYBE 080900Z 20011KT 170V240 CAVOK 32/14 Q1002 NOSIG,
LYBE,2025-07-08 09:30,91.40,55.40,29.80,210.00,12.00,0.00,29.59,,6.21,,,,,,,,,,,,,,,,,89.55,LYBE 080930Z 21012KT 160V290 CAVOK 33/13 Q1002 NOSIG,
LYBE,2025-07-08 10:00,91.40,55.40,29.80,210.00,9.00,0.00,29.59,,6.21,,,,,,,,,,,,,,,,,89.55,LYBE 081000Z 21009KT 180V250 CAVOK 33/13 Q1002 NOSIG,
LYBE,2025-07-08 10:30,93.20,55.40,28.19,200.00,10.00,0.00,29.56,,6.21,,,,,,,,,,,,,,,,,91.37,LYBE 081030Z 20010KT 150V250 CAVOK 34/13 Q1001 TEMPO FM1130 27025G45KT 3000 TSRA SCT040CB SCT045,
LYBE,2025-07-08 11:00,93.20,55.40,28.19,210.00,9.00,0.00,29.53,,6.21,,FEW,SCT,,,3000.00,4000.00,,,,,,,,,,91.37,LYBE 081100Z 21009KT 170V250 9999 FEW030 SCT040TCU 34/13 Q1000 TEMPO 27025G45KT 3000 TSRA SCT040CB SCT045,
LYBE,2025-07-08 11:30,66.20,62.60,88.19,290.00,33.00,0.00,29.65,,3.11,43.00,SCT,BKN,,,1300.00,4000.00,,,TSRA,,,,,,,66.20,LYBE 081130Z 29033G43KT 5000 TSRA SCT013 BKN040CB 19/17 Q1004 RESHRA NOSIG,
LYBE,2025-07-08 12:00,66.20,64.40,93.93,320.00,19.00,0.00,29.65,,6.21,,FEW,SCT,,,1300.00,4000.00,,,-SHRA,,,,,,,66.20,LYBE 081200Z 32019KT 9999 -SHRA FEW013 SCT040TCU 19/18 Q1004 RETSRA NOSIG,
LYBE,2025-07-08 12:30,66.20,64.40,93.93,280.00,7.00,0.00,29.68,,1.86,,SCT,SCT,,,4000.00,4500.00,,,SHRA,,,,,,,66.20,LYBE 081230Z 28007KT 240V300 3000 SHRA SCT040TCU SCT045 19/18 Q1005 NOSIG,
LYBE,2025-07-08 13:00,68.00,64.40,88.28,320.00,4.00,0.00,29.68,,6.21,,FEW,SCT,,,4000.00,4500.00,,,,,,,,,,68.00,LYBE 081300Z 32004KT 290V350 9999 FEW040 SCT045 20/18 Q1005 RESHRA NOSIG,
LYBE,2025-07-08 13:30,71.60,66.20,83.12,,4.00,0.00,29.65,,6.21,,SCT,,,,4000.00,,,,,,,,,,,71.60,LYBE 081330Z VRB04KT 9999 SCT040 22/19 Q1004 NOSIG,
LYBE,2025-07-08 14:00,71.60,62.60,73.30,,3.00,0.00,29.65,,6.21,,SCT,,,,4500.00,,,,,,,,,,,71.60,LYBE 081400Z VRB03KT 9999 SCT045 22/17 Q1004 NOSIG,
LYBE,2025-07-08 14:30,75.20,62.60,64.96,,3.00,0.00,29.62,,6.21,,FEW,,,,4500.00,,,,,,,,,,,75.20,LYBE 081430Z VRB03KT 9999 FEW045 24/17 Q1003 NOSIG,
LYBE,2025-07-08 15:00,77.00,60.80,57.42,220.00,6.00,0.00,29.65,,6.21,,,,,,,,,,,,,,,,,77.00,LYBE 081500Z 22006KT 160V280 CAVOK 25/16 Q1004 NOSIG,
LYBE,2025-07-08 15:30,77.00,60.80,57.42,200.00,8.00,0.00,29.65,,6.21,,SCT,,,,4500.00,,,,,,,,,,,77.00,LYBE 081530Z 20008KT 170V230 9999 SCT045TCU 25/16 Q1004 NOSIG,
LYBE,2025-07-08 16:00,75.20,62.60,64.96,150.00,10.00,0.00,29.65,,6.21,,,,,,,,,,,,,,,,,75.20,LYBE 081600Z 15010KT CAVOK 24/17 Q1004 NOSIG,
LYBE,2025-07-08 16:30,75.20,62.60,64.96,140.00,6.00,0.00,29.62,,6.21,,,,,,,,,,,,,,,,,75.20,LYBE 081630Z 14006KT 090V180 CAVOK 24/17 Q1003 NOSIG,
LYBE,2025-07-08 17:00,75.20,60.80,60.96,150.00,8.00,0.00,29.62,,6.21,,,,,,,,,,,,,,,,,75.20,LYBE 081700Z 15008KT CAVOK 24/16 Q1003 NOSIG,
LYBE,2025-07-08 17:30,75.20,62.60,64.96,300.00,14.00,0.00,29.65,,6.21,,SCT,SCT,,,4000.00,4500.00,,,,,,,,,,75.20,LYBE 081730Z 30014KT 9999 SCT040TCU SCT045 24/17 Q1004 TEMPO 32025G35KT 3000 TSRA SCT015 BKN030CB BKN035,
LYBE,2025-07-08 18:00,71.60,64.40,78.08,290.00,8.00,0.00,29.68,,6.21,,FEW,SCT,,,4000.00,4500.00,,,,,,,,,,71.60,LYBE 081800Z 29008KT 9999 FEW040TCU SCT045 22/18 Q1005 TEMPO 32025G35KT 3000 TSRA SCT015 BKN030CB BKN035,
LYBE,2025-07-08 18:30,69.80,66.20,88.36,350.00,6.00,0.00,29.71,,6.21,,FEW,,,,4000.00,,,,,,,,,,,69.80,LYBE 081830Z 35006KT 320V020 9999 FEW040TCU 21/19 Q1006 NOSIG,
LYBE,2025-07-08 19:00,68.00,64.40,88.28,330.00,5.00,0.00,29.71,,6.21,,,,,,,,,,,,,,,,,68.00,LYBE 081900Z 33005KT CAVOK 20/18 Q1006 NOSIG,
LYBE,2025-07-08 19:30,68.00,64.40,88.28,290.00,10.00,0.00,29.74,,6.21,,,,,,,,,,,,,,,,,68.00,LYBE 081930Z 29010KT CAVOK 20/18 Q1007 NOSIG,
LYBE,2025-07-08 20:00,64.40,62.60,93.89,260.00,11.00,0.00,29.74,,6.21,,,,,,,,,,,,,,,,,64.40,LYBE 082000Z 26011KT CAVOK 18/17 Q1007 NOSIG,
LYBE,2025-07-08 20:30,64.40,62.60,93.89,270.00,11.00,0.00,29.77,,6.21,,BKN,,,,700.00,,,,,,,,,,,64.40,LYBE 082030Z 27011KT 9999 BKN007 18/17 Q1008 NOSIG,
LYBE,2025-07-08 21:00,64.40,62.60,93.89,280.00,11.00,0.00,29.77,,6.21,,BKN,,,,800.00,,,,,,,,,,,64.40,LYBE 082100Z 28011KT 9999 BKN008 18/17 Q1008 NOSIG,
LYBE,2025-07-08 21:30,64.40,62.60,93.89,280.00,12.00,0.00,29.77,,6.21,,SCT,SCT,,,800.00,1500.00,,,,,,,,,,64.40,LYBE 082130Z 28012KT 9999 SCT008 SCT015 18/17 Q1008 NOSIG,
LYBE,2025-07-08 22:00,64.40,60.80,88.10,270.00,11.00,0.00,29.77,,6.21,,BKN,,,,1500.00,,,,,,,,,,,64.40,LYBE 082200Z 27011KT 9999 BKN015 18/16 Q1008 NOSIG,
LYBE,2025-07-08 22:30,64.40,60.80,88.10,270.00,10.00,0.00,29.80,,6.21,,BKN,,,,1300.00,,,,,,,,,,,64.40,LYBE 082230Z 27010KT 9999 BKN013 18/16 Q1009 NOSIG,
LYBE,2025-07-08 23:00,64.40,60.80,88.10,290.00,9.00,0.00,29.80,,6.21,,SCT,SCT,,,800.00,1500.00,,,,,,,,,,64.40,LYBE 082300Z 29009KT 9999 SCT008 SCT015 18/16 Q1009 NOSIG,
LYBE,2025-07-08 23:30,64.40,60.80,88.10,280.00,7.00,0.00,29.80,,6.21,,SCT,SCT,,,1000.00,1700.00,,,,,,,,,,64.40,LYBE 082330Z 28007KT 9999 SCT010 SCT017 18/16 Q1009 NOSIG,
LYBE,2025-07-09 00:00,62.60,60.80,93.84,280.00,12.00,0.00,29.80,,6.21,,BKN,,,,1500.00,,,,,,,,,,,62.60,LYBE 090000Z 28012KT 9999 BKN015 17/16 Q1009 NOSIG,
LYBE,2025-07-09 00:30,62.60,59.00,88.01,300.00,11.00,0.00,29.80,,6.21,,SCT,,,,2000.00,,,,,,,,,,,62.60,LYBE 090030Z 30011KT 9999 SCT020 17/15 Q1009 NOSIG,
LYBE,2025-07-09 01:00,62.60,59.00,88.01,290.00,10.00,0.00,29.77,,6.21,,SCT,,,,2000.00,,,,,,,,,,,62.60,LYBE 090100Z 29010KT 9999 SCT020 17/15 Q1008 NOSIG,
LYBE,2025-07-09 01:30,60.80,57.20,87.93,300.00,10.00,0.00,29.77,,6.21,,SCT,,,,2000.00,,,,,,,,,,,60.80,LYBE 090130Z 30010KT 9999 SCT020 16/14 Q1008 NOSIG,
LYBE,2025-07-09 02:00,60.80,59.00,93.79,300.00,9.00,0.00,29.77,,6.21,,BKN,,,,1800.00,,,,,,,,,,,60.80,LYBE 090200Z 30009KT 9999 BKN018 16/15 Q1008 NOSIG,
LYBE,2025-07-09 02:30,60.80,57.20,87.93,280.00,9.00,0.00,29.80,,6.21,,BKN,,,,1800.00,,,,,,,,,,,60.80,LYBE 090230Z 28009KT 9999 BKN018 16/14 Q1009 TEMPO 22020KT 5000 TSRA SCT030CB BKN045,
LYBE,2025-07-09 03:00,59.00,57.20,93.74,270.00,12.00,0.00,29.80,,6.21,,BKN,,,,1500.00,,,,RA,,,,,,,59.00,LYBE 090300Z 27012KT 9999 RA BKN015 15/14 Q1009 NOSIG,
LYBE,2025-07-09 03:30,59.00,57.20,93.74,280.00,12.00,0.00,29.80,,6.21,,SCT,BKN,,,1000.00,3000.00,,,RA,,,,,,,59.00,LYBE 090330Z 28012KT 9999 RA SCT010 BKN030 15/14 Q1009 NOSIG,
LYBE,2025-07-09 04:00,59.00,57.20,93.74,320.00,11.00,0.00,29.80,,6.21,,SCT,BKN,,,1700.00,3000.00,,,-RA,,,,,,,59.00,LYBE 090400Z 32011KT 9999 -RA SCT017 BKN030 15/14 Q1009 RERA NOSIG,
LYBE,2025-07-09 04:30,59.00,57.20,93.74,320.00,8.00,0.00,29.80,,6.21,,SCT,BKN,,,800.00,1700.00,,,-RA,,,,,,,59.00,LYBE 090430Z 32008KT 9999 -RA SCT008 BKN017 15/14 Q1009 NOSIG,
LYBE,2025-07-09 05:00,59.00,57.20,93.74,330.00,8.00,0.00,29.80,,4.35,,BKN,BKN,,,700.00,1700.00,,,RA,,,,,,,59.00,LYBE 090500Z 33008KT 7000 RA BKN007 BKN017 15/14 Q1009 NOSIG,
LYBE,2025-07-09 05:30,59.00,57.20,93.74,300.00,8.00,0.00,29.83,,4.97,,BKN,BKN,,,700.00,1700.00,,,-RA,,,,,,,59.00,LYBE 090530Z 30008KT 8000 -RA BKN007 BKN017 15/14 Q1010 RERA NOSIG,
LYBE,2025-07-09 06:00,57.20,57.20,100.00,300.00,9.00,0.00,29.83,,4.97,,BKN,BKN,,,700.00,2300.00,,,-RA,,,,,,,57.20,LYBE 090600Z 30009KT 8000 -RA BKN007 BKN023 14/14 Q1010 NOSIG,
LYBE,2025-07-09 06:30,57.20,55.40,93.70,270.00,11.00,0.00,29.83,,4.97,,BKN,BKN,,,500.00,1500.00,,,-RA,,,,,,,57.20,LYBE 090630Z 27011KT 8000 -RA BKN005 BKN015 14/13 Q1010 NOSIG,
LYBE,2025-07-09 07:00,57.20,55.40,93.70,280.00,12.00,0.00,29.85,,6.21,,BKN,BKN,,,600.00,2300.00,,,-RA,,,,,,,57.20,LYBE 090700Z 28012KT 9999 -RA BKN006 BKN023 14/13 Q1011 NOSIG,
LYBE,2025-07-09 07:30,57.20,55.40,93.70,270.00,12.00,0.00,29.85,,6.21,,BKN,BKN,,,700.00,2700.00,,,-RA,,,,,,,57.20,LYBE 090730Z 27012KT 9999 -RA BKN007 BKN027 14/13 Q1011 NOSIG,
LYBE,2025-07-09 08:00,57.20,55.40,93.70,270.00,15.00,0.00,29.85,,6.21,,BKN,BKN,,,800.00,2700.00,,,-RA,,,,,,,57.20,LYBE 090800Z 27015KT 9999 -RA BKN008 BKN027 14/13 Q1011 NOSIG,
LYBE,2025-07-09 08:30,57.20,55.40,93.70,270.00,14.00,0.00,29.85,,6.21,,BKN,BKN,,,800.00,2700.00,,,-RA,,,,,,,57.20,LYBE 090830Z 27014KT 9999 -RA BKN008 BKN027 14/13 Q1011 NOSIG,
LYBE,2025-07-09 09:00,57.20,55.40,93.70,260.00,15.00,0.00,29.88,,6.21,,BKN,BKN,,,800.00,2700.00,,,-RA,,,,,,,57.20,LYBE 090900Z 26015KT 9999 -RA BKN008 BKN027 14/13 Q1012 TEMPO 5000 RA,
LYBE,2025-07-09 09:30,59.00,55.40,87.84,260.00,16.00,0.00,29.88,,6.21,,BKN,BKN,,,800.00,2300.00,,,-RA,,,,,,,59.00,LYBE 090930Z 26016KT 9999 -RA BKN008 BKN023 15/13 Q1012 NOSIG,
LYBE,2025-07-09 10:00,59.00,57.20,93.74,270.00,17.00,0.00,29.88,,6.21,,BKN,BKN,,,800.00,2800.00,,,-RA,,,,,,,59.00,LYBE 091000Z 27017KT 9999 -RA BKN008 BKN028 15/14 Q1012 NOSIG,
LYBE,2025-07-09 10:30,59.00,55.40,87.84,270.00,17.00,0.00,29.88,,6.21,,BKN,BKN,,,1000.00,3000.00,,,,,,,,,,59.00,LYBE 091030Z 27017KT 9999 BKN010 BKN030 15/13 Q1012 NOSIG,
LYBE,2025-07-09 11:00,59.00,55.40,87.84,270.00,16.00,0.00,29.88,,6.21,,BKN,BKN,,,1000.00,2700.00,,,,,,,,,,59.00,LYBE 091100Z 27016KT 9999 BKN010 BKN027 15/13 Q1012 NOSIG,
LYBE,2025-07-09 11:30,59.00,55.40,87.84,270.00,18.00,0.00,29.88,,6.21,,BKN,BKN,,,1300.00,2700.00,,,,,,,,,,59.00,LYBE 091130Z 27018KT 9999 BKN013 BKN027 15/13 Q1012 NOSIG,
LYBE,2025-07-09 12:00,59.00,55.40,87.84,270.00,18.00,0.00,29.88,,6.21,,BKN,BKN,,,1000.00,2700.00,,,,,,,,,,59.00,LYBE 091200Z 27018KT 9999 BKN010 BKN027 15/13 Q1012 NOSIG,
LYBE,2025-07-09 12:30,59.00,57.20,93.74,270.00,17.00,0.00,29.88,,2.49,,BKN,OVC,,,700.00,1700.00,,,DZ,,,,,,,59.00,LYBE 091230Z 27017KT 4000 DZ BKN007 OVC017 15/14 Q1012 NOSIG,
LYBE,2025-07-09 13:00,59.00,57.20,93.74,270.00,17.00,0.00,29.91,,4.35,,BKN,BKN,,,700.00,1700.00,,,-RA,,,,,,,59.00,LYBE 091300Z 27017KT 7000 -RA BKN007 BKN017 15/14 Q1013 NOSIG,
LYBE,2025-07-09 13:30,59.00,57.20,93.74,270.00,17.00,0.00,29.91,,3.11,,BKN,BKN,,,700.00,1700.00,,,-RA BR,,,,,,,59.00,LYBE 091330Z 27017KT 5000 -RA BR BKN007 BKN017 15/14 Q1013 NOSIG,
LYBE,2025-07-09 14:00,59.00,57.20,93.74,270.00,16.00,0.00,29.91,,4.97,,BKN,BKN,,,1000.00,2300.00,,,-RA,,,,,,,59.00,LYBE 091400Z 27016KT 8000 -RA BKN010 BKN023 15/14 Q1013 NOSIG,
LYBE,2025-07-09 14:30,59.00,57.20,93.74,270.00,16.00,0.00,29.91,,6.21,,SCT,BKN,,,1200.00,2700.00,,,-RA,,,,,,,59.00,LYBE 091430Z 27016KT 9999 -RA SCT012 BKN027 15/14 Q1013 NOSIG,
LYBE,2025-07-09 15:00,59.00,55.40,87.84,270.00,18.00,0.00,29.91,,6.21,,SCT,BKN,,,1300.00,2700.00,,,-RA,,,,,,,59.00,LYBE 091500Z 27018KT 9999 -RA SCT013 BKN027 15/13 Q1013 NOSIG,
LYBE,2025-07-09 15:30,59.00,57.20,93.74,280.00,16.00,0.00,29.91,,6.21,,SCT,BKN,,,1300.00,2700.00,,,-RA,,,,,,,59.00,LYBE 091530Z 28016KT 9999 -RA SCT013 BKN027 15/14 Q1013 NOSIG,
LYBE,2025-07-09 16:00,59.00,57.20,93.74,270.00,16.00,0.00,29.91,,6.21,,SCT,BKN,,,1300.00,3000.00,,,,,,,,,,59.00,LYBE 091600Z 27016KT 9999 SCT013 BKN030 15/14 Q1013 NOSIG,
LYBE,2025-07-09 16:30,59.00,55.40,87.84,280.00,15.00,0.00,29.91,,6.21,,FEW,BKN,,,1300.00,2300.00,,,-RA,,,,,,,59.00,LYBE 091630Z 28015KT 9999 -RA FEW013 BKN023 15/13 Q1013 NOSIG,
LYBE,2025-07-09 17:00,59.00,55.40,87.84,280.00,16.00,0.00,29.91,,6.21,,FEW,BKN,,,1600.00,2300.00,,,-RA,,,,,,,59.00,LYBE 091700Z 28016KT 9999 -RA FEW016 BKN023 15/13 Q1013 NOSIG,
LYBE,2025-07-09 17:30,59.00,55.40,87.84,280.00,16.00,0.00,29.91,,6.21,,SCT,BKN,,,2700.00,3500.00,,,-RA,,,,,,,59.00,LYBE 091730Z 28016KT 9999 -RA SCT027 BKN035 15/13 Q1013 NOSIG,
LYBE,2025-07-09 18:00,59.00,55.40,87.84,290.00,11.00,0.00,29.91,,6.21,,SCT,BKN,,,2000.00,3000.00,,,-RA,,,,,,,59.00,LYBE 091800Z 29011KT 9999 -RA SCT020 BKN030 15/13 Q1013 NOSIG,
LYBE,2025-07-09 18:30,59.00,55.40,87.84,280.00,13.00,0.00,29.91,,6.21,,SCT,BKN,,,3000.00,3800.00,,,,,,,,,,59.00,LYBE 091830Z 28013KT 9999 SCT030 BKN038 15/13 Q1013 NOSIG,
LYBE,2025-07-09 19:00,60.80,55.40,82.38,270.00,14.00,0.00,29.94,,6.21,,SCT,BKN,,,3000.00,4000.00,,,-RA,,,,,,,60.80,LYBE 091900Z 27014KT 9999 -RA SCT030 BKN040 16/13 Q1014 NOSIG,
LYBE,2025-07-09 19:30,60.80,55.40,82.38,280.00,11.00,0.00,29.94,,6.21,,SCT,BKN,,,3000.00,4000.00,,,,,,,,,,60.80,LYBE 091930Z 28011KT 9999 SCT030 BKN040 16/13 Q1014 NOSIG,
LYBE,2025-07-09 20:00,60.80,53.60,77.15,290.00,10.00,0.00,29.94,,6.21,,SCT,BKN,,,3500.00,4500.00,,,,,,,,,,60.80,LYBE 092000Z 29010KT 9999 SCT035 BKN045 16/12 Q1014 NOSIG,
LYBE,2025-07-09 20:30,60.80,53.60,77.15,290.00,11.00,0.00,29.94,,6.21,,SCT,BKN,,,3000.00,4000.00,,,,,,,,,,60.80,LYBE 092030Z 29011KT 9999 SCT030 BKN040 16/12 Q1014 NOSIG,
LYBE,2025-07-09 21:00,60.80,53.60,77.15,290.00,12.00,0.00,29.94,,6.21,,SCT,BKN,,,3000.00,4000.00,,,,,,,,,,60.80,LYBE 092100Z 29012KT 9999 SCT030 BKN040 16/12 Q1014 NOSIG,
LYBE,2025-07-09 21:30,60.80,53.60,77.15,280.00,12.00,0.00,29.94,,6.21,,BKN,,,,4000.00,,,,,,,,,,,60.80,LYBE 092130Z 28012KT 9999 BKN040 16/12 Q1014 NOSIG,
LYBE,2025-07-09 22:00,60.80,53.60,77.15,290.00,11.00,0.00,29.94,,6.21,,BKN,,,,4500.00,,,,,,,,,,,60.80,LYBE 092200Z 29011KT 9999 BKN045 16/12 Q1014 NOSIG,
LYBE,2025-07-09 22:30,60.80,53.60,77.15,290.00,13.00,0.00,29.94,,6.21,,,,,,,,,,,,,,,,,60.80,LYBE 092230Z 29013KT CAVOK 16/12 Q1014 NOSIG,
LYBE,2025-07-09 23:00,60.80,53.60,77.15,290.00,12.00,0.00,29.94,,6.21,,BKN,,,,4000.00,,,,,,,,,,,60.80,LYBE 092300Z 29012KT 9999 BKN040 16/12 Q1014 NOSIG,
LYBE,2025-07-09 23:30,60.80,53.60,77.15,280.00,12.00,0.00,29.94,,6.21,,BKN,,,,4000.00,,,,,,,,,,,60.80,LYBE 092330Z 28012KT 9999 BKN040 16/12 Q1014 NOSIG,
LYBE,2025-07-10 00:00,60.80,53.60,77.15,280.00,12.00,0.00,29.94,,6.21,,SCT,,,,4000.00,,,,,,,,,,,60.80,LYBE 100000Z 28012KT 9999 SCT040 16/12 Q1014 NOSIG,
LYBE,2025-07-10 00:30,60.80,53.60,77.15,280.00,12.00,0.00,29.94,,6.21,,SCT,,,,4000.00,,,,,,,,,,,60.80,LYBE 100030Z 28012KT 9999 SCT040 16/12 Q1014 NOSIG,
LYBE,2025-07-10 01:00,59.00,53.60,82.26,290.00,11.00,0.00,29.94,,6.21,,,,,,,,,,,,,,,,,59.00,LYBE 100100Z 29011KT CAVOK 15/12 Q1014 NOSIG,
LYBE,2025-07-10 01:30,59.00,53.60,82.26,280.00,9.00,0.00,29.94,,6.21,,,,,,,,,,,,,,,,,59.00,LYBE 100130Z 28009KT CAVOK 15/12 Q1014 NOSIG,
LYBE,2025-07-10 02:00,59.00,53.60,82.26,270.00,10.00,0.00,29.94,,6.21,,,,,,,,,,,,,,,,,59.00,LYBE 100200Z 27010KT CAVOK 15/12 Q1014 NOSIG,
LYBE,2025-07-10 02:30,59.00,53.60,82.26,280.00,9.00,0.00,29.94,,6.21,,,,,,,,,,,,,,,,,59.00,LYBE 100230Z 28009KT CAVOK 15/12 Q1014 NOSIG,
LYBE,2025-07-10 03:00,59.00,53.60,82.26,270.00,10.00,0.00,29.94,,6.21,,,,,,,,,,,,,,,,,59.00,LYBE 100300Z 27010KT CAVOK 15/12 Q1014 NOSIG,
LYBE,2025-07-10 03:30,59.00,53.60,82.26,270.00,8.00,0.00,29.94,,6.21,,,,,,,,,,,,,,,,,59.00,LYBE 100330Z 27008KT CAVOK 15/12 Q1014 NOSIG,
LYBE,2025-07-10 04:00,59.00,53.60,82.26,270.00,9.00,0.00,29.94,,6.21,,,,,,,,,,,,,,,,,59.00,LYBE 100400Z 27009KT CAVOK 15/12 Q1014 NOSIG,
LYBE,2025-07-10 04:30,59.00,53.60,82.26,270.00,11.00,0.00,29.94,,6.21,,,,,,,,,,,,,,,,,59.00,LYBE 100430Z 27011KT CAVOK 15/12 Q1014 NOSIG,
LYBE,2025-07-10 05:00,60.80,53.60,77.15,280.00,10.00,0.00,29.97,,6.21,,,,,,,,,,,,,,,,,60.80,LYBE 100500Z 28010KT CAVOK 16/12 Q1015 NOSIG,
LYBE,2025-07-10 05:30,60.80,53.60,77.15,280.00,10.00,0.00,29.97,,6.21,,,,,,,,,,,,,,,,,60.80,LYBE 100530Z 28010KT CAVOK 16/12 Q1015 NOSIG,
LYBE,2025-07-10 06:00,62.60,55.40,77.31,280.00,10.00,0.00,29.97,,6.21,,,,,,,,,,,,,,,,,62.60,LYBE 100600Z 28010KT CAVOK 17/13 Q1015 NOSIG,
LYBE,2025-07-10 06:30,66.20,55.40,68.18,290.00,11.00,0.00,29.97,,6.21,,,,,,,,,,,,,,,,,66.20,LYBE 100630Z 29011KT CAVOK 19/13 Q1015 NOSIG,
LYBE,2025-07-10 07:00,66.20,55.40,68.18,300.00,12.00,0.00,29.97,,6.21,,FEW,,,,2600.00,,,,,,,,,,,66.20,LYBE 100700Z 30012KT 9999 FEW026 19/13 Q1015 NOSIG,
LYBE,2025-07-10 07:30,66.20,55.40,68.18,300.00,13.00,0.00,29.97,,6.21,,SCT,,,,2700.00,,,,,,,,,,,66.20,LYBE 100730Z 30013KT 9999 SCT027 19/13 Q1015 NOSIG,
LYBE,2025-07-10 08:00,68.00,55.40,64.07,290.00,13.00,0.00,29.97,,6.21,,BKN,,,,3000.00,,,,,,,,,,,68.00,LYBE 100800Z 29013KT 9999 BKN030 20/13 Q1015 NOSIG,
LYBE,2025-07-10 08:30,68.00,55.40,64.07,300.00,13.00,0.00,29.97,,6.21,,BKN,,,,3000.00,,,,,,,,,,,68.00,LYBE 100830Z 30013KT 270V340 9999 BKN030 20/13 Q1015 NOSIG,
LYBE,2025-07-10 09:00,68.00,55.40,64.07,300.00,14.00,0.00,29.97,,6.21,,BKN,,,,3300.00,,,,,,,,,,,68.00,LYBE 100900Z 30014KT 9999 BKN033 20/13 Q1015 NOSIG,
LYBE,2025-07-10 09:30,69.80,55.40,60.24,300.00,13.00,0.00,29.97,,6.21,,BKN,,,,3300.00,,,,,,,,,,,69.80,LYBE 100930Z 30013KT 9999 BKN033 21/13 Q1015 NOSIG,
LYBE,2025-07-10 10:00,71.60,55.40,56.67,310.00,13.00,0.00,29.97,,6.21,,BKN,,,,4000.00,,,,,,,,,,,71.60,LYBE 101000Z 31013KT 9999 BKN040 22/13 Q1015 NOSIG,
LYBE,2025-07-10 10:30,73.40,55.40,53.33,310.00,12.00,0.00,29.97,,6.21,,BKN,,,,4000.00,,,,,,,,,,,73.40,LYBE 101030Z 31012KT 280V350 9999 BKN040 23/13 Q1015 NOSIG,
LYBE,2025-07-10 11:00,73.40,53.60,49.95,310.00,13.00,0.00,29.94,,6.21,,BKN,,,,4000.00,,,,,,,,,,,73.40,LYBE 101100Z 31013KT 280V340 9999 BKN040 23/12 Q1014 NOSIG,
LYBE,2025-07-10 11:30,71.60,53.60,53.07,300.00,10.00,0.00,29.94,,6.21,,BKN,,,,4000.00,,,,,,,,,,,71.60,LYBE 101130Z 30010KT 270V330 9999 BKN040 22/12 Q1014 NOSIG,
LYBE,2025-07-10 12:00,71.60,55.40,56.67,310.00,10.00,0.00,29.97,,6.21,,BKN,,,,4000.00,,,,,,,,,,,71.60,LYBE 101200Z 31010KT 9999 BKN040 22/13 Q1015 NOSIG,
LYBE,2025-07-10 12:30,71.60,53.60,53.07,300.00,10.00,0.00,29.94,,6.21,,BKN,,,,4000.00,,,,,,,,,,,71.60,LYBE 101230Z 30010KT 9999 BKN040 22/12 Q1014 TEMPO SHRA SCT033TCU BKN040,
LYBE,2025-07-10 13:00,71.60,55.40,56.67,300.00,12.00,0.00,29.94,,6.21,,SCT,,,,4000.00,,,,,,,,,,,71.60,LYBE 101300Z 30012KT 9999 SCT040 22/13 Q1014 TEMPO SHRA SCT033TCU BKN040,
LYBE,2025-07-10 13:30,75.20,55.40,50.22,310.00,14.00,0.00,29.94,,6.21,,SCT,,,,4000.00,,,,,,,,,,,75.20,LYBE 101330Z 31014KT 280V350 9999 SCT040 24/13 Q1014 NOSIG,
LYBE,2025-07-10 14:00,75.20,53.60,47.03,300.00,14.00,0.00,29.94,,6.21,,SCT,,,,4300.00,,,,,,,,,,,75.20,LYBE 101400Z 30014KT 9999 SCT043 24/12 Q1014 NOSIG,
LYBE,2025-07-10 14:30,77.00,53.60,44.30,310.00,12.00,0.00,29.94,,6.21,,SCT,,,,4300.00,,,,,,,,,,,77.00,LYBE 101430Z 31012KT 280V350 9999 SCT043 25/12 Q1014 NOSIG,
LYBE,2025-07-10 15:00,75.20,53.60,47.03,340.00,11.00,0.00,29.94,,6.21,,SCT,,,,4300.00,,,,,,,,,,,75.20,LYBE 101500Z 34011KT 9999 SCT043 24/12 Q1014 NOSIG,
LYBE,2025-07-10 15:30,73.40,51.80,46.75,320.00,12.00,0.00,29.94,,6.21,,SCT,,,,4300.00,,,,,,,,,,,73.40,LYBE 101530Z 32012KT 9999 SCT043 23/11 Q1014 NOSIG,
LYBE,2025-07-10 16:00,75.20,51.80,44.02,320.00,15.00,0.00,29.94,,6.21,,SCT,,,,4500.00,,,,,,,,,,,75.20,LYBE 101600Z 32015KT 9999 SCT045 24/11 Q1014 NOSIG,
LYBE,2025-07-10 16:30,71.60,51.80,49.67,300.00,13.00,0.00,29.94,,6.21,,FEW,,,,4500.00,,,,,,,,,,,71.60,LYBE 101630Z 30013KT 9999 FEW045 22/11 Q1014 NOSIG,
LYBE,2025-07-10 17:00,71.60,51.80,49.67,300.00,8.00,0.00,29.94,,6.21,,FEW,,,,4500.00,,,,,,,,,,,71.60,LYBE 101700Z 30008KT 9999 FEW045 22/11 Q1014 NOSIG,
LYBE,2025-07-10 17:30,71.60,53.60,53.07,310.00,12.00,0.00,29.94,,6.21,,FEW,,,,4500.00,,,,,,,,,,,71.60,LYBE 101730Z 31012KT 9999 FEW045 22/12 Q1014 NOSIG,
LYBE,2025-07-10 18:00,68.00,55.40,64.07,310.00,7.00,0.00,29.94,,6.21,,,,,,,,,,,,,,,,,68.00,LYBE 101800Z 31007KT CAVOK 20/13 Q1014 NOSIG,
LYBE,2025-07-10 18:30,66.20,55.40,68.18,300.00,7.00,0.00,29.94,,6.21,,,,,,,,,,,,,,,,,66.20,LYBE 101830Z 30007KT CAVOK 19/13 Q1014 NOSIG,
LYBE,2025-07-10 19:00,64.40,53.60,67.97,290.00,7.00,0.00,29.94,,6.21,,,,,,,,,,,,,,,,,64.40,LYBE 101900Z 29007KT CAVOK 18/12 Q1014 NOSIG,
LYBE,2025-07-10 19:30,62.60,53.60,72.40,300.00,7.00,0.00,29.97,,6.21,,,,,,,,,,,,,,,,,62.60,LYBE 101930Z 30007KT CAVOK 17/12 Q1015 NOSIG,
LYBE,2025-07-10 20:00,64.40,53.60,67.97,260.00,8.00,0.00,29.97,,6.21,,,,,,,,,,,,,,,,,64.40,LYBE 102000Z 26008KT CAVOK 18/12 Q1015 NOSIG,
LYBE,2025-07-10 20:30,62.60,53.60,72.40,270.00,8.00,0.00,29.97,,6.21,,,,,,,,,,,,,,,,,62.60,LYBE 102030Z 27008KT CAVOK 17/12 Q1015 NOSIG,
LYBE,2025-07-10 21:00,62.60,53.60,72.40,280.00,9.00,0.00,29.97,,6.21,,,,,,,,,,,,,,,,,62.60,LYBE 102100Z 28009KT CAVOK 17/12 Q1015 NOSIG,
LYBE,2025-07-10 21:30,60.80,53.60,77.15,270.00,9.00,0.00,29.97,,6.21,,,,,,,,,,,,,,,,,60.80,LYBE 102130Z 27009KT CAVOK 16/12 Q1015 NOSIG,
LYBE,2025-07-10 22:00,60.80,53.60,77.15,260.00,9.00,0.00,29.97,,6.21,,,,,,,,,,,,,,,,,60.80,LYBE 102200Z 26009KT CAVOK 16/12 Q1015 NOSIG,
LYBE,2025-07-10 22:30,60.80,53.60,77.15,270.00,9.00,0.00,29.97,,6.21,,,,,,,,,,,,,,,,,60.80,LYBE 102230Z 27009KT CAVOK 16/12 Q1015 NOSIG,
LYBE,2025-07-10 23:00,59.00,53.60,82.26,280.00,9.00,0.00,29.97,,6.21,,,,,,,,,,,,,,,,,59.00,LYBE 102300Z 28009KT CAVOK 15/12 Q1015 NOSIG,
LYBE,2025-07-10 23:30,59.00,53.60,82.26,280.00,10.00,0.00,29.97,,6.21,24.00,,,,,,,,,,,,,,,,59.00,LYBE 102330Z 28010G24KT CAVOK 15/12 Q1015 NOSIG,
