station,valid,tmpf,dwpf,relh,drct,sknt,p01i,alti,mslp,vsby,gust,skyc1,skyc2,skyc3,skyc4,skyl1,skyl2,skyl3,skyl4,wxcodes,ice_accretion_1hr,ice_accretion_3hr,ice_accretion_6hr,peak_wind_gust,peak_wind_drct,peak_wind_time,feel,metar,snowdepth
LZIB,2024-06-22 00:00,75.20,71.60,88.59,10.00,6.00,0.00,29.83,,6.21,,,,,,,,,,,,,,,,,75.20,LZIB 220000Z 01006KT CAVOK 24/22 Q1010 NOSIG,
LZIB,2024-06-22 00:30,75.20,71.60,88.59,20.00,6.00,0.00,29.80,,6.21,,FEW,,,,2500.00,,,,,,,,,,,75.20,LZIB 220030Z 02006KT 9999 FEW025 24/22 Q1009 BECMG 18006KT,
LZIB,2024-06-22 01:00,77.00,71.60,83.44,280.00,6.00,0.00,29.85,,6.21,,FEW,BKN,,,2000.00,2500.00,,,,,,,,,,77.00,LZIB 220100Z 28006KT 9999 FEW020 BKN025 25/22 Q1011 NOSIG,
LZIB,2024-06-22 01:30,75.20,66.20,73.61,290.00,10.00,0.00,29.85,,6.21,,BKN,,,,2900.00,,,,,,,,,,,75.20,LZIB 220130Z 29010KT 9999 BKN029 24/19 Q1011 NOSIG,
LZIB,2024-06-22 02:00,73.40,64.40,73.44,290.00,17.00,0.00,29.83,,6.21,27.00,BKN,,,,3500.00,,,,,,,,,,,73.40,LZIB 220200Z 29017G27KT 260V320 9999 BKN035 23/18 Q1010 NOSIG,
LZIB,2024-06-22 02:30,71.60,60.80,68.75,290.00,15.00,0.00,29.83,,6.21,,FEW,,,,4200.00,,,,,,,,,,,71.60,LZIB 220230Z 29015KT 9999 FEW042 22/16 Q1010 NOSIG,
LZIB,2024-06-22 03:00,71.60,60.80,68.75,290.00,9.00,0.00,29.85,,6.21,,FEW,,,,4500.00,,,,,,,,,,,71.60,LZIB 220300Z 29009KT 260V330 9999 FEW045 22/16 Q1011 NOSIG,
LZIB,2024-06-22 03:30,71.60,59.00,64.48,310.00,10.00,0.00,29.85,,6.21,,FEW,,,,4500.00,,,,,,,,,,,71.60,LZIB 220330Z 31010KT 270V350 9999 FEW045 22/15 Q1011 NOSIG,
LZIB,2024-06-22 04:00,71.60,57.20,60.44,330.00,10.00,0.00,29.88,,6.21,21.00,FEW,,,,4800.00,,,,,,,,,,,71.60,LZIB 220400Z 33010G21KT 280V020 9999 FEW048 22/14 Q1012 NOSIG,
LZIB,2024-06-22 04:30,71.60,59.00,64.48,,6.00,0.00,29.88,,6.21,,SCT,,,,5000.00,,,,VCTS,,,,,,,71.60,LZIB 220430Z VRB06KT 9999 VCTS SCT050CB 22/15 Q1012 TEMPO SHRA,
LZIB,2024-06-22 05:00,71.60,57.20,60.44,,3.00,0.00,29.91,,6.21,,FEW,FEW,,,3200.00,4800.00,,,-SHRA VCTS,,,,,,,71.60,LZIB 220500Z VRB03KT 9999 -SHRA VCTS FEW032 FEW048CB 22/14 Q1013 TEMPO SHRA,
LZIB,2024-06-22 05:30,68.00,59.00,72.92,290.00,6.00,0.00,29.91,,6.21,,FEW,SCT,,,1400.00,4000.00,,,-SHRA VCTS,,,,,,,68.00,LZIB 220530Z 29006KT 240V350 9999 -SHRA VCTS FEW014 SCT040CB 20/15 Q1013 NOSIG,
LZIB,2024-06-22 06:00,68.00,60.80,77.75,,5.00,0.00,29.91,,6.21,,FEW,FEW,,,1400.00,4400.00,,,-SHRA VCTS,,,,,,,68.00,LZIB 220600Z VRB05KT 9999 -SHRA VCTS FEW014 FEW044CB 20/16 Q1013 NOSIG,
LZIB,2024-06-22 06:30,66.20,59.00,77.60,290.00,11.00,0.00,29.94,,6.21,21.00,FEW,SCT,,,2200.00,4200.00,,,VCTS,,,,,,,66.20,LZIB 220630Z 29011G21KT 9999 VCTS FEW022 SCT042CB 19/15 Q1014 NOSIG,
LZIB,2024-06-22 07:00,68.00,59.00,72.92,290.00,9.00,0.00,29.94,,6.21,19.00,FEW,FEW,,,2400.00,4200.00,,,-SHRA,,,,,,,68.00,LZIB 220700Z 29009G19KT 250V320 9999 -SHRA FEW024 FEW042TCU 20/15 Q1014 NOSIG,
LZIB,2024-06-22 07:30,66.20,59.00,77.60,290.00,9.00,0.00,29.94,,6.21,,FEW,SCT,,,2200.00,4000.00,,,-SHRA,,,,,,,66.20,LZIB 220730Z 29009KT 240V340 9999 -SHRA FEW022 SCT040CB 19/15 Q1014 NOSIG,
LZIB,2024-06-22 08:00,66.20,57.20,72.74,300.00,6.00,0.00,29.94,,6.21,,FEW,FEW,,,1800.00,4400.00,,,-SHRA VCTS,,,,,,,66.20,LZIB 220800Z 30006KT 260V340 9999 -SHRA VCTS FEW018 FEW044CB 19/14 Q1014 NOSIG,
LZIB,2024-06-22 08:30,66.20,57.20,72.74,290.00,14.00,0.00,29.94,,6.21,,FEW,SCT,,,2000.00,4400.00,,,-SHRA VCTS,,,,,,,66.20,LZIB 220830Z 29014KT 260V350 9999 -SHRA VCTS FEW020 SCT044CB 19/14 Q1014 BECMG NSW,
LZIB,2024-06-22 09:00,66.20,57.20,72.74,320.00,6.00,0.00,29.97,,6.21,,FEW,FEW,,,1800.00,4600.00,,,VCTS,,,,,,,66.20,LZIB 220900Z 32006KT 280V350 9999 VCTS FEW018 FEW046CB 19/14 Q1015 BECMG NSW,
LZIB,2024-06-22 09:30,69.80,57.20,64.26,310.00,6.00,0.00,29.94,,6.21,,FEW,FEW,,,1800.00,4600.00,,,VCTS,,,,,,,69.80,LZIB 220930Z 31006KT 280V350 9999 VCTS FEW018 FEW046CB 21/14 Q1014 BECMG NSW,
LZIB,2024-06-22 10:00,71.60,57.20,60.44,310.00,11.00,0.00,29.94,,6.21,,FEW,,,,2000.00,,,,,,,,,,,71.60,LZIB 221000Z 31011KT 9999 FEW020 22/14 Q1014 NOSIG,
LZIB,2024-06-22 10:30,71.60,57.20,60.44,310.00,12.00,0.00,29.94,,6.21,,FEW,,,,2000.00,,,,,,,,,,,71.60,LZIB 221030Z 31012KT 9999 FEW020 22/14 Q1014 NOSIG,
LZIB,2024-06-22 11:00,71.60,59.00,64.48,310.00,12.00,0.00,29.94,,6.21,,FEW,,,,2900.00,,,,,,,,,,,71.60,LZIB 221100Z 31012KT 9999 FEW029 22/15 Q1014 NOSIG,
LZIB,2024-06-22 11:30,73.40,60.80,64.69,320.00,10.00,0.00,29.91,,6.21,,SCT,,,,3000.00,,,,,,,,,,,73.40,LZIB 221130Z 32010KT 9999 SCT030 23/16 Q1013 NOSIG,
LZIB,2024-06-22 12:00,75.20,60.80,60.90,320.00,11.00,0.00,29.91,,6.21,,BKN,,,,3400.00,,,,,,,,,,,75.20,LZIB 221200Z 32011KT 280V350 9999 BKN034 24/16 Q1013 NOSIG,
LZIB,2024-06-22 12:30,75.20,60.80,60.90,320.00,12.00,0.00,29.91,,6.21,,BKN,,,,3800.00,,,,,,,,,,,75.20,LZIB 221230Z 32012KT 9999 BKN038 24/16 Q1013 NOSIG,
LZIB,2024-06-22 13:00,77.00,59.00,53.80,310.00,12.00,0.00,29.91,,6.21,,BKN,,,,4000.00,,,,,,,,,,,77.00,LZIB 221300Z 31012KT 9999 BKN040 25/15 Q1013 NOSIG,
LZIB,2024-06-22 13:30,78.80,59.00,50.69,320.00,10.00,0.00,29.88,,6.21,,BKN,,,,4500.00,,,,,,,,,,,78.80,LZIB 221330Z 32010KT 9999 BKN045 26/15 Q1012 NOSIG,
LZIB,2024-06-22 14:00,78.80,59.00,50.69,310.00,10.00,0.00,29.88,,6.21,,BKN,,,,4600.00,,,,,,,,,,,78.80,LZIB 221400Z 31010KT 9999 BKN046 26/15 Q1012 NOSIG,
LZIB,2024-06-22 14:30,78.80,57.20,47.52,320.00,10.00,0.00,29.88,,6.21,,SCT,,,,4800.00,,,,,,,,,,,78.80,LZIB 221430Z 32010KT 290V350 9999 SCT048 26/14 Q1012 NOSIG,
LZIB,2024-06-22 15:00,78.80,57.20,47.52,320.00,9.00,0.00,29.85,,6.21,,SCT,,,,4900.00,,,,,,,,,,,78.80,LZIB 221500Z 32009KT 9999 SCT049 26/14 Q1011 NOSIG,
LZIB,2024-06-22 15:30,78.80,57.20,47.52,340.00,9.00,0.00,29.85,,6.21,,,,,,,,,,,,,,,,,78.80,LZIB 221530Z 34009KT CAVOK 26/14 Q1011 NOSIG,
LZIB,2024-06-22 16:00,78.80,57.20,47.52,340.00,10.00,0.00,29.85,,6.21,,,,,,,,,,,,,,,,,78.80,LZIB 221600Z 34010KT CAVOK 26/14 Q1011 NOSIG,
LZIB,2024-06-22 16:30,78.80,57.20,47.52,350.00,10.00,0.00,29.85,,6.21,,,,,,,,,,,,,,,,,78.80,LZIB 221630Z 35010KT 330V030 CAVOK 26/14 Q1011 NOSIG,
LZIB,2024-06-22 17:00,77.00,57.20,50.43,350.00,7.00,0.00,29.85,,6.21,,,,,,,,,,,,,,,,,77.00,LZIB 221700Z 35007KT CAVOK 25/14 Q1011 NOSIG,
LZIB,2024-06-22 17:30,77.00,55.40,47.25,340.00,6.00,0.00,29.85,,6.21,,,,,,,,,,,,,,,,,77.00,LZIB 221730Z 34006KT CAVOK 25/13 Q1011 NOSIG,
LZIB,2024-06-22 18:00,75.20,57.20,53.55,350.00,5.00,0.00,29.83,,6.21,,FEW,,,,4000.00,,,,,,,,,,,75.20,LZIB 221800Z 35005KT 9999 FEW040 24/14 Q1010 NOSIG,
LZIB,2024-06-22 18:30,75.20,59.00,57.12,340.00,3.00,0.00,29.85,,6.21,,,,,,,,,,,,,,,,,75.20,LZIB 221830Z 34003KT CAVOK 24/15 Q1011 NOSIG,
LZIB,2024-06-22 19:00,71.60,59.00,64.48,340.00,5.00,0.00,29.85,,6.21,,,,,,,,,,,,,,,,,71.60,LZIB 221900Z 34005KT CAVOK 22/15 Q1011 NOSIG,
LZIB,2024-06-22 19:30,71.60,57.20,60.44,330.00,6.00,0.00,29.85,,6.21,,,,,,,,,,,,,,,,,71.60,LZIB 221930Z 33006KT CAVOK 22/14 Q1011 NOSIG,
LZIB,2024-06-22 20:00,71.60,57.20,60.44,330.00,5.00,0.00,29.85,,6.21,,,,,,,,,,,,,,,,,71.60,LZIB 222000Z 33005KT CAVOK 22/14 Q1011 NOSIG,
LZIB,2024-06-22 20:30,69.80,55.40,60.21,320.00,7.00,0.00,29.85,,6.21,,,,,,,,,,,,,,,,,69.80,LZIB 222030Z 32007KT CAVOK 21/13 Q1011 NOSIG,
LZIB,2024-06-22 21:00,68.00,55.40,64.04,340.00,4.00,0.00,29.85,,6.21,,,,,,,,,,,,,,,,,68.00,LZIB 222100Z 34004KT CAVOK 20/13 Q1011 NOSIG,
LZIB,2024-06-22 21:30,69.80,53.60,56.38,330.00,5.00,0.00,29.85,,6.21,,,,,,,,,,,,,,,,,69.80,LZIB 222130Z 33005KT CAVOK 21/12 Q1011 NOSIG,
LZIB,2024-06-22 22:00,69.80,53.60,56.38,320.00,4.00,0.00,29.85,,6.21,,,,,,,,,,,,,,,,,69.80,LZIB 222200Z 32004KT CAVOK 21/12 Q1011 NOSIG,
LZIB,2024-06-22 22:30,69.80,53.60,56.38,320.00,5.00,0.00,29.85,,6.21,,,,,,,,,,,,,,,,,69.80,LZIB 222230Z 32005KT CAVOK 21/12 Q1011 NOSIG,
LZIB,2024-06-22 23:00,69.80,55.40,60.21,350.00,8.00,0.00,29.85,,6.21,,,,,,,,,,,,,,,,,69.80,LZIB 222300Z 35008KT CAVOK 21/13 Q1011 NOSIG,
LZIB,2024-06-22 23:30,69.80,53.60,56.38,350.00,7.00,0.00,29.88,,6.21,,,,,,,,,,,,,,,,,69.80,LZIB 222330Z 35007KT CAVOK 21/12 Q1012 NOSIG,
LZIB,2024-06-23 00:00,69.80,53.60,56.38,340.00,8.00,0.00,29.88,,6.21,,,,,,,,,,,,,,,,,69.80,LZIB 230000Z 34008KT CAVOK 21/12 Q1012 NOSIG,
LZIB,2024-06-23 00:30,66.20,53.60,63.82,350.00,4.00,0.00,29.88,,6.21,,,,,,,,,,,,,,,,,66.20,LZIB 230030Z 35004KT CAVOK 19/12 Q1012 NOSIG,
LZIB,2024-06-23 01:00,66.20,53.60,63.82,330.00,4.00,0.00,29.88,,6.21,,,,,,,,,,,,,,,,,66.20,LZIB 230100Z 33004KT CAVOK 19/12 Q1012 NOSIG,
LZIB,2024-06-23 01:30,64.40,53.60,67.95,360.00,6.00,0.00,29.91,,6.21,,,,,,,,,,,,,,,,,64.40,LZIB 230130Z 36006KT CAVOK 18/12 Q1013 NOSIG,
LZIB,2024-06-23 02:00,66.20,53.60,63.82,330.00,4.00,0.00,29.91,,6.21,,,,,,,,,,,,,,,,,66.20,LZIB 230200Z 33004KT CAVOK 19/12 Q1013 NOSIG,
LZIB,2024-06-23 02:30,66.20,51.80,59.74,290.00,6.00,0.00,29.91,,6.21,,,,,,,,,,,,,,,,,66.20,LZIB 230230Z 29006KT CAVOK 19/11 Q1013 NOSIG,
LZIB,2024-06-23 03:00,64.40,53.60,67.95,310.00,5.00,0.00,29.91,,6.21,,,,,,,,,,,,,,,,,64.40,LZIB 230300Z 31005KT CAVOK 18/12 Q1013 NOSIG,
LZIB,2024-06-23 03:30,64.40,53.60,67.95,320.00,6.00,0.00,29.91,,6.21,,,,,,,,,,,,,,,,,64.40,LZIB 230330Z 32006KT CAVOK 18/12 Q1013 NOSIG,
LZIB,2024-06-23 04:00,66.20,51.80,59.74,350.00,7.00,0.00,29.91,,6.21,,,,,,,,,,,,,,,,,66.20,LZIB 230400Z 35007KT CAVOK 19/11 Q1013 NOSIG,
LZIB,2024-06-23 04:30,66.20,53.60,63.82,340.00,5.00,0.00,29.94,,6.21,,,,,,,,,,,,,,,,,66.20,LZIB 230430Z 34005KT CAVOK 19/12 Q1014 NOSIG,
LZIB,2024-06-23 05:00,69.80,51.80,52.77,320.00,6.00,0.00,29.94,,6.21,,,,,,,,,,,,,,,,,69.80,LZIB 230500Z 32006KT CAVOK 21/11 Q1014 NOSIG,
LZIB,2024-06-23 05:30,69.80,51.80,52.77,340.00,9.00,0.00,29.94,,6.21,,,,,,,,,,,,,,,,,69.80,LZIB 230530Z 34009KT CAVOK 21/11 Q1014 NOSIG,
LZIB,2024-06-23 06:00,71.60,51.80,49.64,350.00,11.00,0.00,29.94,,6.21,,,,,,,,,,,,,,,,,71.60,LZIB 230600Z 35011KT CAVOK 22/11 Q1014 NOSIG,
LZIB,2024-06-23 06:30,71.60,51.80,49.64,360.00,12.00,0.00,29.97,,6.21,,,,,,,,,,,,,,,,,71.60,LZIB 230630Z 36012KT CAVOK 22/11 Q1015 NOSIG,
LZIB,2024-06-23 07:00,73.40,51.80,46.71,360.00,15.00,0.00,29.97,,6.21,,,,,,,,,,,,,,,,,73.40,LZIB 230700Z 36015KT CAVOK 23/11 Q1015 NOSIG,
LZIB,2024-06-23 07:30,73.40,51.80,46.71,360.00,13.00,0.00,29.97,,6.21,,FEW,,,,4000.00,,,,,,,,,,,73.40,LZIB 230730Z 36013KT 9999 FEW040 23/11 Q1015 NOSIG,
LZIB,2024-06-23 08:00,73.40,53.60,49.90,340.00,13.00,0.00,29.97,,6.21,,FEW,,,,4000.00,,,,,,,,,,,73.40,LZIB 230800Z 34013KT 9999 FEW040 23/12 Q1015 NOSIG,
LZIB,2024-06-23 08:30,73.40,51.80,46.71,340.00,14.00,0.00,29.97,,6.21,,FEW,,,,4000.00,,,,,,,,,,,73.40,LZIB 230830Z 34014KT 310V010 9999 FEW040 23/11 Q1015 NOSIG,
LZIB,2024-06-23 09:00,75.20,51.80,43.97,360.00,12.00,0.00,29.97,,6.21,,FEW,,,,4000.00,,,,,,,,,,,75.20,LZIB 230900Z 36012KT 330V030 9999 FEW040 24/11 Q1015 NOSIG,
LZIB,2024-06-23 09:30,77.00,51.80,41.42,350.00,14.00,0.00,29.97,,6.21,,,,,,,,,,,,,,,,,77.00,LZIB 230930Z 35014KT CAVOK 25/11 Q1015 NOSIG,
LZIB,2024-06-23 10:00,77.00,50.00,38.74,360.00,11.00,0.00,29.97,,6.21,,,,,,,,,,,,,,,,,77.00,LZIB 231000Z 36011KT CAVOK 25/10 Q1015 NOSIG,
LZIB,2024-06-23 10:30,77.00,50.00,38.74,360.00,14.00,0.00,29.97,,6.21,,,,,,,,,,,,,,,,,77.00,LZIB 231030Z 36014KT 320V020 CAVOK 25/10 Q1015 NOSIG,
LZIB,2024-06-23 11:00,77.00,50.00,38.74,340.00,13.00,0.00,29.97,,6.21,,,,,,,,,,,,,,,,,77.00,LZIB 231100Z 34013KT CAVOK 25/10 Q1015 NOSIG,
LZIB,2024-06-23 11:30,78.80,51.80,39.02,350.00,12.00,0.00,29.97,,6.21,,,,,,,,,,,,,,,,,78.80,LZIB 231130Z 35012KT CAVOK 26/11 Q1015 NOSIG,
LZIB,2024-06-23 12:00,78.80,51.80,39.02,340.00,14.00,0.00,29.97,,6.21,,,,,,,,,,,,,,,,,78.80,LZIB 231200Z 34014KT CAVOK 26/11 Q1015 NOSIG,
LZIB,2024-06-23 12:30,78.80,53.60,41.69,350.00,12.00,0.00,29.97,,6.21,,,,,,,,,,,,,,,,,78.80,LZIB 231230Z 35012KT 310V030 CAVOK 26/12 Q1015 NOSIG,
LZIB,2024-06-23 13:00,78.80,51.80,39.02,10.00,14.00,0.00,29.94,,6.21,,,,,,,,,,,,,,,,,78.80,LZIB 231300Z 01014KT CAVOK 26/11 Q1014 NOSIG,
LZIB,2024-06-23 13:30,80.60,51.80,36.79,340.00,14.00,0.00,29.94,,6.21,,,,,,,,,,,,,,,,,80.08,LZIB 231330Z 34014KT CAVOK 27/11 Q1014 NOSIG,
LZIB,2024-06-23 14:00,80.60,53.60,39.30,350.00,11.00,0.00,29.94,,6.21,,,,,,,,,,,,,,,,,80.29,LZIB 231400Z 35011KT 320V020 CAVOK 27/12 Q1014 NOSIG,
LZIB,2024-06-23 14:30,78.80,53.60,41.69,350.00,12.00,0.00,29.94,,6.21,,,,,,,,,,,,,,,,,78.80,LZIB 231430Z 35012KT CAVOK 26/12 Q1014 NOSIG,
LZIB,2024-06-23 15:00,80.60,53.60,39.30,360.00,13.00,0.00,29.94,,6.21,,,,,,,,,,,,,,,,,80.29,LZIB 231500Z 36013KT CAVOK 27/12 Q1014 NOSIG,
LZIB,2024-06-23 15:30,80.60,53.60,39.30,10.00,12.00,0.00,29.94,,6.21,,,,,,,,,,,,,,,,,80.29,LZIB 231530Z 01012KT 340V040 CAVOK 27/12 Q1014 NOSIG,
LZIB,2024-06-23 16:00,78.80,55.40,44.52,360.00,12.00,0.00,29.94,,6.21,,,,,,,,,,,,,,,,,78.80,LZIB 231600Z 36012KT CAVOK 26/13 Q1014 NOSIG,
LZIB,2024-06-23 16:30,78.80,53.60,41.69,350.00,13.00,0.00,29.94,,6.21,,,,,,,,,,,,,,,,,78.80,LZIB 231630Z 35013KT CAVOK 26/12 Q1014 NOSIG,
LZIB,2024-06-23 17:00,78.80,53.60,41.69,360.00,13.00,0.00,29.94,,6.21,,,,,,,,,,,,,,,,,78.80,LZIB 231700Z 36013KT CAVOK 26/12 Q1014 NOSIG,
LZIB,2024-06-23 17:30,77.00,55.40,47.25,360.00,10.00,0.00,29.94,,6.21,,,,,,,,,,,,,,,,,77.00,LZIB 231730Z 36010KT CAVOK 25/13 Q1014 NOSIG,
LZIB,2024-06-23 18:00,77.00,53.60,44.25,360.00,7.00,0.00,29.97,,6.21,,,,,,,,,,,,,,,,,77.00,LZIB 231800Z 36007KT CAVOK 25/12 Q1015 NOSIG,
LZIB,2024-06-23 18:30,75.20,55.40,50.17,340.00,5.00,0.00,29.97,,6.21,,,,,,,,,,,,,,,,,75.20,LZIB 231830Z 34005KT CAVOK 24/13 Q1015 NOSIG,
LZIB,2024-06-23 19:00,73.40,53.60,49.90,330.00,6.00,0.00,29.97,,6.21,,,,,,,,,,,,,,,,,73.40,LZIB 231900Z 33006KT CAVOK 23/12 Q1015 NOSIG,
LZIB,2024-06-23 19:30,71.60,55.40,56.63,330.00,6.00,0.00,30.00,,6.21,,,,,,,,,,,,,,,,,71.60,LZIB 231930Z 33006KT CAVOK 22/13 Q1016 NOSIG,
LZIB,2024-06-23 20:00,71.60,53.60,53.03,330.00,7.00,0.00,30.00,,6.21,,,,,,,,,,,,,,,,,71.60,LZIB 232000Z 33007KT CAVOK 22/12 Q1016 NOSIG,
LZIB,2024-06-23 20:30,71.60,53.60,53.03,330.00,7.00,0.00,30.00,,6.21,,,,,,,,,,,,,,,,,71.60,LZIB 232030Z 33007KT CAVOK 22/12 Q1016 NOSIG,
LZIB,2024-06-23 21:00,71.60,53.60,53.03,320.00,6.00,0.00,30.00,,6.21,,,,,,,,,,,,,,,,,71.60,LZIB 232100Z 32006KT CAVOK 22/12 Q1016 NOSIG,
LZIB,2024-06-23 21:30,71.60,53.60,53.03,330.00,7.00,0.00,30.00,,6.21,,,,,,,,,,,,,,,,,71.60,LZIB 232130Z 33007KT CAVOK 22/12 Q1016 NOSIG,
LZIB,2024-06-23 22:00,69.80,53.60,56.38,340.00,7.00,0.00,30.00,,6.21,,,,,,,,,,,,,,,,,69.80,LZIB 232200Z 34007KT CAVOK 21/12 Q1016 NOSIG,
LZIB,2024-06-23 22:30,69.80,51.80,52.77,340.00,6.00,0.00,30.00,,6.21,,,,,,,,,,,,,,,,,69.80,LZIB 232230Z 34006KT CAVOK 21/11 Q1016 NOSIG,
LZIB,2024-06-23 23:00,69.80,51.80,52.77,340.00,5.00,0.00,30.00,,6.21,,,,,,,,,,,,,,,,,69.80,LZIB 232300Z 34005KT CAVOK 21/11 Q1016 NOSIG,
LZIB,2024-06-23 23:30,68.00,51.80,56.13,340.00,7.00,0.00,30.00,,6.21,,,,,,,,,,,,,,,,,68.00,LZIB 232330Z 34007KT CAVOK 20/11 Q1016 NOSIG,
LZIB,2024-06-24 00:00,68.00,51.80,56.13,340.00,8.00,0.00,30.00,,6.21,,,,,,,,,,,,,,,,,68.00,LZIB 240000Z 34008KT CAVOK 20/11 Q1016 NOSIG,
LZIB,2024-06-24 00:30,68.00,51.80,56.13,340.00,8.00,0.00,30.00,,6.21,,,,,,,,,,,,,,,,,68.00,LZIB 240030Z 34008KT CAVOK 20/11 Q1016 NOSIG,
LZIB,2024-06-24 01:00,68.00,51.80,56.13,350.00,7.00,0.00,30.03,,6.21,,,,,,,,,,,,,,,,,68.00,LZIB 240100Z 35007KT CAVOK 20/11 Q1017 NOSIG,
LZIB,2024-06-24 01:30,66.20,51.80,59.74,350.00,5.00,0.00,30.03,,6.21,,,,,,,,,,,,,,,,,66.20,LZIB 240130Z 35005KT CAVOK 19/11 Q1017 NOSIG,
LZIB,2024-06-24 02:00,66.20,51.80,59.74,360.00,6.00,0.00,30.03,,6.21,,,,,,,,,,,,,,,,,66.20,LZIB 240200Z 36006KT CAVOK 19/11 Q1017 NOSIG,
LZIB,2024-06-24 02:30,66.20,51.80,59.74,360.00,7.00,0.00,30.03,,6.21,,,,,,,,,,,,,,,,,66.20,LZIB 240230Z 36007KT CAVOK 19/11 Q1017 NOSIG,
LZIB,2024-06-24 03:00,66.20,51.80,59.74,360.00,6.00,0.00,30.03,,6.21,,,,,,,,,,,,,,,,,66.20,LZIB 240300Z 36006KT CAVOK 19/11 Q1017 NOSIG,
LZIB,2024-06-24 03:30,66.20,53.60,63.82,350.00,8.00,0.00,30.03,,6.21,,,,,,,,,,,,,,,,,66.20,LZIB 240330Z 35008KT CAVOK 19/12 Q1017 NOSIG,
LZIB,2024-06-24 04:00,68.00,53.60,59.97,340.00,6.00,0.00,30.03,,6.21,,,,,,,,,,,,,,,,,68.00,LZIB 240400Z 34006KT CAVOK 20/12 Q1017 NOSIG,
LZIB,2024-06-24 04:30,69.80,53.60,56.38,340.00,6.00,0.00,30.03,,6.21,,,,,,,,,,,,,,,,,69.80,LZIB 240430Z 34006KT CAVOK 21/12 Q1017 NOSIG,
LZIB,2024-06-24 05:00,69.80,53.60,56.38,350.00,8.00,0.00,30.03,,6.21,,,,,,,,,,,,,,,,,69.80,LZIB 240500Z 35008KT CAVOK 21/12 Q1017 NOSIG,
LZIB,2024-06-24 05:30,71.60,53.60,53.03,360.00,10.00,0.00,30.06,,6.21,,,,,,,,,,,,,,,,,71.60,LZIB 240530Z 36010KT CAVOK 22/12 Q1018 NOSIG,
LZIB,2024-06-24 06:00,71.60,55.40,56.63,360.00,9.00,0.00,30.06,,6.21,,,,,,,,,,,,,,,,,71.60,LZIB 240600Z 36009KT CAVOK 22/13 Q1018 NOSIG,
LZIB,2024-06-24 06:30,73.40,53.60,49.90,10.00,9.00,0.00,30.06,,6.21,,,,,,,,,,,,,,,,,73.40,LZIB 240630Z 01009KT CAVOK 23/12 Q1018 NOSIG,
LZIB,2024-06-24 07:00,73.40,55.40,53.29,360.00,9.00,0.00,30.06,,6.21,,,,,,,,,,,,,,,,,73.40,LZIB 240700Z 36009KT CAVOK 23/13 Q1018 NOSIG,
LZIB,2024-06-24 07:30,75.20,53.60,46.98,360.00,9.00,0.00,30.06,,6.21,,,,,,,,,,,,,,,,,75.20,LZIB 240730Z 36009KT CAVOK 24/12 Q1018 NOSIG,
LZIB,2024-06-24 08:00,75.20,53.60,46.98,360.00,8.00,0.00,30.06,,6.21,,FEW,,,,2800.00,,,,,,,,,,,75.20,LZIB 240800Z 36008KT 310V040 9999 FEW028 24/12 Q1018 NOSIG,
LZIB,2024-06-24 08:30,75.20,55.40,50.17,320.00,11.00,0.00,30.06,,6.21,,FEW,,,,4000.00,,,,,,,,,,,75.20,LZIB 240830Z 32011KT 9999 FEW040 24/13 Q1018 NOSIG,
LZIB,2024-06-24 09:00,75.20,53.60,46.98,340.00,9.00,0.00,30.06,,6.21,,FEW,,,,4800.00,,,,,,,,,,,75.20,LZIB 240900Z 34009KT 310V030 9999 FEW048 24/12 Q1018 NOSIG,
LZIB,2024-06-24 09:30,75.20,55.40,50.17,330.00,12.00,0.00,30.06,,6.21,,FEW,,,,4800.00,,,,,,,,,,,75.20,LZIB 240930Z 33012KT 9999 FEW048 24/13 Q1018 NOSIG,
LZIB,2024-06-24 10:00,77.00,53.60,44.25,340.00,13.00,0.00,30.06,,6.21,,FEW,,,,4800.00,,,,,,,,,,,77.00,LZIB 241000Z 34013KT 320V020 9999 FEW048 25/12 Q1018 NOSIG,
LZIB,2024-06-24 10:30,77.00,55.40,47.25,360.00,11.00,0.00,30.03,,6.21,,,,,,,,,,,,,,,,,77.00,LZIB 241030Z 36011KT CAVOK 25/13 Q1017 NOSIG,
LZIB,2024-06-24 11:00,77.00,55.40,47.25,340.00,11.00,0.00,30.03,,6.21,,,,,,,,,,,,,,,,,77.00,LZIB 241100Z 34011KT CAVOK 25/13 Q1017 NOSIG,
LZIB,2024-06-24 11:30,77.00,55.40,47.25,350.00,11.00,0.00,30.03,,6.21,,,,,,,,,,,,,,,,,77.00,LZIB 241130Z 35011KT 320V020 CAVOK 25/13 Q1017 NOSIG,
LZIB,2024-06-24 12:00,77.00,57.20,50.43,340.00,10.00,0.00,30.03,,6.21,,,,,,,,,,,,,,,,,77.00,LZIB 241200Z 34010KT 310V030 CAVOK 25/14 Q1017 NOSIG,
LZIB,2024-06-24 12:30,78.80,55.40,44.52,350.00,11.00,0.00,30.03,,6.21,,,,,,,,,,,,,,,,,78.80,LZIB 241230Z 35011KT 320V020 CAVOK 26/13 Q1017 NOSIG,
LZIB,2024-06-24 13:00,78.80,57.20,47.52,330.00,10.00,0.00,30.03,,6.21,,,,,,,,,,,,,,,,,78.80,LZIB 241300Z 33010KT 290V010 CAVOK 26/14 Q1017 NOSIG,
LZIB,2024-06-24 13:30,78.80,55.40,44.52,340.00,11.00,0.00,30.03,,6.21,,,,,,,,,,,,,,,,,78.80,LZIB 241330Z 34011KT 310V010 CAVOK 26/13 Q1017 NOSIG,
LZIB,2024-06-24 14:00,77.00,55.40,47.25,330.00,10.00,0.00,30.00,,6.21,,,,,,,,,,,,,,,,,77.00,LZIB 241400Z 33010KT 300V010 CAVOK 25/13 Q1016 NOSIG,
LZIB,2024-06-24 14:30,78.80,55.40,44.52,340.00,12.00,0.00,30.00,,6.21,,,,,,,,,,,,,,,,,78.80,LZIB 241430Z 34012KT 310V010 CAVOK 26/13 Q1016 NOSIG,
LZIB,2024-06-24 15:00,77.00,55.40,47.25,340.00,13.00,0.00,30.00,,6.21,,,,,,,,,,,,,,,,,77.00,LZIB 241500Z 34013KT 310V010 CAVOK 25/13 Q1016 NOSIG,
LZIB,2024-06-24 15:30,77.00,53.60,44.25,350.00,13.00,0.00,30.00,,6.21,,,,,,,,,,,,,,,,,77.00,LZIB 241530Z 35013KT CAVOK 25/12 Q1016 NOSIG,
LZIB,2024-06-24 16:00,77.00,53.60,44.25,340.00,14.00,0.00,30.00,,6.21,,,,,,,,,,,,,,,,,77.00,LZIB 241600Z 34014KT CAVOK 25/12 Q1016 NOSIG,
LZIB,2024-06-24 16:30,77.00,53.60,44.25,350.00,12.00,0.00,30.00,,6.21,,,,,,,,,,,,,,,,,77.00,LZIB 241630Z 35012KT CAVOK 25/12 Q1016 NOSIG,
LZIB,2024-06-24 17:00,75.20,53.60,46.98,340.00,12.00,0.00,30.00,,6.21,,,,,,,,,,,,,,,,,75.20,LZIB 241700Z 34012KT CAVOK 24/12 Q1016 NOSIG,
LZIB,2024-06-24 17:30,75.20,53.60,46.98,350.00,11.00,0.00,30.00,,6.21,,,,,,,,,,,,,,,,,75.20,LZIB 241730Z 35011KT CAVOK 24/12 Q1016 NOSIG,
LZIB,2024-06-24 18:00,73.40,53.60,49.90,340.00,11.00,0.00,30.00,,6.21,,,,,,,,,,,,,,,,,73.40,LZIB 241800Z 34011KT CAVOK 23/12 Q1016 NOSIG,
LZIB,2024-06-24 18:30,71.60,51.80,49.64,340.00,10.00,0.00,30.03,,6.21,,,,,,,,,,,,,,,,,71.60,LZIB 241830Z 34010KT CAVOK 22/11 Q1017 NOSIG,
LZIB,2024-06-24 19:00,69.80,53.60,56.38,330.00,6.00,0.00,30.03,,6.21,,,,,,,,,,,,,,,,,69.80,LZIB 241900Z 33006KT CAVOK 21/12 Q1017 NOSIG,
LZIB,2024-06-24 19:30,69.80,53.60,56.38,340.00,6.00,0.00,30.03,,6.21,,,,,,,,,,,,,,,,,69.80,LZIB 241930Z 34006KT CAVOK 21/12 Q1017 NOSIG,
LZIB,2024-06-24 20:00,68.00,53.60,59.97,340.00,5.00,0.00,30.03,,6.21,,,,,,,,,,,,,,,,,68.00,LZIB 242000Z 34005KT CAVOK 20/12 Q1017 NOSIG,
LZIB,2024-06-24 20:30,68.00,51.80,56.13,330.00,4.00,0.00,30.03,,6.21,,,,,,,,,,,,,,,,,68.00,LZIB 242030Z 33004KT CAVOK 20/11 Q1017 NOSIG,
LZIB,2024-06-24 21:00,68.00,53.60,59.97,320.00,3.00,0.00,30.03,,6.21,,,,,,,,,,,,,,,,,68.00,LZIB 242100Z 32003KT 290V360 CAVOK 20/12 Q1017 NOSIG,
LZIB,2024-06-24 21:30,68.00,53.60,59.97,310.00,3.00,0.00,30.03,,6.21,,,,,,,,,,,,,,,,,68.00,LZIB 242130Z 31003KT CAVOK 20/12 Q1017 NOSIG,
LZIB,2024-06-24 22:00,66.20,53.60,63.82,280.00,5.00,0.00,30.03,,6.21,,,,,,,,,,,,,,,,,66.20,LZIB 242200Z 28005KT CAVOK 19/12 Q1017 NOSIG,
LZIB,2024-06-24 22:30,66.20,53.60,63.82,260.00,5.00,0.00,30.03,,6.21,,,,,,,,,,,,,,,,,66.20,LZIB 242230Z 26005KT CAVOK 19/12 Q1017 NOSIG,
LZIB,2024-06-24 23:00,66.20,53.60,63.82,280.00,4.00,0.00,30.03,,6.21,,,,,,,,,,,,,,,,,66.20,LZIB 242300Z 28004KT CAVOK 19/12 Q1017 NOSIG,
LZIB,2024-06-24 23:30,64.40,53.60,67.95,280.00,5.00,0.00,30.03,,6.21,,,,,,,,,,,,,,,,,64.40,LZIB 242330Z 28005KT CAVOK 18/12 Q1017 NOSIG,
LZIB,2024-06-25 00:00,64.40,53.60,67.95,270.00,3.00,0.00,30.03,,6.21,,,,,,,,,,,,,,,,,64.40,LZIB 250000Z 27003KT CAVOK 18/12 Q1017 NOSIG,
LZIB,2024-06-25 00:30,62.60,53.60,72.38,230.00,3.00,0.00,30.03,,6.21,,,,,,,,,,,,,,,,,62.60,LZIB 250030Z 23003KT 190V260 CAVOK 17/12 Q1017 NOSIG,
LZIB,2024-06-25 01:00,64.40,53.60,67.95,230.00,3.00,0.00,30.00,,6.21,,,,,,,,,,,,,,,,,64.40,LZIB 250100Z 23003KT CAVOK 18/12 Q1016 NOSIG,
LZIB,2024-06-25 01:30,62.60,53.60,72.38,,2.00,0.00,30.00,,6.21,,,,,,,,,,,,,,,,,62.60,LZIB 250130Z VRB02KT CAVOK 17/12 Q1016 NOSIG,
LZIB,2024-06-25 02:00,60.80,53.60,77.14,,1.00,0.00,30.00,,6.21,,,,,,,,,,,,,,,,,60.80,LZIB 250200Z VRB01KT CAVOK 16/12 Q1016 NOSIG,
LZIB,2024-06-25 02:30,59.00,53.60,82.25,210.00,2.00,0.00,30.00,,6.21,,,,,,,,,,,,,,,,,59.00,LZIB 250230Z 21002KT CAVOK 15/12 Q1016 NOSIG,
LZIB,2024-06-25 03:00,59.00,53.60,82.25,210.00,2.00,0.00,30.03,,6.21,,,,,,,,,,,,,,,,,59.00,LZIB 250300Z 21002KT CAVOK 15/12 Q1017 NOSIG,
LZIB,2024-06-25 03:30,59.00,53.60,82.25,30.00,2.00,0.00,30.03,,6.21,,,,,,,,,,,,,,,,,59.00,LZIB 250330Z 03002KT CAVOK 15/12 Q1017 NOSIG,
LZIB,2024-06-25 04:00,60.80,55.40,82.37,,1.00,0.00,30.03,,6.21,,,,,,,,,,,,,,,,,60.80,LZIB 250400Z VRB01KT CAVOK 16/13 Q1017 NOSIG,
LZIB,2024-06-25 04:30,60.80,57.20,87.92,10.00,3.00,0.00,30.03,,6.21,,,,,,,,,,,,,,,,,60.80,LZIB 250430Z 01003KT CAVOK 16/14 Q1017 NOSIG,
LZIB,2024-06-25 05:00,62.60,57.20,82.50,40.00,4.00,0.00,30.03,,6.21,,,,,,,,,,,,,,,,,62.60,LZIB 250500Z 04004KT CAVOK 17/14 Q1017 NOSIG,
LZIB,2024-06-25 05:30,64.40,57.20,77.45,60.00,5.00,0.00,30.03,,6.21,,,,,,,,,,,,,,,,,64.40,LZIB 250530Z 06005KT CAVOK 18/14 Q1017 NOSIG,
LZIB,2024-06-25 06:00,66.20,57.20,72.74,70.00,5.00,0.00,30.03,,6.21,,,,,,,,,,,,,,,,,66.20,LZIB 250600Z 07005KT CAVOK 19/14 Q1017 NOSIG,
LZIB,2024-06-25 06:30,68.00,57.20,68.35,80.00,4.00,0.00,30.03,,6.21,,,,,,,,,,,,,,,,,68.00,LZIB 250630Z 08004KT 030V110 CAVOK 20/14 Q1017 NOSIG,
LZIB,2024-06-25 07:00,69.80,57.20,64.26,70.00,5.00,0.00,30.03,,6.21,,,,,,,,,,,,,,,,,69.80,LZIB 250700Z 07005KT 030V100 CAVOK 21/14 Q1017 NOSIG,
LZIB,2024-06-25 07:30,71.60,55.40,56.63,90.00,4.00,0.00,30.03,,6.21,,,,,,,,,,,,,,,,,71.60,LZIB 250730Z 09004KT 060V140 CAVOK 22/13 Q1017 NOSIG,
LZIB,2024-06-25 08:00,73.40,59.00,60.67,100.00,4.00,0.00,30.03,,6.21,,,,,,,,,,,,,,,,,73.40,LZIB 250800Z 10004KT 040V150 CAVOK 23/15 Q1017 NOSIG,
LZIB,2024-06-25 08:30,75.20,55.40,50.17,130.00,5.00,0.00,30.03,,6.21,,,,,,,,,,,,,,,,,75.20,LZIB 250830Z 13005KT 100V190 CAVOK 24/13 Q1017 NOSIG,
LZIB,2024-06-25 09:00,75.20,57.20,53.55,140.00,5.00,0.00,30.03,,6.21,,,,,,,,,,,,,,,,,75.20,LZIB 250900Z 14005KT 090V190 CAVOK 24/14 Q1017 NOSIG,
LZIB,2024-06-25 09:30,77.00,57.20,50.43,160.00,5.00,0.00,30.03,,6.21,,FEW,,,,4200.00,,,,,,,,,,,77.00,LZIB 250930Z 16005KT 090V260 9999 FEW042 25/14 Q1017 NOSIG,
LZIB,2024-06-25 10:00,78.80,57.20,47.52,160.00,5.00,0.00,30.03,,6.21,,FEW,,,,4400.00,,,,,,,,,,,78.80,LZIB 251000Z 16005KT 110V220 9999 FEW044 26/14 Q1017 NOSIG,
LZIB,2024-06-25 10:30,78.80,57.20,47.52,160.00,7.00,0.00,30.03,,6.21,,FEW,,,,4400.00,,,,,,,,,,,78.80,LZIB 251030Z 16007KT 120V190 9999 FEW044 26/14 Q1017 NOSIG,
LZIB,2024-06-25 11:00,80.60,60.80,50.95,90.00,5.00,0.00,30.03,,6.21,,FEW,,,,4400.00,,,,,,,,,,,81.46,LZIB 251100Z 09005KT 040V170 9999 FEW044 27/16 Q1017 NOSIG,
LZIB,2024-06-25 11:30,78.80,59.00,50.69,110.00,5.00,0.00,30.00,,6.21,,FEW,,,,4500.00,,,,,,,,,,,78.80,LZIB 251130Z 11005KT 060V190 9999 FEW045 26/15 Q1016 NOSIG,
LZIB,2024-06-25 12:00,78.80,60.80,54.05,130.00,5.00,0.00,30.00,,6.21,,FEW,,,,4600.00,,,,,,,,,,,78.80,LZIB 251200Z 13005KT 090V160 9999 FEW046 26/16 Q1016 NOSIG,
LZIB,2024-06-25 12:30,80.60,59.00,47.79,170.00,6.00,0.00,30.00,,6.21,,FEW,,,,4800.00,,,,,,,,,,,81.11,LZIB 251230Z 17006KT 100V210 9999 FEW048 27/15 Q1016 NOSIG,
LZIB,2024-06-25 13:00,78.80,59.00,50.69,160.00,6.00,0.00,30.00,,6.21,,FEW,,,,4800.00,,,,,,,,,,,78.80,LZIB 251300Z 16006KT 130V210 9999 FEW048 26/15 Q1016 NOSIG,
LZIB,2024-06-25 13:30,80.60,60.80,50.95,,4.00,0.00,30.00,,6.21,,FEW,,,,4800.00,,,,,,,,,,,81.46,LZIB 251330Z VRB04KT 9999 FEW048 27/16 Q1016 NOSIG,
LZIB,2024-06-25 14:00,82.40,60.80,48.05,170.00,7.00,0.00,29.97,,6.21,,FEW,,,,4800.00,,,,,,,,,,,82.90,LZIB 251400Z 17007KT 9999 FEW048 28/16 Q1015 NOSIG,
LZIB,2024-06-25 14:30,82.40,60.80,48.05,180.00,4.00,0.00,29.97,,6.21,,FEW,,,,4800.00,,,,,,,,,,,82.90,LZIB 251430Z 18004KT 130V220 9999 FEW048 28/16 Q1015 NOSIG,
LZIB,2024-06-25 15:00,82.40,60.80,48.05,160.00,5.00,0.00,29.97,,6.21,,FEW,,,,4800.00,,,,,,,,,,,82.90,LZIB 251500Z 16005KT 100V210 9999 FEW048 28/16 Q1015 NOSIG,
LZIB,2024-06-25 15:30,82.40,60.80,48.05,170.00,5.00,0.00,29.97,,6.21,,FEW,,,,4800.00,,,,,,,,,,,82.90,LZIB 251530Z 17005KT 130V210 9999 FEW048 28/16 Q1015 NOSIG,
LZIB,2024-06-25 16:00,82.40,59.00,45.07,,1.00,0.00,29.97,,6.21,,,,,,,,,,,,,,,,,82.46,LZIB 251600Z VRB01KT CAVOK 28/15 Q1015 NOSIG,
LZIB,2024-06-25 16:30,82.40,60.80,48.05,160.00,6.00,0.00,29.97,,6.21,,,,,,,,,,,,,,,,,82.90,LZIB 251630Z 16006KT CAVOK 28/16 Q1015 NOSIG,
LZIB,2024-06-25 17:00,82.40,62.60,51.21,150.00,4.00,0.00,29.94,,6.21,,,,,,,,,,,,,,,,,83.41,LZIB 251700Z 15004KT 110V190 CAVOK 28/17 Q1014 NOSIG,
LZIB,2024-06-25 17:30,80.60,62.60,54.30,170.00,4.00,0.00,29.94,,6.21,,,,,,,,,,,,,,,,,81.84,LZIB 251730Z 17004KT CAVOK 27/17 Q1014 NOSIG,
LZIB,2024-06-25 18:00,80.60,62.60,54.30,,2.00,0.00,29.94,,6.21,,,,,,,,,,,,,,,,,81.84,LZIB 251800Z VRB02KT CAVOK 27/17 Q1014 NOSIG,
LZIB,2024-06-25 18:30,78.80,62.60,57.60,60.00,3.00,0.00,29.94,,6.21,,,,,,,,,,,,,,,,,78.80,LZIB 251830Z 06003KT 030V090 CAVOK 26/17 Q1014 NOSIG,
LZIB,2024-06-25 19:00,77.00,62.60,61.13,90.00,4.00,0.00,29.94,,6.21,,,,,,,,,,,,,,,,,77.00,LZIB 251900Z 09004KT CAVOK 25/17 Q1014 NOSIG,
LZIB,2024-06-25 19:30,77.00,60.80,57.36,90.00,4.00,0.00,29.94,,6.21,,,,,,,,,,,,,,,,,77.00,LZIB 251930Z 09004KT CAVOK 25/16 Q1014 NOSIG,
LZIB,2024-06-25 20:00,73.40,62.60,68.94,60.00,3.00,0.00,29.94,,6.21,,,,,,,,,,,,,,,,,73.40,LZIB 252000Z 06003KT CAVOK 23/17 Q1014 NOSIG,
LZIB,2024-06-25 20:30,71.60,62.60,73.27,350.00,4.00,0.00,29.94,,6.21,,,,,,,,,,,,,,,,,71.60,LZIB 252030Z 35004KT CAVOK 22/17 Q1014 NOSIG,
LZIB,2024-06-25 21:00,71.60,62.60,73.27,10.00,3.00,0.00,29.94,,6.21,,,,,,,,,,,,,,,,,71.60,LZIB 252100Z 01003KT CAVOK 22/17 Q1014 NOSIG,
LZIB,2024-06-25 21:30,69.80,60.80,73.09,20.00,4.00,0.00,29.94,,6.21,,,,,,,,,,,,,,,,,69.80,LZIB 252130Z 02004KT CAVOK 21/16 Q1014 NOSIG,
LZIB,2024-06-25 22:00,68.00,62.60,82.86,30.00,5.00,0.00,29.94,,6.21,,,,,,,,,,,,,,,,,68.00,LZIB 252200Z 03005KT CAVOK 20/17 Q1014 NOSIG,
LZIB,2024-06-25 22:30,68.00,62.60,82.86,20.00,5.00,0.00,29.94,,6.21,,,,,,,,,,,,,,,,,68.00,LZIB 252230Z 02005KT CAVOK 20/17 Q1014 NOSIG,
LZIB,2024-06-25 23:00,68.00,62.60,82.86,20.00,5.00,0.00,29.94,,6.21,,,,,,,,,,,,,,,,,68.00,LZIB 252300Z 02005KT CAVOK 20/17 Q1014 NOSIG,
LZIB,2024-06-25 23:30,68.00,60.80,77.75,30.00,6.00,0.00,29.94,,6.21,,,,,,,,,,,,,,,,,68.00,LZIB 252330Z 03006KT CAVOK 20/16 Q1014 NOSIG,
LZIB,2024-06-26 00:00,68.00,62.60,82.86,40.00,5.00,0.00,29.94,,6.21,,,,,,,,,,,,,,,,,68.00,LZIB 260000Z 04005KT CAVOK 20/17 Q1014 TEMPO SHRA FEW040CB,
LZIB,2024-06-26 00:30,68.00,62.60,82.86,40.00,7.00,0.00,29.94,,6.21,,FEW,,,,3600.00,,,,-SHRA,,,,,,,68.00,LZIB 260030Z 04007KT 9999 -SHRA FEW036CB 20/17 Q1014 RESHRA TEMPO SHRA FEW040CB,
LZIB,2024-06-26 01:00,68.00,64.40,88.26,70.00,3.00,0.00,29.97,,6.21,,FEW,,,,3600.00,,,,,,,,,,,68.00,LZIB 260100Z 07003KT 040V170 9999 FEW036 20/18 Q1015 TEMPO SHRA FEW040CB,
LZIB,2024-06-26 01:30,68.00,64.40,88.26,360.00,3.00,0.00,29.94,,6.21,,FEW,,,,3600.00,,,,-SHRA,,,,,,,68.00,LZIB 260130Z 36003KT 9999 -SHRA FEW036TCU 20/18 Q1014 TEMPO SHRA FEW040CB,
LZIB,2024-06-26 02:00,66.20,64.40,93.92,20.00,5.00,0.00,29.94,,6.21,,FEW,,,,3600.00,,,,,,,,,,,66.20,LZIB 260200Z 02005KT 9999 FEW036 19/18 Q1014 TEMPO TSRA,
LZIB,2024-06-26 02:30,66.20,62.60,88.18,360.00,5.00,0.00,29.94,,6.21,,FEW,,,,3600.00,,,,,,,,,,,66.20,LZIB 260230Z 36005KT 9999 FEW036TCU 19/17 Q1014 TEMPO TSRA,
LZIB,2024-06-26 03:00,66.20,62.60,88.18,10.00,3.00,0.00,29.94,,6.21,,FEW,,,,4000.00,,,,-SHRA,,,,,,,66.20,LZIB 260300Z 01003KT 340V040 9999 -SHRA FEW040CB 19/17 Q1014 TEMPO TSRA,
LZIB,2024-06-26 03:30,66.20,62.60,88.18,50.00,3.00,0.00,29.94,,6.21,,FEW,,,,4000.00,,,,,,,,,,,66.20,LZIB 260330Z 05003KT 020V080 9999 FEW040TCU 19/17 Q1014 TEMPO TSRA,
LZIB,2024-06-26 04:00,66.20,62.60,88.18,10.00,4.00,0.00,29.94,,6.21,,FEW,,,,3600.00,,,,VCTS,,,,,,,66.20,LZIB 260400Z 01004KT 9999 VCTS FEW036CB 19/17 Q1014 TEMPO SHRA,
LZIB,2024-06-26 04:30,66.20,64.40,93.92,60.00,3.00,0.00,29.97,,6.21,,FEW,SCT,,,2500.00,4200.00,,,-TSRA,,,,,,,66.20,LZIB 260430Z 06003KT 020V160 9999 -TSRA FEW025 SCT042CB 19/18 Q1015 BECMG NSW NSC,
LZIB,2024-06-26 05:00,66.20,64.40,93.92,20.00,6.00,0.00,29.94,,6.21,,FEW,FEW,,,2500.00,4200.00,,,-SHRA,,,,,,,66.20,LZIB 260500Z 02006KT 9999 -SHRA FEW025 FEW042CB 19/18 Q1014 RETSRA BECMG NSC,
LZIB,2024-06-26 05:30,66.20,62.60,88.18,60.00,7.00,0.00,29.94,,6.21,,FEW,FEW,,,2600.00,4000.00,,,-SHRA,,,,,,,66.20,LZIB 260530Z 06007KT 9999 -SHRA FEW026 FEW040TCU 19/17 Q1014 NOSIG,
LZIB,2024-06-26 06:00,68.00,64.40,88.26,50.00,6.00,0.00,29.94,,6.21,,FEW,,,,4000.00,,,,,,,,,,,68.00,LZIB 260600Z 05006KT 9999 FEW040 20/18 Q1014 NOSIG,
LZIB,2024-06-26 06:30,69.80,64.40,82.98,50.00,8.00,0.00,29.94,,6.21,,FEW,,,,2500.00,,,,,,,,,,,69.80,LZIB 260630Z 05008KT 9999 FEW025 21/18 Q1014 NOSIG,
LZIB,2024-06-26 07:00,71.60,64.40,78.04,50.00,9.00,0.00,29.94,,6.21,,FEW,,,,2500.00,,,,,,,,,,,71.60,LZIB 260700Z 05009KT 9999 FEW025 22/18 Q1014 NOSIG,
LZIB,2024-06-26 07:30,71.60,66.20,83.09,60.00,10.00,0.00,29.94,,6.21,,FEW,,,,2600.00,,,,,,,,,,,71.60,LZIB 260730Z 06010KT 9999 FEW026 22/19 Q1014 NOSIG,
LZIB,2024-06-26 08:00,73.40,66.20,78.19,70.00,7.00,0.00,29.94,,6.21,,FEW,,,,1600.00,,,,,,,,,,,73.40,LZIB 260800Z 07007KT 040V100 9999 FEW016 23/19 Q1014 NOSIG,
LZIB,2024-06-26 08:30,75.20,64.40,69.14,80.00,8.00,0.00,29.94,,6.21,,FEW,,,,2300.00,,,,,,,,,,,75.20,LZIB 260830Z 08008KT 050V110 9999 FEW023 24/18 Q1014 NOSIG,
LZIB,2024-06-26 09:00,78.80,64.40,61.36,80.00,11.00,0.00,29.94,,6.21,,SCT,BKN,,,3100.00,3900.00,,,,,,,,,,78.80,LZIB 260900Z 08011KT 050V110 9999 SCT031 BKN039 26/18 Q1014 NOSIG,
LZIB,2024-06-26 09:30,78.80,64.40,61.36,80.00,10.00,0.00,29.94,,6.21,,FEW,BKN,,,3100.00,3400.00,,,,,,,,,,78.80,LZIB 260930Z 08010KT 9999 FEW031 BKN034 26/18 Q1014 NOSIG,
LZIB,2024-06-26 10:00,78.80,62.60,57.60,100.00,9.00,0.00,29.94,,6.21,,FEW,,,,3500.00,,,,,,,,,,,78.80,LZIB 261000Z 10009KT 070V130 9999 FEW035 26/17 Q1014 NOSIG,
LZIB,2024-06-26 10:30,80.60,64.40,57.84,90.00,9.00,0.00,29.94,,6.21,,FEW,,,,3300.00,,,,,,,,,,,82.27,LZIB 261030Z 09009KT 050V130 9999 FEW033 27/18 Q1014 NOSIG,
LZIB,2024-06-26 11:00,80.60,64.40,57.84,120.00,7.00,0.00,29.91,,6.21,,FEW,,,,3600.00,,,,,,,,,,,82.27,LZIB 261100Z 12007KT 080V150 9999 FEW036 27/18 Q1013 NOSIG,
LZIB,2024-06-26 11:30,82.40,66.20,58.08,100.00,6.00,0.00,29.91,,6.21,,FEW,,,,3800.00,,,,,,,,,,,84.63,LZIB 261130Z 10006KT 060V150 9999 FEW038 28/19 Q1013 NOSIG,
LZIB,2024-06-26 12:00,82.40,64.40,54.55,110.00,6.00,0.00,29.91,,6.21,,SCT,,,,4200.00,,,,,,,,,,,83.98,LZIB 261200Z 11006KT 090V160 9999 SCT042 28/18 Q1013 NOSIG,
LZIB,2024-06-26 12:30,84.20,66.20,54.80,110.00,7.00,0.00,29.88,,6.21,,SCT,,,,4300.00,,,,,,,,,,,86.50,LZIB 261230Z 11007KT 050V200 9999 SCT043 29/19 Q1012 NOSIG,
LZIB,2024-06-26 13:00,84.20,66.20,54.80,170.00,7.00,0.00,29.88,,6.21,,SCT,,,,4300.00,,,,,,,,,,,86.50,LZIB 261300Z 17007KT 130V240 9999 SCT043 29/19 Q1012 NOSIG,
LZIB,2024-06-26 13:30,84.20,66.20,54.80,160.00,8.00,0.00,29.85,,6.21,,FEW,,,,4300.00,,,,,,,,,,,86.50,LZIB 261330Z 16008KT 9999 FEW043 29/19 Q1011 NOSIG,
LZIB,2024-06-26 14:00,82.40,66.20,58.08,170.00,5.00,0.00,29.85,,6.21,,FEW,,,,4000.00,,,,,,,,,,,84.63,LZIB 261400Z 17005KT 9999 FEW040TCU 28/19 Q1011 TEMPO TSRA SCT040CB,
LZIB,2024-06-26 14:30,80.60,66.20,61.58,180.00,5.00,0.00,29.85,,6.21,,FEW,FEW,,,2500.00,4000.00,,,-SHRA VCTS,,,,,,,82.75,LZIB 261430Z 18005KT 9999 -SHRA VCTS FEW025 FEW040CB 27/19 Q1011 TEMPO 3000 TSRA SCT040CB,
LZIB,2024-06-26 15:00,78.80,68.00,69.52,180.00,5.00,0.00,29.85,,6.21,,FEW,FEW,,,2500.00,4000.00,,,-SHRA VCTS,,,,,,,78.80,LZIB 261500Z 18005KT 9999 -SHRA VCTS FEW025 FEW040CB 26/20 Q1011 TEMPO 3000 TSRA SCT040CB,
LZIB,2024-06-26 15:30,77.00,69.80,78.48,140.00,7.00,0.00,29.85,,6.21,,FEW,FEW,,,2500.00,4200.00,,,-SHRA,,,,,,,77.00,LZIB 261530Z 14007KT 100V170 9999 -SHRA FEW025 FEW042TCU 25/21 Q1011 BECMG NSW NSC,
LZIB,2024-06-26 16:00,69.80,64.40,82.98,70.00,19.00,0.00,29.88,,6.21,,FEW,SCT,BKN,,1600.00,2500.00,4200.00,,-SHRA,,,,,,,69.80,LZIB 261600Z 07019KT 9999 -SHRA FEW016 SCT025 BKN042 21/18 Q1012 NOSIG,
LZIB,2024-06-26 16:30,69.80,64.40,82.98,10.00,11.00,0.00,29.88,,6.21,,FEW,FEW,BKN,,1700.00,3800.00,4300.00,,-SHRA,,,,,,,69.80,LZIB 261630Z 01011KT 340V040 9999 -SHRA FEW017 FEW038TCU BKN043 21/18 Q1012 NOSIG,
LZIB,2024-06-26 17:00,69.80,62.60,77.90,20.00,11.00,0.00,29.88,,6.21,,FEW,FEW,,,1200.00,4600.00,,,,,,,,,,69.80,LZIB 261700Z 02011KT 9999 FEW012 FEW046TCU 21/17 Q1012 NOSIG,
LZIB,2024-06-26 17:30,69.80,64.40,82.98,30.00,11.00,0.00,29.88,,6.21,,FEW,BKN,,,1200.00,1600.00,,,,,,,,,,69.80,LZIB 261730Z 03011KT 9999 FEW012 BKN016 21/18 Q1012 NOSIG,
LZIB,2024-06-26 18:00,69.80,62.60,77.90,20.00,9.00,0.00,29.85,,6.21,,FEW,,,,1600.00,,,,,,,,,,,69.80,LZIB 261800Z 02009KT 9999 FEW016 21/17 Q1011 NOSIG,
LZIB,2024-06-26 18:30,69.80,62.60,77.90,50.00,8.00,0.00,29.85,,6.21,,FEW,,,,1600.00,,,,,,,,,,,69.80,LZIB 261830Z 05008KT 9999 FEW016 21/17 Q1011 TEMPO SHRA,
LZIB,2024-06-26 19:00,69.80,64.40,82.98,50.00,7.00,0.00,29.85,,6.21,,FEW,,,,3000.00,,,,,,,,,,,69.80,LZIB 261900Z 05007KT 9999 FEW030 21/18 Q1011 TEMPO SHRA,
LZIB,2024-06-26 19:30,68.00,64.40,88.26,30.00,9.00,0.00,29.88,,6.21,,FEW,FEW,,,2000.00,3500.00,,,-SHRA,,,,,,,68.00,LZIB 261930Z 03009KT 9999 -SHRA FEW020 FEW035TCU 20/18 Q1012 TEMPO SHRA,
LZIB,2024-06-26 20:00,68.00,64.40,88.26,40.00,7.00,0.00,29.88,,6.21,,FEW,FEW,,,1500.00,3500.00,,,-SHRA,,,,,,,68.00,LZIB 262000Z 04007KT 9999 -SHRA FEW015 FEW035CB 20/18 Q1012 TEMPO SHRA,
LZIB,2024-06-26 20:30,68.00,64.40,88.26,30.00,7.00,0.00,29.91,,6.21,,FEW,FEW,,,1500.00,3500.00,,,-SHRA,,,,,,,68.00,LZIB 262030Z 03007KT 9999 -SHRA FEW015 FEW035CB 20/18 Q1013 TEMPO TSRA,
LZIB,2024-06-26 21:00,66.20,64.40,93.92,40.00,7.00,0.00,29.91,,6.21,,FEW,FEW,,,1500.00,3800.00,,,-SHRA,,,,,,,66.20,LZIB 262100Z 04007KT 9999 -SHRA FEW015 FEW038CB 19/18 Q1013 TEMPO TSRA,
LZIB,2024-06-26 21:30,66.20,64.40,93.92,40.00,4.00,0.00,29.88,,6.21,,FEW,,,,3800.00,,,,-SHRA,,,,,,,66.20,LZIB 262130Z 04004KT 9999 -SHRA FEW038CB 19/18 Q1012 TEMPO TSRA,
LZIB,2024-06-26 22:00,66.20,64.40,93.92,10.00,6.00,0.00,29.85,,6.21,,FEW,,,,3800.00,,,,,,,,,,,66.20,LZIB 262200Z 01006KT 9999 FEW038TCU 19/18 Q1011 TEMPO SHRA,
LZIB,2024-06-26 22:30,66.20,64.40,93.92,50.00,8.00,0.00,29.85,,6.21,,FEW,SCT,,,900.00,1500.00,,,,,,,,,,66.20,LZIB 262230Z 05008KT 020V080 9999 FEW009 SCT015 19/18 Q1011 TEMPO SHRA,
LZIB,2024-06-26 23:00,66.20,64.40,93.92,270.00,4.00,0.00,29.83,,6.21,,FEW,,,,1500.00,,,,,,,,,,,66.20,LZIB 262300Z 27004KT 230V330 9999 FEW015 19/18 Q1010 NOSIG,
LZIB,2024-06-26 23:30,66.20,64.40,93.92,10.00,6.00,0.00,29.83,,6.21,,FEW,,,,1500.00,,,,,,,,,,,66.20,LZIB 262330Z 01006KT 9999 FEW015 19/18 Q1010 NOSIG,
LZIB,2024-06-27 00:00,66.20,64.40,93.92,10.00,5.00,0.00,29.85,,6.21,,FEW,,,,3000.00,,,,,,,,,,,66.20,LZIB 270000Z 01005KT 9999 FEW030 19/18 Q1011 NOSIG,
LZIB,2024-06-27 00:30,66.20,64.40,93.92,10.00,2.00,0.00,29.85,,6.21,,BKN,,,,2400.00,,,,,,,,,,,66.20,LZIB 270030Z 01002KT 9999 BKN024 19/18 Q1011 NOSIG,
LZIB,2024-06-27 01:00,66.20,64.40,93.92,0.00,0.00,0.00,29.85,,6.21,,BKN,,,,2400.00,,,,,,,,,,,66.20,LZIB 270100Z 00000KT 9999 BKN024 19/18 Q1011 NOSIG,
LZIB,2024-06-27 01:30,66.20,64.40,93.92,,1.00,0.00,29.85,,6.21,,BKN,,,,2000.00,,,,,,,,,,,66.20,LZIB 270130Z VRB01KT 9999 BKN020 19/18 Q1011 NOSIG,
LZIB,2024-06-27 02:00,66.20,64.40,93.92,360.00,4.00,0.00,29.85,,6.21,,BKN,,,,2000.00,,,,,,,,,,,66.20,LZIB 270200Z 36004KT 330V030 9999 BKN020 19/18 Q1011 NOSIG,
LZIB,2024-06-27 02:30,66.20,64.40,93.92,350.00,3.00,0.00,29.85,,6.21,,SCT,,,,2000.00,,,,,,,,,,,66.20,LZIB 270230Z 35003KT 9999 SCT020 19/18 Q1011 NOSIG,
LZIB,2024-06-27 03:00,64.40,64.40,100.00,30.00,5.00,0.00,29.85,,6.21,,FEW,,,,2000.00,,,,,,,,,,,64.40,LZIB 270300Z 03005KT 9999 FEW020 18/18 Q1011 NOSIG,
LZIB,2024-06-27 03:30,66.20,64.40,93.92,40.00,5.00,0.00,29.85,,6.21,,FEW,,,,2000.00,,,,,,,,,,,66.20,LZIB 270330Z 04005KT 9999 FEW020 19/18 Q1011 NOSIG,
LZIB,2024-06-27 04:00,66.20,64.40,93.92,40.00,5.00,0.00,29.85,,6.21,,FEW,,,,2000.00,,,,,,,,,,,66.20,LZIB 270400Z 04005KT 9999 FEW020 19/18 Q1011 NOSIG,
LZIB,2024-06-27 04:30,66.20,64.40,93.92,50.00,3.00,0.00,29.85,,6.21,,FEW,,,,2000.00,,,,,,,,,,,66.20,LZIB 270430Z 05003KT 9999 FEW020 19/18 Q1011 NOSIG,
LZIB,2024-06-27 05:00,68.00,66.20,93.97,40.00,3.00,0.00,29.85,,6.21,,FEW,,,,1400.00,,,,,,,,,,,68.00,LZIB 270500Z 04003KT 9999 FEW014 20/19 Q1011 NOSIG,
LZIB,2024-06-27 05:30,69.80,66.20,88.34,30.00,7.00,0.00,29.85,,6.21,,FEW,,,,1600.00,,,,,,,,,,,69.80,LZIB 270530Z 03007KT 9999 FEW016 21/19 Q1011 NOSIG,
LZIB,2024-06-27 06:00,71.60,68.00,88.43,30.00,7.00,0.00,29.85,,6.21,,,,,,,,,,,,,,,,,71.60,LZIB 270600Z 03007KT CAVOK 22/20 Q1011 NOSIG,
LZIB,2024-06-27 06:30,71.60,66.20,83.09,60.00,4.00,0.00,29.85,,6.21,,FEW,,,,1300.00,,,,,,,,,,,71.60,LZIB 270630Z 06004KT 030V110 9999 FEW013 22/19 Q1011 NOSIG,
LZIB,2024-06-27 07:00,73.40,68.00,83.21,80.00,7.00,0.00,29.85,,6.21,,FEW,SCT,,,1200.00,2700.00,,,,,,,,,,73.40,LZIB 270700Z 08007KT 040V100 9999 FEW012 SCT027 23/20 Q1011 NOSIG,
LZIB,2024-06-27 07:30,73.40,68.00,83.21,80.00,7.00,0.00,29.85,,6.21,,FEW,SCT,,,1100.00,3500.00,,,,,,,,,,73.40,LZIB 270730Z 08007KT 9999 FEW011 SCT035 23/20 Q1011 NOSIG,
LZIB,2024-06-27 08:00,75.20,68.00,78.34,70.00,6.00,0.00,29.85,,6.21,,FEW,SCT,,,1400.00,1900.00,,,,,,,,,,75.20,LZIB 270800Z 07006KT 040V100 9999 FEW014 SCT019 24/20 Q1011 NOSIG,
LZIB,2024-06-27 08:30,75.20,66.20,73.61,,3.00,0.00,29.85,,6.21,,FEW,SCT,,,1600.00,2300.00,,,,,,,,,,75.20,LZIB 270830Z VRB03KT 9999 FEW016 SCT023 24/19 Q1011 NOSIG,
LZIB,2024-06-27 09:00,77.00,64.40,65.12,100.00,4.00,0.00,29.85,,6.21,,SCT,,,,2700.00,,,,,,,,,,,77.00,LZIB 270900Z 10004KT 040V130 9999 SCT027 25/18 Q1011 NOSIG,
LZIB,2024-06-27 09:30,77.00,66.20,69.33,110.00,3.00,0.00,29.85,,6.21,,SCT,,,,2800.00,,,,,,,,,,,77.00,LZIB 270930Z 11003KT 040V170 9999 SCT028 25/19 Q1011 NOSIG,
LZIB,2024-06-27 10:00,78.80,64.40,61.36,,4.00,0.00,29.85,,6.21,,SCT,,,,3100.00,,,,,,,,,,,78.80,LZIB 271000Z VRB04KT 9999 SCT031 26/18 Q1011 NOSIG,
LZIB,2024-06-27 10:30,78.80,66.20,65.33,,3.00,0.00,29.85,,6.21,,SCT,,,,3200.00,,,,,,,,,,,78.80,LZIB 271030Z VRB03KT 9999 SCT032 26/19 Q1011 NOSIG,
LZIB,2024-06-27 11:00,80.60,64.40,57.84,90.00,5.00,0.00,29.85,,6.21,,SCT,,,,3300.00,,,,,,,,,,,82.27,LZIB 271100Z 09005KT 050V160 9999 SCT033 27/18 Q1011 NOSIG,
LZIB,2024-06-27 11:30,80.60,64.40,57.84,100.00,6.00,0.00,29.85,,6.21,,SCT,,,,3600.00,,,,,,,,,,,82.27,LZIB 271130Z 10006KT 050V200 9999 SCT036 27/18 Q1011 NOSIG,
LZIB,2024-06-27 12:00,80.60,64.40,57.84,110.00,5.00,0.00,29.85,,6.21,,BKN,,,,4000.00,,,,,,,,,,,82.27,LZIB 271200Z 11005KT 060V160 9999 BKN040 27/18 Q1011 NOSIG,
LZIB,2024-06-27 12:30,80.60,64.40,57.84,100.00,5.00,0.00,29.85,,6.21,,SCT,,,,4000.00,,,,,,,,,,,82.27,LZIB 271230Z 10005KT 040V140 9999 SCT040 27/18 Q1011 NOSIG,
LZIB,2024-06-27 13:00,80.60,64.40,57.84,90.00,6.00,0.00,29.83,,6.21,,FEW,SCT,,,3600.00,4000.00,,,,,,,,,,82.27,LZIB 271300Z 09006KT 040V120 9999 FEW036TCU SCT040 27/18 Q1010 NOSIG,
LZIB,2024-06-27 13:30,82.40,66.20,58.08,110.00,6.00,0.00,29.83,,6.21,,FEW,SCT,,,3600.00,4000.00,,,,,,,,,,84.63,LZIB 271330Z 11006KT 060V140 9999 FEW036TCU SCT040 28/19 Q1010 NOSIG,
LZIB,2024-06-27 14:00,82.40,66.20,58.08,150.00,3.00,0.00,29.83,,6.21,,FEW,SCT,,,4000.00,4300.00,,,,,,,,,,84.63,LZIB 271400Z 15003KT 080V220 9999 FEW040CB SCT043 28/19 Q1010 TEMPO TSRA,
LZIB,2024-06-27 14:30,80.60,69.80,69.71,180.00,5.00,0.00,29.83,,6.21,,FEW,SCT,,,4000.00,4400.00,,,SHRA,,,,,,,83.90,LZIB 271430Z 18005KT 120V210 9999 SHRA FEW040CB SCT044 27/21 Q1010 TEMPO TSRA,
LZIB,2024-06-27 15:00,77.00,68.00,73.78,120.00,7.00,0.00,29.83,,6.21,,FEW,,,,3800.00,,,,VCTS,,,,,,,77.00,LZIB 271500Z 12007KT 9999 VCTS FEW038CB 25/20 Q1010 RESHRA TEMPO TSRA,
LZIB,2024-06-27 15:30,75.20,66.20,73.61,240.00,5.00,0.00,29.83,,6.21,,FEW,FEW,,,2300.00,4000.00,,,VCTS,,,,,,,75.20,LZIB 271530Z 24005KT 180V280 9999 VCTS FEW023 FEW040CB 24/19 Q1010 RETS TEMPO TSRA,
LZIB,2024-06-27 16:00,75.20,68.00,78.34,,1.00,0.00,29.83,,6.21,,FEW,,,,4000.00,,,,,,,,,,,75.20,LZIB 271600Z VRB01KT 9999 FEW040CB 24/20 Q1010 NOSIG,
LZIB,2024-06-27 16:30,75.20,66.20,73.61,,2.00,0.00,29.83,,6.21,,FEW,,,,2600.00,,,,,,,,,,,75.20,LZIB 271630Z VRB02KT 9999 FEW026 24/19 Q1010 NOSIG,
LZIB,2024-06-27 17:00,75.20,68.00,78.34,290.00,4.00,0.00,29.85,,6.21,,FEW,,,,3000.00,,,,,,,,,,,75.20,LZIB 271700Z 29004KT 240V340 9999 FEW030 24/20 Q1011 NOSIG,
LZIB,2024-06-27 17:30,73.40,68.00,83.21,320.00,3.00,0.00,29.83,,6.21,,FEW,,,,4000.00,,,,,,,,,,,73.40,LZIB 271730Z 32003KT 9999 FEW040 23/20 Q1010 NOSIG,
LZIB,2024-06-27 18:00,73.40,68.00,83.21,320.00,4.00,0.00,29.85,,6.21,,FEW,,,,4000.00,,,,,,,,,,,73.40,LZIB 271800Z 32004KT 9999 FEW040 23/20 Q1011 NOSIG,
LZIB,2024-06-27 18:30,73.40,68.00,83.21,,2.00,0.00,29.85,,6.21,,,,,,,,,,,,,,,,,73.40,LZIB 271830Z VRB02KT CAVOK 23/20 Q1011 NOSIG,
LZIB,2024-06-27 19:00,71.60,68.00,88.43,340.00,3.00,0.00,29.88,,6.21,,,,,,,,,,,,,,,,,71.60,LZIB 271900Z 34003KT CAVOK 22/20 Q1012 NOSIG,
LZIB,2024-06-27 19:30,71.60,66.20,83.09,,2.00,0.00,29.88,,6.21,,,,,,,,,,,,,,,,,71.60,LZIB 271930Z VRB02KT CAVOK 22/19 Q1012 NOSIG,
LZIB,2024-06-27 20:00,71.60,66.20,83.09,,1.00,0.00,29.88,,6.21,,,,,,,,,,,,,,,,,71.60,LZIB 272000Z VRB01KT CAVOK 22/19 Q1012 NOSIG,
LZIB,2024-06-27 20:30,71.60,66.20,83.09,,1.00,0.00,29.88,,6.21,,,,,,,,,,,,,,,,,71.60,LZIB 272030Z VRB01KT CAVOK 22/19 Q1012 NOSIG,
LZIB,2024-06-27 21:00,69.80,66.20,88.34,330.00,4.00,0.00,29.88,,6.21,,,,,,,,,,,,,,,,,69.80,LZIB 272100Z 33004KT CAVOK 21/19 Q1012 NOSIG,
LZIB,2024-06-27 21:30,68.00,64.40,88.26,40.00,8.00,0.00,29.88,,6.21,,,,,,,,,,,,,,,,,68.00,LZIB 272130Z 04008KT CAVOK 20/18 Q1012 NOSIG,
LZIB,2024-06-27 22:00,68.00,64.40,88.26,20.00,4.00,0.00,29.88,,6.21,,,,,,,,,,,,,,,,,68.00,LZIB 272200Z 02004KT CAVOK 20/18 Q1012 NOSIG,
LZIB,2024-06-27 22:30,68.00,64.40,88.26,320.00,3.00,0.00,29.88,,6.21,,,,,,,,,,,,,,,,,68.00,LZIB 272230Z 32003KT CAVOK 20/18 Q1012 NOSIG,
LZIB,2024-06-27 23:00,69.80,64.40,82.98,,2.00,0.00,29.88,,6.21,,,,,,,,,,,,,,,,,69.80,LZIB 272300Z VRB02KT CAVOK 21/18 Q1012 NOSIG,
LZIB,2024-06-27 23:30,68.00,64.40,88.26,220.00,3.00,0.00,29.88,,6.21,,,,,,,,,,,,,,,,,68.00,LZIB 272330Z 22003KT CAVOK 20/18 Q1012 NOSIG,
